{"type":"FeatureCollection","_source":"Multi-state Australian tenement registry","_holders":["GOLDEN GROVE OPERATIONS PTY LTD"],"_ticker":"29M.AX","features":[{"type":"Feature","geometry":{"type":"Polygon","coordinates":[[[117.01783596670197,-28.856084204843693],[117.02027208498765,-28.857735523441598],[117.03001806920535,-28.864339695811545],[117.03975115535944,-28.87093335056251],[117.04220066053102,-28.872592546622613],[117.04951207289223,-28.87754445781948],[117.05438529755504,-28.880844979918187],[117.05924567260286,-28.884136403721847],[117.06656601447766,-28.889089916768686],[117.07157623759868,-28.883360536208574],[117.05938817274698,-28.875120088352997],[117.04719519462292,-28.866871476727905],[117.03501368797787,-28.85862518714948],[117.02283481644315,-28.85036695253489],[117.01783596670197,-28.856084204843693]]]},"properties":{"fmt_tenid":"M 59/143","type":"MINING LEASE","tenstatus":"LIVE","holder1":"GOLDEN GROVE OPERATIONS PTY LTD","holder2":" ","legal_area":480,"unit_of_me":"HA.","_colour":"#f5a520","_label":"Mining Lease"}},{"type":"Feature","geometry":{"type":"Polygon","coordinates":[[[116.95547891041186,-28.74999733479892],[116.95048060074899,-28.755707695052468],[116.94923896999596,-28.75713446391291],[116.95086092600974,-28.758236104684332],[116.94778572656273,-28.77209557877484],[116.9526546462385,-28.77540306059537],[116.9591359251665,-28.779805201625116],[116.96481288276895,-28.783660483546374],[116.97519459605358,-28.790709436900602],[116.98019682268442,-28.784992963061285],[116.98198234877847,-28.78620160476114],[116.9869788419611,-28.78048883385993],[116.97481098142,-28.772231289495522],[116.96264949470473,-28.763973216154632],[116.95843361987971,-28.76110992385685],[116.9601924748666,-28.75319747574956],[116.95547891041186,-28.74999733479892]]]},"properties":{"fmt_tenid":"M 59/195","type":"MINING LEASE","tenstatus":"LIVE","holder1":"GOLDEN GROVE OPERATIONS PTY LTD","holder2":" ","legal_area":687.45,"unit_of_me":"HA.","_colour":"#f5a520","_label":"Mining Lease"}},{"type":"Feature","geometry":{"type":"Polygon","coordinates":[[[116.93614625477524,-28.727763854141525],[116.93427833389919,-28.729900164097195],[116.958601522765,-28.746419827545623],[116.95547891041186,-28.74999733479892],[116.9601924748666,-28.75319747574956],[116.95843361987971,-28.76110992385685],[116.96264949470473,-28.763973216154632],[116.97481098142,-28.772231289495522],[116.9869788419611,-28.78048883385993],[116.98198234877847,-28.78620160476114],[116.98603221106058,-28.78895348330937],[116.99606019181937,-28.77754020320877],[116.99198010805766,-28.774770144987542],[116.97981351242743,-28.766510176712696],[116.96764880520114,-28.758259457624252],[116.97265200057558,-28.75253025254537],[116.97765383001435,-28.746807209970004],[116.98123093675241,-28.742720020591864],[116.9569058184457,-28.72619823179755],[116.95332128755021,-28.730290527620912],[116.94831602010068,-28.73602416368608],[116.93614625477524,-28.727763854141525]]]},"properties":{"fmt_tenid":"M 59/227","type":"MINING LEASE","tenstatus":"LIVE","holder1":"GOLDEN GROVE OPERATIONS PTY LTD","holder2":" ","legal_area":999.85,"unit_of_me":"HA.","_colour":"#f5a520","_label":"Mining Lease"}},{"type":"Feature","geometry":{"type":"Polygon","coordinates":[[[116.93115875458446,-28.73346772625732],[116.92616325580971,-28.739179937314557],[116.92491316357567,-28.740609251610973],[116.94923896999596,-28.75713446391291],[116.95048060074899,-28.755707695052468],[116.95547891041186,-28.74999733479892],[116.958601522765,-28.746419827545623],[116.93427833389919,-28.729900164097195],[116.93115875458446,-28.73346772625732]]]},"properties":{"fmt_tenid":"M 59/3","type":"MINING LEASE","tenstatus":"LIVE","holder1":"GOLDEN GROVE OPERATIONS PTY LTD","holder2":" ","legal_area":449.55,"unit_of_me":"HA.","_colour":"#f5a520","_label":"Mining Lease"}},{"type":"Feature","geometry":{"type":"Polygon","coordinates":[[[116.94764975318328,-28.781124889544444],[116.94265228955396,-28.786835898186332],[116.93764846653986,-28.7925520639147],[116.9498060392787,-28.80080895935851],[116.96197305354919,-28.809071066021417],[116.96602877645019,-28.811824619733994],[116.97102960634145,-28.806106946649606],[116.96697570898952,-28.803354550601558],[116.97197660184499,-28.797639243637146],[116.97697932151911,-28.791921048906087],[116.97519459605358,-28.790709436900602],[116.96481288276895,-28.783660483546374],[116.9591359251665,-28.779805201625116],[116.9526546462385,-28.77540306059537],[116.94764975318328,-28.781124889544444]]]},"properties":{"fmt_tenid":"M 59/361","type":"MINING LEASE","tenstatus":"LIVE","holder1":"GOLDEN GROVE OPERATIONS PTY LTD","holder2":" ","legal_area":759.7,"unit_of_me":"HA.","_colour":"#f5a520","_label":"Mining Lease"}},{"type":"Feature","geometry":{"type":"Polygon","coordinates":[[[116.91347986650791,-28.775812089756993],[116.91816876439681,-28.77903688139428],[116.93477951745301,-28.79046961591646],[116.93764846653986,-28.7925520639147],[116.94265228955396,-28.786835898186332],[116.94764975318328,-28.781124889544444],[116.9526546462385,-28.77540306059537],[116.94778572656273,-28.77209557877484],[116.94048597147903,-28.767136087358452],[116.9283236449164,-28.758875690662514],[116.91616594845601,-28.75061137995421],[116.91081454169982,-28.756371491790677],[116.90591282424153,-28.76190042039838],[116.91829264067711,-28.77035593475772],[116.91347986650791,-28.775812089756993]]]},"properties":{"fmt_tenid":"M 59/362","type":"MINING LEASE","tenstatus":"LIVE","holder1":"GOLDEN GROVE OPERATIONS PTY LTD","holder2":" ","legal_area":958.3,"unit_of_me":"HA.","_colour":"#f5a520","_label":"Mining Lease"}},{"type":"Feature","geometry":{"type":"Polygon","coordinates":[[[116.89458397466939,-28.708619558786612],[116.90023030394973,-28.71247096582045],[116.89951209880059,-28.748596537614507],[116.91081454169982,-28.756371491790677],[116.91616594845601,-28.75061137995421],[116.92115837849725,-28.744902055102035],[116.90898983752724,-28.73665049770736],[116.91400491391796,-28.730918802475585],[116.91900377240181,-28.72520339748338],[116.90684350740655,-28.716942432105867],[116.91184416099534,-28.711220009082975],[116.89968292902167,-28.70295693730328],[116.89458397466939,-28.708619558786612]]]},"properties":{"fmt_tenid":"M 59/363","type":"MINING LEASE","tenstatus":"LIVE","holder1":"GOLDEN GROVE OPERATIONS PTY LTD","holder2":" ","legal_area":722.65,"unit_of_me":"HA.","_colour":"#f5a520","_label":"Mining Lease"}},{"type":"Feature","geometry":{"type":"Polygon","coordinates":[[[116.88916468461608,-28.627635018796752],[116.89160505323306,-28.634259475737704],[116.89476486001291,-28.64283692705102],[116.8979256380096,-28.65141714640745],[116.90108599974235,-28.659993670736796],[116.90198449715908,-28.658965429668037],[116.90698159529164,-28.653246121332504],[116.91198270858978,-28.647518913246977],[116.9121309437016,-28.6473491444238],[116.90959331925889,-28.648076150788594],[116.90643346400822,-28.63949248047334],[116.90485195726718,-28.63519715416405],[116.90327586279761,-28.63091697612394],[116.90083533351998,-28.624288978869036],[116.88916468461608,-28.627635018796752]]]},"properties":{"fmt_tenid":"M 59/480","type":"MINING LEASE","tenstatus":"LIVE","holder1":"GOLDEN GROVE OPERATIONS PTY LTD","holder2":" ","legal_area":405.55,"unit_of_me":"HA.","_colour":"#f5a520","_label":"Mining Lease"}},{"type":"Feature","geometry":{"type":"Polygon","coordinates":[[[116.8347608347963,-28.532074041611313],[116.8347608710209,-28.537967363644213],[116.83586334703148,-28.537404810876332],[116.84085920067923,-28.542536158020575],[116.84040017835495,-28.54286386103573],[116.84437693590817,-28.546796012842528],[116.84599009746663,-28.545913944845847],[116.84789868866629,-28.548740144928374],[116.85142677735723,-28.548739754555555],[116.8514268460641,-28.55396378198684],[116.8534816379202,-28.557005740964534],[116.85915705027786,-28.565407124504883],[116.86296274681776,-28.565407076027697],[116.86703294944076,-28.562999947150075],[116.86809326168158,-28.564345755395223],[116.86809280816449,-28.548740196593652],[116.86809409588395,-28.532073529727196],[116.85142748656726,-28.53207374424025],[116.8347608347963,-28.532074041611313]]]},"properties":{"fmt_tenid":"M 59/543","type":"MINING LEASE","tenstatus":"LIVE","holder1":"GOLDEN GROVE OPERATIONS PTY LTD","holder2":" ","legal_area":766.9,"unit_of_me":"HA.","_colour":"#f5a520","_label":"Mining Lease"}},{"type":"Feature","geometry":{"type":"Polygon","coordinates":[[[116.89200376586247,-28.670387776216096],[116.88699478667793,-28.67611703836308],[116.8975165358563,-28.683268320054122],[116.9025213929615,-28.67754187313491],[116.91467381377203,-28.685805222291464],[116.91966263030108,-28.68009876842322],[116.90750980429819,-28.67183318956518],[116.91250851696354,-28.66611124686587],[116.90198449715908,-28.658965429668037],[116.90108599974235,-28.659993670736796],[116.8979256380096,-28.65141714640745],[116.89476486001291,-28.64283692705102],[116.89160505323306,-28.634259475737704],[116.88916468461608,-28.627635018796752],[116.88721807080364,-28.62819319566861],[116.8801321347223,-28.63022474759606],[116.87750294102244,-28.630978428532032],[116.8799382520454,-28.637599130994577],[116.88309549293952,-28.64618120001824],[116.88625265658413,-28.654761567157802],[116.88941002429746,-28.663340985773285],[116.89200376586247,-28.670387776216096]]]},"properties":{"fmt_tenid":"M 59/88","type":"MINING LEASE","tenstatus":"LIVE","holder1":"GOLDEN GROVE OPERATIONS PTY LTD","holder2":" ","legal_area":933.15,"unit_of_me":"HA.","_colour":"#f5a520","_label":"Mining Lease"}},{"type":"Feature","geometry":{"type":"Polygon","coordinates":[[[116.91900377240181,-28.72520339748338],[116.92399382879826,-28.71949321291304],[116.92899574190679,-28.713768708339547],[116.93400738935594,-28.70805775435319],[116.92184322768622,-28.69979723463571],[116.92685377527319,-28.69408584067246],[116.91467381377203,-28.685805222291464],[116.9025213929615,-28.67754187313491],[116.8975165358563,-28.683268320054122],[116.8925210980139,-28.688983962740423],[116.90467606790787,-28.69724532492215],[116.89968292902167,-28.70295693730328],[116.91184416099534,-28.711220009082975],[116.90684350740655,-28.716942432105867],[116.91900377240181,-28.72520339748338]]]},"properties":{"fmt_tenid":"M 59/89","type":"MINING LEASE","tenstatus":"LIVE","holder1":"GOLDEN GROVE OPERATIONS PTY LTD","holder2":" ","legal_area":960.45,"unit_of_me":"HA.","_colour":"#f5a520","_label":"Mining Lease"}},{"type":"Feature","geometry":{"type":"Polygon","coordinates":[[[116.91616594845601,-28.75061137995421],[116.9283236449164,-28.758875690662514],[116.94048597147903,-28.767136087358452],[116.94778572656273,-28.77209557877484],[116.95086092600974,-28.758236104684332],[116.94923896999596,-28.75713446391291],[116.92491316357567,-28.740609251610973],[116.92616325580971,-28.739179937314557],[116.93115875458446,-28.73346772625732],[116.93427833389919,-28.729900164097195],[116.93614625477524,-28.727763854141525],[116.94115812202078,-28.72203066243498],[116.92899574190679,-28.713768708339547],[116.92399382879826,-28.71949321291304],[116.91900377240181,-28.72520339748338],[116.91400491391796,-28.730918802475585],[116.90898983752724,-28.73665049770736],[116.92115837849725,-28.744902055102035],[116.91616594845601,-28.75061137995421]]]},"properties":{"fmt_tenid":"M 59/90","type":"MINING LEASE","tenstatus":"LIVE","holder1":"GOLDEN GROVE OPERATIONS PTY LTD","holder2":" ","legal_area":977.05,"unit_of_me":"HA.","_colour":"#f5a520","_label":"Mining Lease"}},{"type":"Feature","geometry":{"type":"Polygon","coordinates":[[[116.97519459605358,-28.790709436900602],[116.97697932151911,-28.791921048906087],[116.97197660184499,-28.797639243637146],[116.96697570898952,-28.803354550601558],[116.97102960634145,-28.806106946649606],[116.97914233082454,-28.81161428981404],[116.991309869294,-28.819872491533125],[116.99631439999371,-28.814153143699436],[117.0013125718154,-28.80844026903763],[117.00631837900008,-28.802717536323655],[116.99414929293788,-28.79445968344434],[116.98603221106058,-28.78895348330937],[116.98198234877847,-28.78620160476114],[116.98019682268442,-28.784992963061285],[116.97519459605358,-28.790709436900602]]]},"properties":{"fmt_tenid":"M 59/91","type":"MINING LEASE","tenstatus":"LIVE","holder1":"GOLDEN GROVE OPERATIONS PTY LTD","holder2":" ","legal_area":737.6,"unit_of_me":"HA.","_colour":"#f5a520","_label":"Mining Lease"}},{"type":"Feature","geometry":{"type":"Polygon","coordinates":[[[117.00348825390041,-28.828136373507792],[116.99849138788063,-28.833848652516828],[117.01065670096676,-28.842104914451447],[117.0156535896175,-28.836388715245363],[117.02066097367798,-28.830660515949837],[117.02565007947904,-28.8249556788738],[117.03065802885672,-28.819228138073726],[117.01849281729994,-28.810977048283913],[117.00631837900008,-28.802717536323655],[117.0013125718154,-28.80844026903763],[116.99631439999371,-28.814153143699436],[116.991309869294,-28.819872491533125],[117.00348825390041,-28.828136373507792]]]},"properties":{"fmt_tenid":"M 59/92","type":"MINING LEASE","tenstatus":"LIVE","holder1":"GOLDEN GROVE OPERATIONS PTY LTD","holder2":" ","legal_area":839.85,"unit_of_me":"HA.","_colour":"#f5a520","_label":"Mining Lease"}},{"type":"Feature","geometry":{"type":"Polygon","coordinates":[[[117.01065670096676,-28.842104914451447],[117.02283481644315,-28.85036695253489],[117.03501368797787,-28.85862518714948],[117.04001253636952,-28.852906214548508],[117.04502611502191,-28.8471687667503],[117.05720034873916,-28.855419214777267],[117.06219291905924,-28.849706896171618],[117.0500145334783,-28.84146022973183],[117.03783254323169,-28.833208160638534],[117.04283361191625,-28.82748426175976],[117.03065802885672,-28.819228138073726],[117.02565007947904,-28.8249556788738],[117.02066097367798,-28.830660515949837],[117.0156535896175,-28.836388715245363],[117.01065670096676,-28.842104914451447]]]},"properties":{"fmt_tenid":"M 59/93","type":"MINING LEASE","tenstatus":"LIVE","holder1":"GOLDEN GROVE OPERATIONS PTY LTD","holder2":" ","legal_area":959.85,"unit_of_me":"HA.","_colour":"#f5a520","_label":"Mining Lease"}},{"type":"Feature","geometry":{"type":"Polygon","coordinates":[[[117.03501368797787,-28.85862518714948],[117.04719519462292,-28.866871476727905],[117.05938817274698,-28.875120088352997],[117.07157623759868,-28.883360536208574],[117.07655674021638,-28.87766567094116],[117.08157197298836,-28.871928349019058],[117.08656184680697,-28.86620396486961],[117.07438084594428,-28.857957858451616],[117.06219291905924,-28.849706896171618],[117.05720034873916,-28.855419214777267],[117.04502611502191,-28.8471687667503],[117.04001253636952,-28.852906214548508],[117.03501368797787,-28.85862518714948]]]},"properties":{"fmt_tenid":"M 59/94","type":"MINING LEASE","tenstatus":"LIVE","holder1":"GOLDEN GROVE OPERATIONS PTY LTD","holder2":" ","legal_area":960.05,"unit_of_me":"HA.","_colour":"#f5a520","_label":"Mining Lease"}},{"type":"Feature","geometry":{"type":"Polygon","coordinates":[[[117.09673455855886,-28.891376113186702],[117.10177862304359,-28.8856080255117],[117.09375029379754,-28.880174234575836],[117.08157197298836,-28.871928349019058],[117.07655674021638,-28.87766567094116],[117.07157623759868,-28.883360536208574],[117.08376158364331,-28.891600099616053],[117.08873651438316,-28.885912102220797],[117.09673455855886,-28.891376113186702]]]},"properties":{"fmt_tenid":"M 59/95","type":"MINING LEASE","tenstatus":"LIVE","holder1":"GOLDEN GROVE OPERATIONS PTY LTD","holder2":" ","legal_area":319.05,"unit_of_me":"HA.","_colour":"#f5a520","_label":"Mining Lease"}}]}