{"type":"FeatureCollection","_source":"Multi-state Australian tenement registry","_holders":["ALKANE RESOURCES LTD"],"_ticker":"ALK.AX","features":[{"type":"Feature","id":"mt.mineraltenement.EL5675","geometry":{"type":"Polygon","coordinates":[[[148.25,-32.5333],[148.25,-32.55],[148.25,-32.5667],[148.25,-32.5833],[148.25,-32.6],[148.2333,-32.6],[148.2333,-32.6167],[148.2333,-32.6333],[148.2333,-32.65],[148.25,-32.65],[148.25,-32.6667],[148.25,-32.6833],[148.25,-32.7],[148.25,-32.7167],[148.25,-32.7333],[148.25,-32.75],[148.25,-32.7667],[148.25,-32.7833],[148.2667,-32.7833],[148.2667,-32.8],[148.2833,-32.8],[148.2833,-32.8167],[148.2833,-32.8333],[148.2833,-32.85],[148.2667,-32.85],[148.2667,-32.8667],[148.2667,-32.8833],[148.2833,-32.8833],[148.2833,-32.9],[148.2667,-32.9],[148.25,-32.9],[148.25,-32.9167],[148.2333,-32.9167],[148.2167,-32.9167],[148.2167,-32.9333],[148.2167,-32.95],[148.2167,-32.9667],[148.2167,-32.9833],[148.2,-32.9833],[148.2,-33],[148.2,-33.0167],[148.2,-33.0333],[148.1833,-33.0333],[148.1833,-33.05],[148.1833,-33.0667],[148.1667,-33.0667],[148.1667,-33.05],[148.1667,-33.0333],[148.1667,-33.0167],[148.1833,-33.0167],[148.1833,-33],[148.1833,-32.9833],[148.1833,-32.9667],[148.1667,-32.9667],[148.1667,-32.95],[148.1833,-32.95],[148.1833,-32.9333],[148.2,-32.9333],[148.2,-32.9167],[148.2,-32.9],[148.2,-32.8833],[148.2,-32.8667],[148.2,-32.85],[148.2,-32.8333],[148.2,-32.8167],[148.2,-32.8],[148.2,-32.7833],[148.2,-32.7667],[148.2167,-32.7667],[148.2167,-32.75],[148.2167,-32.7333],[148.2167,-32.7167],[148.2167,-32.7],[148.2,-32.7],[148.2,-32.6833],[148.1833,-32.6833],[148.1833,-32.6667],[148.1833,-32.65],[148.1833,-32.6333],[148.2,-32.6333],[148.2,-32.6167],[148.2,-32.6],[148.2,-32.5942],[148.2121,-32.5958],[148.2125,-32.5934],[148.2137,-32.5935],[148.2149,-32.5982],[148.2153,-32.5997],[148.216,-32.6027],[148.2166,-32.6026],[148.2243,-32.6011],[148.2239,-32.5997],[148.2235,-32.5982],[148.2227,-32.5949],[148.2316,-32.5961],[148.233,-32.5996],[148.2391,-32.5988],[148.2431,-32.5756],[148.2427,-32.5756],[148.2345,-32.5766],[148.223,-32.5765],[148.2226,-32.5771],[148.2219,-32.5846],[148.2214,-32.5904],[148.221,-32.5947],[148.2192,-32.5942],[148.22,-32.5931],[148.2207,-32.5907],[148.2208,-32.5903],[148.222,-32.5771],[148.2205,-32.5771],[148.2205,-32.5761],[148.2172,-32.5761],[148.2033,-32.5743],[148.2009,-32.5875],[148.2,-32.5927],[148.2,-32.5833],[148.2,-32.5667],[148.2167,-32.5667],[148.2167,-32.55],[148.2333,-32.55],[148.2333,-32.5333],[148.25,-32.5333]]]},"properties":{"@featureType":"MineralTenement","identifier":"https://gs.geoscience.nsw.gov.au/geoserver/mt/wfs?service=WFS&version=2.0.0&request=GetFeature&typeNames=mt:MineralTenement&FEATUREID=mt.mineraltenement.EL5675","name":"EL5675","tenementType":"Exploration Licence","commodity":"Group 1, Group 1 (Mining Act 1992)","owner":"ALKANE RESOURCES LTD","status":"Granted","area":"87 UNITS","grantDate":"2000-01-17","expireDate":"2029-01-17","tenementType_uri":"http://resource.geoscience.gov.au/classifier/ggic/tenementtype/exploration-licence","status_uri":"http://resource.geoscience.gov.au/classifier/ggic/tenement-status/granted","jurisdiction_uri":"http://www.resourcesandgeoscience.nsw.gov.au","fmt_tenid":"EL5675","type":"EXPLORATION LICENCE","tenstatus":"LIVE","holder1":"ALKANE RESOURCES LTD","_colour":"#a0c4f0","_label":"Exploration Licence"}},{"type":"Feature","id":"mt.mineraltenement.EL5942","geometry":{"type":"MultiPolygon","coordinates":[[[[148.1833,-32.7],[148.1833,-32.6833],[148.2,-32.6833],[148.2,-32.7],[148.1833,-32.7]]],[[[148.2167,-32.5167],[148.2167,-32.5],[148.2333,-32.5],[148.2333,-32.5167],[148.2333,-32.5333],[148.2167,-32.5333],[148.2167,-32.5167]]]]},"properties":{"@featureType":"MineralTenement","identifier":"https://gs.geoscience.nsw.gov.au/geoserver/mt/wfs?service=WFS&version=2.0.0&request=GetFeature&typeNames=mt:MineralTenement&FEATUREID=mt.mineraltenement.EL5942","name":"EL5942","tenementType":"Exploration Licence","commodity":"Group 1 (Mining Act 1992)","owner":"ALKANE RESOURCES LTD","status":"Granted","area":"3 UNITS","grantDate":"2002-05-03","expireDate":"2030-05-03","tenementType_uri":"http://resource.geoscience.gov.au/classifier/ggic/tenementtype/exploration-licence","status_uri":"http://resource.geoscience.gov.au/classifier/ggic/tenement-status/granted","jurisdiction_uri":"http://www.resourcesandgeoscience.nsw.gov.au","fmt_tenid":"EL5942","type":"EXPLORATION LICENCE","tenstatus":"LIVE","holder1":"ALKANE RESOURCES LTD","_colour":"#a0c4f0","_label":"Exploration Licence"}},{"type":"Feature","id":"mt.mineraltenement.EL6085","geometry":{"type":"MultiPolygon","coordinates":[[[[148.2167,-32.5333],[148.2333,-32.5333],[148.2333,-32.55],[148.2167,-32.55],[148.2167,-32.5333]]],[[[148.15,-32.5667],[148.15,-32.55],[148.1667,-32.55],[148.1667,-32.5167],[148.1833,-32.5167],[148.1833,-32.5333],[148.1833,-32.55],[148.1833,-32.5667],[148.1667,-32.5667],[148.15,-32.5667]]]]},"properties":{"@featureType":"MineralTenement","identifier":"https://gs.geoscience.nsw.gov.au/geoserver/mt/wfs?service=WFS&version=2.0.0&request=GetFeature&typeNames=mt:MineralTenement&FEATUREID=mt.mineraltenement.EL6085","name":"EL6085","tenementType":"Exploration Licence","commodity":"Group 1 (Mining Act 1992)","owner":"ALKANE RESOURCES LTD","status":"Granted","area":"5 UNITS","grantDate":"2003-05-20","expireDate":"2030-05-20","tenementType_uri":"http://resource.geoscience.gov.au/classifier/ggic/tenementtype/exploration-licence","status_uri":"http://resource.geoscience.gov.au/classifier/ggic/tenement-status/granted","jurisdiction_uri":"http://www.resourcesandgeoscience.nsw.gov.au","fmt_tenid":"EL6085","type":"EXPLORATION LICENCE","tenstatus":"LIVE","holder1":"ALKANE RESOURCES LTD","_colour":"#a0c4f0","_label":"Exploration Licence"}},{"type":"Feature","id":"mt.mineraltenement.EL6319","geometry":{"type":"Polygon","coordinates":[[[148.2,-32.7],[148.2167,-32.7],[148.2167,-32.7167],[148.2167,-32.7333],[148.2167,-32.75],[148.2167,-32.7667],[148.2,-32.7667],[148.2,-32.75],[148.1833,-32.75],[148.1833,-32.7333],[148.1833,-32.7167],[148.1833,-32.7],[148.2,-32.7]]]},"properties":{"@featureType":"MineralTenement","identifier":"https://gs.geoscience.nsw.gov.au/geoserver/mt/wfs?service=WFS&version=2.0.0&request=GetFeature&typeNames=mt:MineralTenement&FEATUREID=mt.mineraltenement.EL6319","name":"EL6319","tenementType":"Exploration Licence","commodity":"Group 1 (Mining Act 1992)","owner":"ALKANE RESOURCES LTD","status":"Granted","area":"7 UNITS","grantDate":"2004-10-12","expireDate":"2026-10-12","tenementType_uri":"http://resource.geoscience.gov.au/classifier/ggic/tenementtype/exploration-licence","status_uri":"http://resource.geoscience.gov.au/classifier/ggic/tenement-status/granted","jurisdiction_uri":"http://www.resourcesandgeoscience.nsw.gov.au","fmt_tenid":"EL6319","type":"EXPLORATION LICENCE","tenstatus":"LIVE","holder1":"ALKANE RESOURCES LTD","_colour":"#a0c4f0","_label":"Exploration Licence"}},{"type":"Feature","id":"mt.mineraltenement.EL7020","geometry":{"type":"Polygon","coordinates":[[[148.85,-33.3],[148.8667,-33.3],[148.8667,-33.3167],[148.8667,-33.3333],[148.8667,-33.35],[148.85,-33.35],[148.85,-33.3667],[148.8333,-33.3667],[148.8333,-33.35],[148.8167,-33.35],[148.8167,-33.3333],[148.8167,-33.3167],[148.8167,-33.3],[148.8167,-33.2833],[148.8333,-33.2833],[148.85,-33.2833],[148.85,-33.3]]]},"properties":{"@featureType":"MineralTenement","identifier":"https://gs.geoscience.nsw.gov.au/geoserver/mt/wfs?service=WFS&version=2.0.0&request=GetFeature&typeNames=mt:MineralTenement&FEATUREID=mt.mineraltenement.EL7020","name":"EL7020","tenementType":"Exploration Licence","commodity":"Group 1 (Mining Act 1992)","owner":"ALKANE RESOURCES LTD","status":"Granted","area":"12 UNITS","grantDate":"2008-01-20","expireDate":"2027-01-20","tenementType_uri":"http://resource.geoscience.gov.au/classifier/ggic/tenementtype/exploration-licence","status_uri":"http://resource.geoscience.gov.au/classifier/ggic/tenement-status/granted","jurisdiction_uri":"http://www.resourcesandgeoscience.nsw.gov.au","fmt_tenid":"EL7020","type":"EXPLORATION LICENCE","tenstatus":"LIVE","holder1":"ALKANE RESOURCES LTD","_colour":"#a0c4f0","_label":"Exploration Licence"}},{"type":"Feature","id":"mt.mineraltenement.EL8194","geometry":{"type":"MultiPolygon","coordinates":[[[[149.6167,-33.7167],[149.6333,-33.7167],[149.65,-33.7167],[149.65,-33.7333],[149.6333,-33.7333],[149.6167,-33.7333],[149.6167,-33.7167]]],[[[149.5833,-33.8],[149.6,-33.8],[149.6167,-33.8],[149.6167,-33.8167],[149.6167,-33.8333],[149.6333,-33.8333],[149.6333,-33.85],[149.6167,-33.85],[149.6,-33.85],[149.5833,-33.85],[149.5667,-33.85],[149.5667,-33.8333],[149.5667,-33.8167],[149.5833,-33.8167],[149.5833,-33.8]]]]},"properties":{"@featureType":"MineralTenement","identifier":"https://gs.geoscience.nsw.gov.au/geoserver/mt/wfs?service=WFS&version=2.0.0&request=GetFeature&typeNames=mt:MineralTenement&FEATUREID=mt.mineraltenement.EL8194","name":"EL8194","tenementType":"Exploration Licence","commodity":"Group 1 (Mining Act 1992)","owner":"ALKANE RESOURCES LTD","status":"Granted","area":"11 UNITS","grantDate":"2013-10-31","expireDate":"2028-10-31","tenementType_uri":"http://resource.geoscience.gov.au/classifier/ggic/tenementtype/exploration-licence","status_uri":"http://resource.geoscience.gov.au/classifier/ggic/tenement-status/granted","jurisdiction_uri":"http://www.resourcesandgeoscience.nsw.gov.au","fmt_tenid":"EL8194","type":"EXPLORATION LICENCE","tenstatus":"LIVE","holder1":"ALKANE RESOURCES LTD","_colour":"#a0c4f0","_label":"Exploration Licence"}},{"type":"Feature","id":"mt.mineraltenement.EL8527","geometry":{"type":"MultiPolygon","coordinates":[[[[149.5168,-33.5723],[149.5167,-33.5724],[149.5167,-33.5722],[149.5168,-33.5722],[149.5168,-33.5723]]],[[[149.6,-33.5667],[149.5833,-33.5667],[149.5667,-33.5667],[149.55,-33.5667],[149.55,-33.5833],[149.5333,-33.5833],[149.5333,-33.6],[149.5333,-33.6167],[149.5167,-33.6167],[149.5167,-33.6],[149.5167,-33.5833],[149.5167,-33.5735],[149.5172,-33.5737],[149.5172,-33.5735],[149.5173,-33.573],[149.5174,-33.5731],[149.5179,-33.5734],[149.518,-33.5727],[149.5182,-33.5715],[149.5174,-33.5719],[149.5171,-33.5714],[149.5167,-33.5713],[149.5167,-33.5667],[149.5,-33.5667],[149.5,-33.55],[149.5167,-33.55],[149.5333,-33.55],[149.55,-33.55],[149.5667,-33.55],[149.5833,-33.55],[149.6,-33.55],[149.6,-33.5667]]]]},"properties":{"@featureType":"MineralTenement","identifier":"https://gs.geoscience.nsw.gov.au/geoserver/mt/wfs?service=WFS&version=2.0.0&request=GetFeature&typeNames=mt:MineralTenement&FEATUREID=mt.mineraltenement.EL8527","name":"EL8527","tenementType":"Exploration Licence","commodity":"Group 1 (Mining Act 1992)","owner":"ALKANE RESOURCES LTD","status":"Granted","area":"10 UNITS","grantDate":"2017-03-07","expireDate":"2029-03-07","tenementType_uri":"http://resource.geoscience.gov.au/classifier/ggic/tenementtype/exploration-licence","status_uri":"http://resource.geoscience.gov.au/classifier/ggic/tenement-status/granted","jurisdiction_uri":"http://www.resourcesandgeoscience.nsw.gov.au","fmt_tenid":"EL8527","type":"EXPLORATION LICENCE","tenstatus":"LIVE","holder1":"ALKANE RESOURCES LTD","_colour":"#a0c4f0","_label":"Exploration Licence"}},{"type":"Feature","id":"mt.mineraltenement.EL8676","geometry":{"type":"Polygon","coordinates":[[[148.3167,-32.6068],[148.3139,-32.6221],[148.3124,-32.6219],[148.3099,-32.6355],[148.3098,-32.6359],[148.3084,-32.6438],[148.3073,-32.65],[148.3,-32.65],[148.2833,-32.65],[148.2667,-32.65],[148.25,-32.65],[148.2333,-32.65],[148.2333,-32.6333],[148.2333,-32.6167],[148.2333,-32.6],[148.25,-32.6],[148.25,-32.5833],[148.25,-32.5667],[148.2667,-32.5667],[148.2833,-32.5667],[148.3,-32.5667],[148.3167,-32.5667],[148.3167,-32.5833],[148.3167,-32.6],[148.3167,-32.6068]]]},"properties":{"@featureType":"MineralTenement","identifier":"https://gs.geoscience.nsw.gov.au/geoserver/mt/wfs?service=WFS&version=2.0.0&request=GetFeature&typeNames=mt:MineralTenement&FEATUREID=mt.mineraltenement.EL8676","name":"EL8676","tenementType":"Exploration Licence","commodity":"Group 1 (Mining Act 1992)","owner":"ALKANE RESOURCES LTD","status":"Granted","area":"23 UNITS","grantDate":"2017-11-27","expireDate":"2029-11-27","tenementType_uri":"http://resource.geoscience.gov.au/classifier/ggic/tenementtype/exploration-licence","status_uri":"http://resource.geoscience.gov.au/classifier/ggic/tenement-status/granted","jurisdiction_uri":"http://www.resourcesandgeoscience.nsw.gov.au","fmt_tenid":"EL8676","type":"EXPLORATION LICENCE","tenstatus":"LIVE","holder1":"ALKANE RESOURCES LTD","_colour":"#a0c4f0","_label":"Exploration Licence"}},{"type":"Feature","id":"mt.mineraltenement.EL8794","geometry":{"type":"Polygon","coordinates":[[[148.2333,-32.5167],[148.2333,-32.5],[148.25,-32.5],[148.25,-32.5167],[148.2667,-32.5167],[148.2833,-32.5167],[148.3,-32.5167],[148.3167,-32.5167],[148.3167,-32.5333],[148.3167,-32.55],[148.3333,-32.55],[148.3333,-32.5667],[148.35,-32.5667],[148.35,-32.5833],[148.3333,-32.5833],[148.3167,-32.5833],[148.3167,-32.5667],[148.3,-32.5667],[148.2833,-32.5667],[148.2667,-32.5667],[148.25,-32.5667],[148.25,-32.55],[148.25,-32.5333],[148.2333,-32.5333],[148.2333,-32.5167]]]},"properties":{"@featureType":"MineralTenement","identifier":"https://gs.geoscience.nsw.gov.au/geoserver/mt/wfs?service=WFS&version=2.0.0&request=GetFeature&typeNames=mt:MineralTenement&FEATUREID=mt.mineraltenement.EL8794","name":"EL8794","tenementType":"Exploration Licence","commodity":"Group 1 (Mining Act 1992)","owner":"ALKANE RESOURCES LTD","status":"Granted","area":"17 UNITS","grantDate":"2018-09-20","expireDate":"2030-09-20","tenementType_uri":"http://resource.geoscience.gov.au/classifier/ggic/tenementtype/exploration-licence","status_uri":"http://resource.geoscience.gov.au/classifier/ggic/tenement-status/granted","jurisdiction_uri":"http://www.resourcesandgeoscience.nsw.gov.au","fmt_tenid":"EL8794","type":"EXPLORATION LICENCE","tenstatus":"LIVE","holder1":"ALKANE RESOURCES LTD","_colour":"#a0c4f0","_label":"Exploration Licence"}},{"type":"Feature","id":"mt.mineraltenement.EL9107","geometry":{"type":"Polygon","coordinates":[[[149.75,-33.3],[149.75,-33.3167],[149.75,-33.3284],[149.7466,-33.347],[149.7423,-33.3464],[149.7427,-33.3469],[149.7429,-33.3471],[149.7448,-33.3492],[149.7488,-33.3538],[149.7471,-33.3632],[149.75,-33.3636],[149.75,-33.3667],[149.7547,-33.3667],[149.7534,-33.3734],[149.7531,-33.3748],[149.7533,-33.3748],[149.7533,-33.375],[149.7667,-33.3768],[149.7667,-33.3833],[149.7667,-33.3985],[149.7664,-33.4],[149.75,-33.4],[149.75,-33.4167],[149.7667,-33.4167],[149.7667,-33.4333],[149.7833,-33.4333],[149.7833,-33.45],[149.7667,-33.45],[149.75,-33.45],[149.75,-33.4333],[149.7333,-33.4333],[149.7167,-33.4333],[149.7167,-33.4167],[149.7167,-33.4],[149.7167,-33.3833],[149.7,-33.3833],[149.7,-33.3667],[149.6833,-33.3667],[149.6833,-33.35],[149.6667,-33.35],[149.6667,-33.3333],[149.6667,-33.3167],[149.65,-33.3167],[149.65,-33.3],[149.65,-33.2833],[149.65,-33.2667],[149.65,-33.25],[149.65,-33.2333],[149.6667,-33.2333],[149.6667,-33.2167],[149.6833,-33.2167],[149.7,-33.2167],[149.7167,-33.2167],[149.7333,-33.2167],[149.75,-33.2167],[149.7667,-33.2167],[149.7667,-33.2333],[149.7667,-33.25],[149.75,-33.25],[149.75,-33.2667],[149.75,-33.2833],[149.75,-33.3]],[[149.7,-33.3167],[149.7,-33.3333],[149.7,-33.35],[149.7167,-33.35],[149.7167,-33.3333],[149.7167,-33.3167],[149.7167,-33.3],[149.7,-33.3],[149.7,-33.3167]]]},"properties":{"@featureType":"MineralTenement","identifier":"https://gs.geoscience.nsw.gov.au/geoserver/mt/wfs?service=WFS&version=2.0.0&request=GetFeature&typeNames=mt:MineralTenement&FEATUREID=mt.mineraltenement.EL9107","name":"EL9107","tenementType":"Exploration Licence","commodity":"Group 1 (Mining Act 1992)","owner":"ALKANE RESOURCES LTD","status":"Granted","area":"62 UNITS","grantDate":"2021-03-18","expireDate":"2027-03-18","tenementType_uri":"http://resource.geoscience.gov.au/classifier/ggic/tenementtype/exploration-licence","status_uri":"http://resource.geoscience.gov.au/classifier/ggic/tenement-status/granted","jurisdiction_uri":"http://www.resourcesandgeoscience.nsw.gov.au","fmt_tenid":"EL9107","type":"EXPLORATION LICENCE","tenstatus":"LIVE","holder1":"ALKANE RESOURCES LTD","_colour":"#a0c4f0","_label":"Exploration Licence"}},{"type":"Feature","id":"mt.mineraltenement.EL9178","geometry":{"type":"Polygon","coordinates":[[[148.0833,-33.2333],[148.0833,-33.2167],[148.1,-33.2167],[148.1,-33.2],[148.1,-33.1833],[148.1167,-33.1833],[148.1167,-33.2],[148.1333,-33.2],[148.1333,-33.2167],[148.1167,-33.2167],[148.1167,-33.2333],[148.1167,-33.25],[148.1,-33.25],[148.0833,-33.25],[148.0833,-33.2333]]]},"properties":{"@featureType":"MineralTenement","identifier":"https://gs.geoscience.nsw.gov.au/geoserver/mt/wfs?service=WFS&version=2.0.0&request=GetFeature&typeNames=mt:MineralTenement&FEATUREID=mt.mineraltenement.EL9178","name":"EL9178","tenementType":"Exploration Licence","commodity":"Group 1 (Mining Act 1992)","owner":"ALKANE RESOURCES LTD","status":"Granted","area":"7 UNITS","grantDate":"2021-05-24","expireDate":"2027-05-24","tenementType_uri":"http://resource.geoscience.gov.au/classifier/ggic/tenementtype/exploration-licence","status_uri":"http://resource.geoscience.gov.au/classifier/ggic/tenement-status/granted","jurisdiction_uri":"http://www.resourcesandgeoscience.nsw.gov.au","fmt_tenid":"EL9178","type":"EXPLORATION LICENCE","tenstatus":"LIVE","holder1":"ALKANE RESOURCES LTD","_colour":"#a0c4f0","_label":"Exploration Licence"}},{"type":"Feature","id":"mt.mineraltenement.EL9597","geometry":{"type":"Polygon","coordinates":[[[148.1667,-32.5],[148.1667,-32.4833],[148.1667,-32.4667],[148.1833,-32.4667],[148.2,-32.4667],[148.2167,-32.4667],[148.2333,-32.4667],[148.2333,-32.4833],[148.2333,-32.5],[148.2167,-32.5],[148.2167,-32.5167],[148.2167,-32.5333],[148.2,-32.5333],[148.1833,-32.5333],[148.1833,-32.5167],[148.1667,-32.5167],[148.1667,-32.5]]]},"properties":{"@featureType":"MineralTenement","identifier":"https://gs.geoscience.nsw.gov.au/geoserver/mt/wfs?service=WFS&version=2.0.0&request=GetFeature&typeNames=mt:MineralTenement&FEATUREID=mt.mineraltenement.EL9597","name":"EL9597","tenementType":"Exploration Licence","commodity":"Group 1 (Mining Act 1992)","owner":"ALKANE RESOURCES LTD","status":"Granted","area":"13 UNITS","grantDate":"2023-08-22","expireDate":"2029-08-22","tenementType_uri":"http://resource.geoscience.gov.au/classifier/ggic/tenementtype/exploration-licence","status_uri":"http://resource.geoscience.gov.au/classifier/ggic/tenement-status/granted","jurisdiction_uri":"http://www.resourcesandgeoscience.nsw.gov.au","fmt_tenid":"EL9597","type":"EXPLORATION LICENCE","tenstatus":"LIVE","holder1":"ALKANE RESOURCES LTD","_colour":"#a0c4f0","_label":"Exploration Licence"}},{"type":"Feature","id":"mt.mineraltenement.EL9600","geometry":{"type":"MultiPolygon","coordinates":[[[[147.4167,-34.05],[147.4167,-34.0333],[147.4333,-34.0333],[147.4333,-34.05],[147.4167,-34.05]]],[[[147.6167,-34.15],[147.6167,-34.1333],[147.6333,-34.1333],[147.6333,-34.15],[147.6167,-34.15]]],[[[147.6,-34.1333],[147.6,-34.1167],[147.6167,-34.1167],[147.6167,-34.1333],[147.6,-34.1333]]],[[[147.5,-34.05],[147.5,-34.0333],[147.5,-34.0167],[147.5167,-34.0167],[147.5333,-34.0167],[147.5333,-34.0333],[147.55,-34.0333],[147.55,-34.05],[147.55,-34.0667],[147.55,-34.0833],[147.5333,-34.0833],[147.5333,-34.0667],[147.5167,-34.0667],[147.5167,-34.05],[147.5,-34.05]]],[[[147.5667,-34.0833],[147.5667,-34.0667],[147.5833,-34.0667],[147.6,-34.0667],[147.6,-34.05],[147.6,-34.0333],[147.5833,-34.0333],[147.5833,-34.0167],[147.5833,-34],[147.5667,-34],[147.5667,-33.9833],[147.5667,-33.9667],[147.5667,-33.95],[147.5667,-33.9333],[147.5833,-33.9333],[147.5833,-33.9167],[147.5833,-33.9],[147.6,-33.9],[147.6,-33.9167],[147.6167,-33.9167],[147.6333,-33.9167],[147.6333,-33.9333],[147.65,-33.9333],[147.6667,-33.9333],[147.6667,-33.95],[147.6667,-33.9667],[147.6667,-33.9833],[147.6833,-33.9833],[147.7,-33.9833],[147.7167,-33.9833],[147.7167,-34],[147.7,-34],[147.6833,-34],[147.6833,-34.0167],[147.6833,-34.0333],[147.7,-34.0333],[147.7,-34.05],[147.7,-34.0667],[147.6833,-34.0667],[147.6833,-34.0833],[147.6833,-34.1],[147.6667,-34.1],[147.65,-34.1],[147.6333,-34.1],[147.6333,-34.0833],[147.6167,-34.0833],[147.6,-34.0833],[147.6,-34.1],[147.6,-34.1167],[147.5833,-34.1167],[147.5833,-34.1],[147.5833,-34.0833],[147.5667,-34.0833]]]]},"properties":{"@featureType":"MineralTenement","identifier":"https://gs.geoscience.nsw.gov.au/geoserver/mt/wfs?service=WFS&version=2.0.0&request=GetFeature&typeNames=mt:MineralTenement&FEATUREID=mt.mineraltenement.EL9600","name":"EL9600","tenementType":"Exploration Licence","commodity":"Group 1 (Mining Act 1992)","owner":"ALKANE RESOURCES LTD","status":"Granted","area":"78 UNITS","grantDate":"2023-08-31","expireDate":"2029-08-31","tenementType_uri":"http://resource.geoscience.gov.au/classifier/ggic/tenementtype/exploration-licence","status_uri":"http://resource.geoscience.gov.au/classifier/ggic/tenement-status/granted","jurisdiction_uri":"http://www.resourcesandgeoscience.nsw.gov.au","fmt_tenid":"EL9600","type":"EXPLORATION LICENCE","tenstatus":"LIVE","holder1":"ALKANE RESOURCES LTD","_colour":"#a0c4f0","_label":"Exploration Licence"}},{"type":"Feature","id":"mt.mineraltenement.GL5884","geometry":{"type":"Polygon","coordinates":[[[148.1985,-32.7203],[148.198,-32.7204],[148.1981,-32.7189],[148.1981,-32.7184],[148.1981,-32.7179],[148.1981,-32.7179],[148.1981,-32.7176],[148.1991,-32.7175],[148.199,-32.7202],[148.199,-32.7202],[148.199,-32.7202],[148.1985,-32.7203]]]},"properties":{"@featureType":"MineralTenement","identifier":"https://gs.geoscience.nsw.gov.au/geoserver/mt/wfs?service=WFS&version=2.0.0&request=GetFeature&typeNames=mt:MineralTenement&FEATUREID=mt.mineraltenement.GL5884","name":"GL5884","tenementType":"Gold Lease","commodity":"Barite, Bismuth, Cadmium, Chlorite, Copper, Corundum, Feldspathic Materials, Gold, Kaolin, Mica, Phosphates, Pyrophyllite, Reef Quartz, Selenium, Sil","owner":"ALKANE RESOURCES LTD","status":"Granted","area":"2.792 HA","grantDate":"1969-12-12","expireDate":"2037-06-02","tenementType_uri":"http://resource.geoscience.gov.au/classifier/ggic/tenementtype/gold-lease","status_uri":"http://resource.geoscience.gov.au/classifier/ggic/tenement-status/granted","jurisdiction_uri":"http://www.resourcesandgeoscience.nsw.gov.au","fmt_tenid":"GL5884","type":"MINING LEASE","tenstatus":"LIVE","holder1":"ALKANE RESOURCES LTD","_colour":"#f5a520","_label":"Mining Lease"}},{"type":"Feature","id":"mt.mineraltenement.ML1351","geometry":{"type":"Polygon","coordinates":[[[148.1956,-32.7231],[148.1945,-32.7226],[148.1943,-32.7218],[148.195,-32.7216],[148.1956,-32.7231]]]},"properties":{"@featureType":"MineralTenement","identifier":"https://gs.geoscience.nsw.gov.au/geoserver/mt/wfs?service=WFS&version=2.0.0&request=GetFeature&typeNames=mt:MineralTenement&FEATUREID=mt.mineraltenement.ML1351","name":"ML1351","tenementType":"Mining Lease","commodity":"Barite, Bismuth, Cadmium, Chlorite, Copper, Corundum, Feldspathic Materials, Gold, Kaolin, Mica, Phosphates, Pyrophyllite, Reef Quartz, Selenium, Sil","owner":"ALKANE RESOURCES LTD","status":"Granted","area":".907 HA","grantDate":"1994-06-15","expireDate":"2036-09-24","tenementType_uri":"http://resource.geoscience.gov.au/classifier/ggic/tenementtype/mining-lease","status_uri":"http://resource.geoscience.gov.au/classifier/ggic/tenement-status/granted","jurisdiction_uri":"http://www.resourcesandgeoscience.nsw.gov.au","fmt_tenid":"ML1351","type":"MINING LEASE","tenstatus":"LIVE","holder1":"ALKANE RESOURCES LTD","_colour":"#f5a520","_label":"Mining Lease"}},{"type":"Feature","id":"mt.mineraltenement.ML1364","geometry":{"type":"Polygon","coordinates":[[[148.1966,-32.7227],[148.1975,-32.7222],[148.1976,-32.7222],[148.1981,-32.7219],[148.1983,-32.7212],[148.1983,-32.7211],[148.1984,-32.7207],[148.1984,-32.7206],[148.1984,-32.7205],[148.1985,-32.7203],[148.199,-32.7202],[148.199,-32.7202],[148.199,-32.7202],[148.1991,-32.7175],[148.1981,-32.7176],[148.1981,-32.7179],[148.1981,-32.7179],[148.1981,-32.7184],[148.198,-32.7183],[148.1964,-32.7175],[148.1946,-32.7182],[148.1929,-32.7184],[148.193,-32.7188],[148.1924,-32.7189],[148.1914,-32.7167],[148.1958,-32.7153],[148.196,-32.7148],[148.1964,-32.7149],[148.1966,-32.7156],[148.1977,-32.7152],[148.2014,-32.7162],[148.2027,-32.7148],[148.2027,-32.7141],[148.2017,-32.7141],[148.2011,-32.7149],[148.2003,-32.7148],[148.2,-32.7155],[148.1983,-32.7151],[148.1986,-32.715],[148.1981,-32.7132],[148.1967,-32.7136],[148.1961,-32.7138],[148.1963,-32.7147],[148.1941,-32.7142],[148.1936,-32.714],[148.1946,-32.7112],[148.1959,-32.7116],[148.1995,-32.711],[148.202,-32.7106],[148.2079,-32.7097],[148.2082,-32.7112],[148.2082,-32.7115],[148.2098,-32.7195],[148.2087,-32.7196],[148.2066,-32.72],[148.2023,-32.7206],[148.2026,-32.722],[148.2029,-32.7233],[148.2033,-32.7254],[148.2034,-32.7258],[148.2035,-32.7263],[148.2018,-32.7268],[148.2004,-32.7272],[148.1994,-32.7275],[148.1991,-32.7276],[148.1999,-32.7257],[148.1979,-32.7233],[148.1969,-32.7237],[148.1966,-32.7227]]]},"properties":{"@featureType":"MineralTenement","identifier":"https://gs.geoscience.nsw.gov.au/geoserver/mt/wfs?service=WFS&version=2.0.0&request=GetFeature&typeNames=mt:MineralTenement&FEATUREID=mt.mineraltenement.ML1364","name":"ML1364","tenementType":"Mining Lease","commodity":"Barite, Bismuth, Cadmium, Chlorite, Copper, Corundum, Feldspathic Materials, Gold, Kaolin, Mica, Phosphates, Pyrophyllite, Reef Quartz, Selenium, Sil","owner":"ALKANE RESOURCES LTD","status":"Granted","area":"159 HA","grantDate":"1995-03-14","expireDate":"2035-12-25","tenementType_uri":"http://resource.geoscience.gov.au/classifier/ggic/tenementtype/mining-lease","status_uri":"http://resource.geoscience.gov.au/classifier/ggic/tenement-status/granted","jurisdiction_uri":"http://www.resourcesandgeoscience.nsw.gov.au","fmt_tenid":"ML1364","type":"MINING LEASE","tenstatus":"LIVE","holder1":"ALKANE RESOURCES LTD","_colour":"#f5a520","_label":"Mining Lease"}},{"type":"Feature","id":"mt.mineraltenement.ML1479","geometry":{"type":"Polygon","coordinates":[[[148.1969,-32.7237],[148.1979,-32.7233],[148.1994,-32.7252],[148.1955,-32.725],[148.1945,-32.7227],[148.1945,-32.7226],[148.1954,-32.723],[148.1955,-32.7231],[148.1956,-32.7231],[148.1957,-32.7233],[148.196,-32.7241],[148.1961,-32.7241],[148.1971,-32.724],[148.1969,-32.7237]]]},"properties":{"@featureType":"MineralTenement","identifier":"https://gs.geoscience.nsw.gov.au/geoserver/mt/wfs?service=WFS&version=2.0.0&request=GetFeature&typeNames=mt:MineralTenement&FEATUREID=mt.mineraltenement.ML1479","name":"ML1479","tenementType":"Mining Lease","commodity":"Gold, Silver","owner":"ALKANE RESOURCES LTD","status":"Granted","area":"5.101 HA","grantDate":"2001-01-18","expireDate":"2043-01-17","tenementType_uri":"http://resource.geoscience.gov.au/classifier/ggic/tenementtype/mining-lease","status_uri":"http://resource.geoscience.gov.au/classifier/ggic/tenement-status/granted","jurisdiction_uri":"http://www.resourcesandgeoscience.nsw.gov.au","fmt_tenid":"ML1479","type":"MINING LEASE","tenstatus":"LIVE","holder1":"ALKANE RESOURCES LTD","_colour":"#f5a520","_label":"Mining Lease"}},{"type":"Feature","id":"mt.mineraltenement.ML6036","geometry":{"type":"Polygon","coordinates":[[[148.196,-32.721],[148.1966,-32.7227],[148.1971,-32.724],[148.196,-32.7241],[148.1956,-32.7231],[148.195,-32.7216],[148.195,-32.7216],[148.1949,-32.721],[148.196,-32.721]]]},"properties":{"@featureType":"MineralTenement","identifier":"https://gs.geoscience.nsw.gov.au/geoserver/mt/wfs?service=WFS&version=2.0.0&request=GetFeature&typeNames=mt:MineralTenement&FEATUREID=mt.mineraltenement.ML6036","name":"ML6036","tenementType":"Mining Lease","commodity":"Barite, Bismuth, Cadmium, Chlorite, Copper, Corundum, Feldspathic Materials, Gold, Kaolin, Mica, Phosphates, Pyrophyllite, Reef Quartz, Selenium, Sil","owner":"ALKANE RESOURCES LTD","status":"Granted","area":"3.961 HA","grantDate":"1968-03-07","expireDate":"2037-06-02","tenementType_uri":"http://resource.geoscience.gov.au/classifier/ggic/tenementtype/mining-lease","status_uri":"http://resource.geoscience.gov.au/classifier/ggic/tenement-status/granted","jurisdiction_uri":"http://www.resourcesandgeoscience.nsw.gov.au","fmt_tenid":"ML6036","type":"MINING LEASE","tenstatus":"LIVE","holder1":"ALKANE RESOURCES LTD","_colour":"#f5a520","_label":"Mining Lease"}},{"type":"Feature","id":"mt.mineraltenement.ML6042","geometry":{"type":"Polygon","coordinates":[[[148.1945,-32.721],[148.1944,-32.721],[148.1945,-32.7201],[148.195,-32.7201],[148.1949,-32.7205],[148.1949,-32.721],[148.1945,-32.721]]]},"properties":{"@featureType":"MineralTenement","identifier":"https://gs.geoscience.nsw.gov.au/geoserver/mt/wfs?service=WFS&version=2.0.0&request=GetFeature&typeNames=mt:MineralTenement&FEATUREID=mt.mineraltenement.ML6042","name":"ML6042","tenementType":"Mining Lease","commodity":"Barite, Bismuth, Cadmium, Chlorite, Copper, Corundum, Feldspathic Materials, Gold, Kaolin, Mica, Phosphates, Pyrophyllite, Reef Quartz, Selenium, Sil","owner":"ALKANE RESOURCES LTD","status":"Granted","area":".4085 HA","grantDate":"1968-02-21","expireDate":"2037-06-02","tenementType_uri":"http://resource.geoscience.gov.au/classifier/ggic/tenementtype/mining-lease","status_uri":"http://resource.geoscience.gov.au/classifier/ggic/tenement-status/granted","jurisdiction_uri":"http://www.resourcesandgeoscience.nsw.gov.au","fmt_tenid":"ML6042","type":"MINING LEASE","tenstatus":"LIVE","holder1":"ALKANE RESOURCES LTD","_colour":"#f5a520","_label":"Mining Lease"}},{"type":"Feature","id":"mt.mineraltenement.ML6277","geometry":{"type":"Polygon","coordinates":[[[148.196,-32.721],[148.1961,-32.721],[148.1967,-32.721],[148.1976,-32.7217],[148.1976,-32.7217],[148.1976,-32.7217],[148.1977,-32.7208],[148.1977,-32.7207],[148.1983,-32.7207],[148.1984,-32.7207],[148.1984,-32.7207],[148.1964,-32.7197],[148.1964,-32.7175],[148.198,-32.7183],[148.1981,-32.7184],[148.1981,-32.7189],[148.198,-32.7204],[148.1985,-32.7203],[148.1984,-32.7205],[148.1984,-32.7206],[148.1984,-32.7207],[148.1983,-32.7211],[148.1983,-32.7212],[148.1981,-32.7219],[148.1976,-32.7222],[148.1975,-32.7222],[148.1966,-32.7227],[148.196,-32.721]]]},"properties":{"@featureType":"MineralTenement","identifier":"https://gs.geoscience.nsw.gov.au/geoserver/mt/wfs?service=WFS&version=2.0.0&request=GetFeature&typeNames=mt:MineralTenement&FEATUREID=mt.mineraltenement.ML6277","name":"ML6277","tenementType":"Mining Lease","commodity":"Barite, Bismuth, Cadmium, Chlorite, Copper, Corundum, Feldspathic Materials, Gold, Kaolin, Mica, Phosphates, Pyrophyllite, Reef Quartz, Selenium, Sil","owner":"ALKANE RESOURCES LTD","status":"Granted","area":"6.424 HA","grantDate":"1971-03-12","expireDate":"2037-06-02","tenementType_uri":"http://resource.geoscience.gov.au/classifier/ggic/tenementtype/mining-lease","status_uri":"http://resource.geoscience.gov.au/classifier/ggic/tenement-status/granted","jurisdiction_uri":"http://www.resourcesandgeoscience.nsw.gov.au","fmt_tenid":"ML6277","type":"MINING LEASE","tenstatus":"LIVE","holder1":"ALKANE RESOURCES LTD","_colour":"#f5a520","_label":"Mining Lease"}},{"type":"Feature","id":"mt.mineraltenement.ML6310","geometry":{"type":"Polygon","coordinates":[[[148.196,-32.721],[148.1962,-32.7202],[148.1964,-32.7197],[148.1984,-32.7207],[148.1984,-32.7207],[148.1983,-32.7207],[148.1977,-32.7207],[148.1977,-32.7208],[148.1976,-32.7217],[148.1976,-32.7217],[148.1976,-32.7217],[148.1967,-32.721],[148.1961,-32.721],[148.196,-32.721]]]},"properties":{"@featureType":"MineralTenement","identifier":"https://gs.geoscience.nsw.gov.au/geoserver/mt/wfs?service=WFS&version=2.0.0&request=GetFeature&typeNames=mt:MineralTenement&FEATUREID=mt.mineraltenement.ML6310","name":"ML6310","tenementType":"Mining Lease","commodity":"Barite, Bismuth, Cadmium, Chlorite, Copper, Corundum, Feldspathic Materials, Gold, Kaolin, Mica, Phosphates, Pyrophyllite, Reef Quartz, Selenium, Sil","owner":"ALKANE RESOURCES LTD","status":"Granted","area":"2.097 HA","grantDate":"1971-08-27","expireDate":"2037-06-02","tenementType_uri":"http://resource.geoscience.gov.au/classifier/ggic/tenementtype/mining-lease","status_uri":"http://resource.geoscience.gov.au/classifier/ggic/tenement-status/granted","jurisdiction_uri":"http://www.resourcesandgeoscience.nsw.gov.au","fmt_tenid":"ML6310","type":"MINING LEASE","tenstatus":"LIVE","holder1":"ALKANE RESOURCES LTD","_colour":"#f5a520","_label":"Mining Lease"}},{"type":"Feature","id":"mt.mineraltenement.ML6389","geometry":{"type":"Polygon","coordinates":[[[148.1945,-32.721],[148.1949,-32.721],[148.195,-32.7216],[148.1943,-32.7218],[148.1941,-32.7219],[148.194,-32.7215],[148.1926,-32.722],[148.1927,-32.7211],[148.1919,-32.7212],[148.1916,-32.719],[148.1924,-32.7189],[148.193,-32.7188],[148.1929,-32.7184],[148.1946,-32.7182],[148.1953,-32.72],[148.1964,-32.7197],[148.1962,-32.7202],[148.196,-32.721],[148.1949,-32.721],[148.1949,-32.7205],[148.195,-32.7201],[148.1945,-32.7201],[148.1944,-32.721],[148.1945,-32.721]]]},"properties":{"@featureType":"MineralTenement","identifier":"https://gs.geoscience.nsw.gov.au/geoserver/mt/wfs?service=WFS&version=2.0.0&request=GetFeature&typeNames=mt:MineralTenement&FEATUREID=mt.mineraltenement.ML6389","name":"ML6389","tenementType":"Mining Lease","commodity":"Barite, Bismuth, Cadmium, Chlorite, Copper, Corundum, Feldspathic Materials, Gold, Kaolin, Mica, Phosphates, Pyrophyllite, Reef Quartz, Selenium, Sil","owner":"ALKANE RESOURCES LTD","status":"Granted","area":"11.08 HA","grantDate":"1973-04-06","expireDate":"2037-06-02","tenementType_uri":"http://resource.geoscience.gov.au/classifier/ggic/tenementtype/mining-lease","status_uri":"http://resource.geoscience.gov.au/classifier/ggic/tenement-status/granted","jurisdiction_uri":"http://www.resourcesandgeoscience.nsw.gov.au","fmt_tenid":"ML6389","type":"MINING LEASE","tenstatus":"LIVE","holder1":"ALKANE RESOURCES LTD","_colour":"#f5a520","_label":"Mining Lease"}},{"type":"Feature","id":"mt.mineraltenement.ML6406","geometry":{"type":"Polygon","coordinates":[[[148.1964,-32.7197],[148.1953,-32.72],[148.1946,-32.7182],[148.1964,-32.7175],[148.1964,-32.7197]]]},"properties":{"@featureType":"MineralTenement","identifier":"https://gs.geoscience.nsw.gov.au/geoserver/mt/wfs?service=WFS&version=2.0.0&request=GetFeature&typeNames=mt:MineralTenement&FEATUREID=mt.mineraltenement.ML6406","name":"ML6406","tenementType":"Mining Lease","commodity":"Barite, Bismuth, Cadmium, Chlorite, Copper, Corundum, Feldspathic Materials, Gold, Kaolin, Mica, Phosphates, Pyrophyllite, Reef Quartz, Selenium, Sil","owner":"ALKANE RESOURCES LTD","status":"Granted","area":"3.424 HA","grantDate":"1974-01-25","expireDate":"2037-02-13","tenementType_uri":"http://resource.geoscience.gov.au/classifier/ggic/tenementtype/mining-lease","status_uri":"http://resource.geoscience.gov.au/classifier/ggic/tenement-status/granted","jurisdiction_uri":"http://www.resourcesandgeoscience.nsw.gov.au","fmt_tenid":"ML6406","type":"MINING LEASE","tenstatus":"LIVE","holder1":"ALKANE RESOURCES LTD","_colour":"#f5a520","_label":"Mining Lease"}}]}