{"type":"FeatureCollection","_source":"Multi-state Australian tenement registry","_holders":["ARAFURA RARE EARTHS LTD (100%),","ARAFURA NOLANS PROJECT PTY LTD (100%),","MOLYHIL MINING PTY LTD (40%),","ARAFURA RARE EARTHS LTD (60%),"],"_ticker":"ARU.AX","features":[{"type":"Feature","id":"mt.mineraltenement.111","geometry":{"type":"Polygon","coordinates":[[[133.324928,-22.68331401],[133.324953,-22.68582301],[133.328364,-22.68577701],[133.328289,-22.68332501],[133.324928,-22.68331401]]]},"properties":{"@featureType":"MineralTenement","identifier":"http://geology.data.nt.gov.au/resource/feature/ntgs/mineraltenement/111","name":"EMP33085","tenementType":"Extractive Mineral Permit (EMP)","commodity":"urn:ogc:def:nil:OGC::missing","owner":"Applicant - ARAFURA NOLANS PROJECT PTY LTD (100%),\nAgent - AUSTRALIAN MINING & EXPLORATION TITLE SERVICES PTY LTD ","status":"Application","area":"10 Hectares","applicationDate":"2021-12-16T14:30:00Z","fileID":"EMP33085","tenementType_uri":"http://resource.geoscience.gov.au/classifier/ggic/tenementtype/extractive-mineral-permit","status_uri":"http://resource.geoscience.gov.au/classifier/ggic/petroleum_tenement_status/application","jurisdiction_uri":"https://nt.gov.au/industry/mining-and-petroleum","fmt_tenid":"EMP33085","type":"Extractive Mineral Permit (EMP)","tenstatus":"LIVE","holder1":"ARAFURA NOLANS PROJECT PTY LTD (100%),","_colour":"#a0c4f0","_label":"Extractive Mineral Permit (Emp)"}},{"type":"Feature","id":"mt.mineraltenement.112","geometry":{"type":"Polygon","coordinates":[[[133.276394,-22.67245101],[133.277913,-22.67247801],[133.2807,-22.67382801],[133.280657,-22.67114401],[133.27633,-22.66908601],[133.276394,-22.67245101]]]},"properties":{"@featureType":"MineralTenement","identifier":"http://geology.data.nt.gov.au/resource/feature/ntgs/mineraltenement/112","name":"EMP33084","tenementType":"Extractive Mineral Permit (EMP)","commodity":"urn:ogc:def:nil:OGC::missing","owner":"Applicant - ARAFURA NOLANS PROJECT PTY LTD (100%),\nAgent - AUSTRALIAN MINING & EXPLORATION TITLE SERVICES PTY LTD ","status":"Application","area":"14 Hectares","applicationDate":"2021-12-16T14:30:00Z","fileID":"EMP33084","tenementType_uri":"http://resource.geoscience.gov.au/classifier/ggic/tenementtype/extractive-mineral-permit","status_uri":"http://resource.geoscience.gov.au/classifier/ggic/petroleum_tenement_status/application","jurisdiction_uri":"https://nt.gov.au/industry/mining-and-petroleum","fmt_tenid":"EMP33084","type":"Extractive Mineral Permit (EMP)","tenstatus":"LIVE","holder1":"ARAFURA NOLANS PROJECT PTY LTD (100%),","_colour":"#a0c4f0","_label":"Extractive Mineral Permit (Emp)"}},{"type":"Feature","id":"mt.mineraltenement.113","geometry":{"type":"Polygon","coordinates":[[[133.277914,-22.67737401],[133.284947,-22.68077901],[133.284947,-22.67588701],[133.277913,-22.67247801],[133.277914,-22.67737401]]]},"properties":{"@featureType":"MineralTenement","identifier":"http://geology.data.nt.gov.au/resource/feature/ntgs/mineraltenement/113","name":"EMP33083","tenementType":"Extractive Mineral Permit (EMP)","commodity":"urn:ogc:def:nil:OGC::missing","owner":"Applicant - ARAFURA NOLANS PROJECT PTY LTD (100%),\nAgent - AUSTRALIAN MINING & EXPLORATION TITLE SERVICES PTY LTD ","status":"Application","area":"40 Hectares","applicationDate":"2021-12-16T14:30:00Z","fileID":"EMP33083","tenementType_uri":"http://resource.geoscience.gov.au/classifier/ggic/tenementtype/extractive-mineral-permit","status_uri":"http://resource.geoscience.gov.au/classifier/ggic/petroleum_tenement_status/application","jurisdiction_uri":"https://nt.gov.au/industry/mining-and-petroleum","fmt_tenid":"EMP33083","type":"Extractive Mineral Permit (EMP)","tenstatus":"LIVE","holder1":"ARAFURA NOLANS PROJECT PTY LTD (100%),","_colour":"#a0c4f0","_label":"Extractive Mineral Permit (Emp)"}},{"type":"Feature","id":"mt.mineraltenement.114","geometry":{"type":"Polygon","coordinates":[[[133.251534,-22.66783201],[133.258302,-22.66782501],[133.258287,-22.66505001],[133.25157,-22.66501101],[133.251534,-22.66783201]]]},"properties":{"@featureType":"MineralTenement","identifier":"http://geology.data.nt.gov.au/resource/feature/ntgs/mineraltenement/114","name":"EMP33082","tenementType":"Extractive Mineral Permit (EMP)","commodity":"urn:ogc:def:nil:OGC::missing","owner":"Applicant - ARAFURA NOLANS PROJECT PTY LTD (100%),\nAgent - AUSTRALIAN MINING & EXPLORATION TITLE SERVICES PTY LTD ","status":"Application","area":"22 Hectares","applicationDate":"2021-12-16T14:30:00Z","fileID":"EMP33082","tenementType_uri":"http://resource.geoscience.gov.au/classifier/ggic/tenementtype/extractive-mineral-permit","status_uri":"http://resource.geoscience.gov.au/classifier/ggic/petroleum_tenement_status/application","jurisdiction_uri":"https://nt.gov.au/industry/mining-and-petroleum","fmt_tenid":"EMP33082","type":"Extractive Mineral Permit (EMP)","tenstatus":"LIVE","holder1":"ARAFURA NOLANS PROJECT PTY LTD (100%),","_colour":"#a0c4f0","_label":"Extractive Mineral Permit (Emp)"}},{"type":"Feature","id":"mt.mineraltenement.116","geometry":{"type":"Polygon","coordinates":[[[133.25157,-22.66501101],[133.258287,-22.66505001],[133.258231,-22.66201201],[133.255016,-22.66202101],[133.255013,-22.66121101],[133.251594,-22.66119801],[133.25157,-22.66501101]]]},"properties":{"@featureType":"MineralTenement","identifier":"http://geology.data.nt.gov.au/resource/feature/ntgs/mineraltenement/116","name":"EMP33081","tenementType":"Extractive Mineral Permit (EMP)","commodity":"urn:ogc:def:nil:OGC::missing","owner":"Applicant - ARAFURA NOLANS PROJECT PTY LTD (100%),\nAgent - AUSTRALIAN MINING & EXPLORATION TITLE SERVICES PTY LTD ","status":"Application","area":"27 Hectares","applicationDate":"2021-12-16T14:30:00Z","fileID":"EMP33081","tenementType_uri":"http://resource.geoscience.gov.au/classifier/ggic/tenementtype/extractive-mineral-permit","status_uri":"http://resource.geoscience.gov.au/classifier/ggic/petroleum_tenement_status/application","jurisdiction_uri":"https://nt.gov.au/industry/mining-and-petroleum","fmt_tenid":"EMP33081","type":"Extractive Mineral Permit (EMP)","tenstatus":"LIVE","holder1":"ARAFURA NOLANS PROJECT PTY LTD (100%),","_colour":"#a0c4f0","_label":"Extractive Mineral Permit (Emp)"}},{"type":"Feature","id":"mt.mineraltenement.117","geometry":{"type":"Polygon","coordinates":[[[133.270995,-22.67943101],[133.273014,-22.67945701],[133.274532,-22.67735401],[133.277914,-22.67737401],[133.277913,-22.67247801],[133.270942,-22.67235601],[133.270995,-22.67943101]]]},"properties":{"@featureType":"MineralTenement","identifier":"http://geology.data.nt.gov.au/resource/feature/ntgs/mineraltenement/117","name":"EMP33080","tenementType":"Extractive Mineral Permit (EMP)","commodity":"urn:ogc:def:nil:OGC::missing","owner":"Applicant - ARAFURA NOLANS PROJECT PTY LTD (100%),\nAgent - AUSTRALIAN MINING & EXPLORATION TITLE SERVICES PTY LTD ","status":"Application","area":"46 Hectares","applicationDate":"2021-12-16T14:30:00Z","fileID":"EMP33080","tenementType_uri":"http://resource.geoscience.gov.au/classifier/ggic/tenementtype/extractive-mineral-permit","status_uri":"http://resource.geoscience.gov.au/classifier/ggic/petroleum_tenement_status/application","jurisdiction_uri":"https://nt.gov.au/industry/mining-and-petroleum","fmt_tenid":"EMP33080","type":"Extractive Mineral Permit (EMP)","tenstatus":"LIVE","holder1":"ARAFURA NOLANS PROJECT PTY LTD (100%),","_colour":"#a0c4f0","_label":"Extractive Mineral Permit (Emp)"}},{"type":"Feature","id":"mt.mineraltenement.118","geometry":{"type":"Polygon","coordinates":[[[133.271017,-22.68224601],[133.270942,-22.67235601],[133.265004,-22.67235001],[133.264968,-22.68505101],[133.273718,-22.68504301],[133.273652,-22.68354801],[133.271017,-22.68224601]]]},"properties":{"@featureType":"MineralTenement","identifier":"http://geology.data.nt.gov.au/resource/feature/ntgs/mineraltenement/118","name":"EMP33079","tenementType":"Extractive Mineral Permit (EMP)","commodity":"urn:ogc:def:nil:OGC::missing","owner":"Applicant - ARAFURA NOLANS PROJECT PTY LTD (100%),\nAgent - AUSTRALIAN MINING & EXPLORATION TITLE SERVICES PTY LTD ","status":"Application","area":"94 Hectares","applicationDate":"2021-12-16T14:30:00Z","fileID":"EMP33079","tenementType_uri":"http://resource.geoscience.gov.au/classifier/ggic/tenementtype/extractive-mineral-permit","status_uri":"http://resource.geoscience.gov.au/classifier/ggic/petroleum_tenement_status/application","jurisdiction_uri":"https://nt.gov.au/industry/mining-and-petroleum","fmt_tenid":"EMP33079","type":"Extractive Mineral Permit (EMP)","tenstatus":"LIVE","holder1":"ARAFURA NOLANS PROJECT PTY LTD (100%),","_colour":"#a0c4f0","_label":"Extractive Mineral Permit (Emp)"}},{"type":"Feature","id":"mt.mineraltenement.119","geometry":{"type":"Polygon","coordinates":[[[133.271017,-22.68224601],[133.279846,-22.68660801],[133.282248,-22.68258101],[133.273848,-22.67829201],[133.271017,-22.68224601]]]},"properties":{"@featureType":"MineralTenement","identifier":"http://geology.data.nt.gov.au/resource/feature/ntgs/mineraltenement/119","name":"EMP33078","tenementType":"Extractive Mineral Permit (EMP)","commodity":"urn:ogc:def:nil:OGC::missing","owner":"Applicant - ARAFURA NOLANS PROJECT PTY LTD (100%),\nAgent - AUSTRALIAN MINING & EXPLORATION TITLE SERVICES PTY LTD ","status":"Application","area":"52 Hectares","applicationDate":"2021-12-16T14:30:00Z","fileID":"EMP33078","tenementType_uri":"http://resource.geoscience.gov.au/classifier/ggic/tenementtype/extractive-mineral-permit","status_uri":"http://resource.geoscience.gov.au/classifier/ggic/petroleum_tenement_status/application","jurisdiction_uri":"https://nt.gov.au/industry/mining-and-petroleum","fmt_tenid":"EMP33078","type":"Extractive Mineral Permit (EMP)","tenstatus":"LIVE","holder1":"ARAFURA NOLANS PROJECT PTY LTD (100%),","_colour":"#a0c4f0","_label":"Extractive Mineral Permit (Emp)"}},{"type":"Feature","id":"mt.mineraltenement.1743","geometry":{"type":"MultiPolygon","coordinates":[[[[132.999149,-22.75358801],[133.007306,-22.76160901],[133.007434,-22.76175901],[133.007524,-22.76190601],[133.00759,-22.76206501],[133.00764,-22.76234501],[133.007622,-22.76496001],[133.00764,-22.76520801],[133.007677,-22.76541901],[133.007787,-22.76577601],[133.007963,-22.76612901],[133.008174,-22.76642601],[133.008442,-22.76670301],[133.008672,-22.76688701],[133.008891,-22.76702701],[133.009094,-22.76713201],[133.009367,-22.76724201],[133.01621,-22.76941201],[133.016445,-22.76944601],[133.016465,-22.76806701],[133.009877,-22.76597801],[133.009656,-22.76587601],[133.009464,-22.76573901],[133.009306,-22.76556801],[133.009212,-22.76542101],[133.009126,-22.76521001],[133.009092,-22.76504301],[133.009103,-22.76239101],[133.009091,-22.76215101],[133.009059,-22.76193901],[133.008987,-22.76166501],[133.008857,-22.76135001],[133.008663,-22.76102601],[133.008504,-22.76082501],[133.000243,-22.75268601],[133.000043,-22.75251801],[132.999814,-22.75236801],[132.999568,-22.75224301],[132.999439,-22.75219101],[132.99917,-22.75213901],[132.999149,-22.75358801]]],[[[133.018384,-22.77005501],[133.026684,-22.77239701],[133.027304,-22.77253601],[133.042077,-22.77442001],[133.063242,-22.77768801],[133.063361,-22.77769501],[133.06338,-22.77634201],[133.042376,-22.77309801],[133.027563,-22.77120801],[133.027109,-22.77110601],[133.018599,-22.76870501],[133.018404,-22.76867701],[133.018384,-22.77005501]]],[[[133.065307,-22.77779001],[133.09641,-22.77394201],[133.096614,-22.77390301],[133.09681,-22.77384201],[133.097013,-22.77375101],[133.09718,-22.77365101],[133.097334,-22.77353201],[133.208888,-22.67509501],[133.209013,-22.67495101],[133.209051,-22.67482501],[133.208844,-22.67500801],[133.207879,-22.67411901],[133.096318,-22.77256001],[133.096208,-22.77260601],[133.065326,-22.77643301],[133.065307,-22.77779001]]],[[[132.874348,-22.70248401],[132.930261,-22.73853801],[132.938587,-22.74292301],[132.938946,-22.74300801],[132.938967,-22.74157001],[132.931098,-22.73743201],[132.874769,-22.70111113],[132.874727,-22.70108501],[132.874371,-22.70099201],[132.874348,-22.70248401]]],[[[132.940879,-22.74392101],[132.94984,-22.74614001],[132.950069,-22.74618701],[132.988829,-22.75216001],[132.997208,-22.75319901],[132.997228,-22.75184801],[132.989058,-22.75082701],[132.950334,-22.74486001],[132.941069,-22.74257201],[132.940899,-22.74255001],[132.940879,-22.74392101]]]]},"properties":{"@featureType":"MineralTenement","identifier":"http://geology.data.nt.gov.au/resource/feature/ntgs/mineraltenement/1743","name":"AA33281","tenementType":"Access Authority (AA)","commodity":"urn:ogc:def:nil:OGC::missing","owner":"Applicant - ARAFURA NOLANS PROJECT PTY LTD (100%),\nAgent - AUSTRALIAN MINING & EXPLORATION TITLE SERVICES PTY LTD ","status":"Grant","area":"40.4 Km","applicationDate":"2022-11-15T14:30:00Z","fileID":"AA33281","tenementType_uri":"urn:ogc:def:nil:OGC::missing","status_uri":"http://resource.geoscience.gov.au/classifier/ggic/petroleum_tenement_status/granted","jurisdiction_uri":"https://nt.gov.au/industry/mining-and-petroleum","fmt_tenid":"AA33281","type":"Access Authority (AA)","tenstatus":"LIVE","holder1":"ARAFURA NOLANS PROJECT PTY LTD (100%),","_colour":"#a0c4f0","_label":"Access Authority (Aa)"}},{"type":"Feature","id":"mt.mineraltenement.1744","geometry":{"type":"MultiPolygon","coordinates":[[[[133.235824,-22.64045201],[133.236897,-22.64136701],[133.243071,-22.63590601],[133.243369,-22.63560301],[133.243642,-22.63528001],[133.24388889,-22.63494101],[133.24411,-22.63458501],[133.244251,-22.63432001],[133.244426,-22.63393001],[133.244624,-22.63334201],[133.244752,-22.63273801],[133.244789,-22.63243401],[133.24481,-22.63203601],[133.244793,-22.63152301],[133.244741,-22.63110401],[133.244285,-22.62905201],[133.244234,-22.62874301],[133.244204,-22.62819701],[133.244237,-22.62773001],[133.244345,-22.62719301],[133.244526,-22.62667301],[133.244697,-22.62631701],[133.245117,-22.62561301],[133.245265,-22.62533301],[133.245428,-22.62496201],[133.245567,-22.62455301],[133.245687,-22.62404601],[133.245743,-22.62363401],[133.245761,-22.62333801],[133.245765,-22.62251901],[133.24431,-22.62250301],[133.244286,-22.62352501],[133.24423,-22.62390501],[133.244132,-22.62427901],[133.244026,-22.62457001],[133.243895,-22.62485201],[133.243394,-22.62570601],[133.243209,-22.62607901],[133.24305,-22.62647401],[133.242926,-22.62686901],[133.242834,-22.62726901],[133.242764,-22.62776601],[133.242742,-22.62818101],[133.24276,-22.62868801],[133.242848,-22.62929801],[133.243283,-22.63123401],[133.243328,-22.63154401],[133.243349,-22.63193401],[133.243324,-22.63240201],[133.243226,-22.63294101],[133.24305556,-22.63346301],[133.242852,-22.63389201],[133.24269,-22.63416501],[133.242506,-22.63442701],[133.242303,-22.63467501],[133.242022,-22.63496601],[133.235824,-22.64045201]]],[[[133.245918,-22.61640401],[133.24622,-22.61648301],[133.246587,-22.61639601],[133.246857,-22.61615201],[133.246954,-22.61589101],[133.247188,-22.61406401],[133.247198,-22.61354501],[133.246931,-22.60546901],[133.24689,-22.60499001],[133.246794,-22.60448001],[133.246606,-22.60388301],[133.246489,-22.60360501],[133.246298,-22.60323001],[133.246126,-22.60294701],[133.245888,-22.60261201],[133.245675,-22.60235301],[133.245379,-22.60204301],[133.245067,-22.60176401],[133.24471,-22.60149101],[133.242501,-22.60000801],[133.242446,-22.59997501],[133.24209,-22.59988201],[133.242071,-22.60138601],[133.243833,-22.60257001],[133.244088,-22.60276501],[133.244382,-22.60303401],[133.244695,-22.60339101],[133.244834,-22.60358201],[133.244999,-22.60384901],[133.245203,-22.60426901],[133.245308,-22.60456001],[133.24537,-22.60478301],[133.245441,-22.60516201],[133.245468,-22.60547001],[133.245656,-22.61113701],[133.245985,-22.61114101],[133.245918,-22.61640401]]]]},"properties":{"@featureType":"MineralTenement","identifier":"http://geology.data.nt.gov.au/resource/feature/ntgs/mineraltenement/1744","name":"AA33280","tenementType":"Access Authority (AA)","commodity":"urn:ogc:def:nil:OGC::missing","owner":"Applicant - ARAFURA NOLANS PROJECT PTY LTD (100%),\nAgent - AUSTRALIAN MINING & EXPLORATION TITLE SERVICES PTY LTD ","status":"Grant","area":"4.269 Km","applicationDate":"2022-11-15T14:30:00Z","fileID":"AA33280","tenementType_uri":"urn:ogc:def:nil:OGC::missing","status_uri":"http://resource.geoscience.gov.au/classifier/ggic/petroleum_tenement_status/granted","jurisdiction_uri":"https://nt.gov.au/industry/mining-and-petroleum","fmt_tenid":"AA33280","type":"Access Authority (AA)","tenstatus":"LIVE","holder1":"ARAFURA NOLANS PROJECT PTY LTD (100%),","_colour":"#a0c4f0","_label":"Access Authority (Aa)"}},{"type":"Feature","id":"mt.mineraltenement.1745","geometry":{"type":"Polygon","coordinates":[[[133.234602,-22.65224801],[133.235547,-22.65316901],[133.236042,-22.65358601],[133.236321,-22.65378201],[133.236691,-22.65400501],[133.237291,-22.65429201],[133.280018,-22.67112401],[133.282572,-22.67217301],[133.282865,-22.67231501],[133.283145,-22.67247801],[133.283536,-22.67276101],[133.283834,-22.67302901],[133.284703,-22.67391501],[133.284935,-22.67412201],[133.28527778,-22.67438801],[133.28892,-22.67675001],[133.289341,-22.67700501],[133.28971,-22.67720201],[133.290727,-22.67769801],[133.293576,-22.67939801],[133.294697,-22.68000401],[133.29523,-22.68027101],[133.296045,-22.68064301],[133.296971,-22.68101601],[133.297916,-22.68134601],[133.298878,-22.68163201],[133.299563,-22.68180601],[133.300149,-22.68193601],[133.311087,-22.68413101],[133.320286,-22.68614701],[133.324062,-22.68680501],[133.345336,-22.69058901],[133.35751,-22.69302401],[133.357914,-22.69309601],[133.358438,-22.69316601],[133.358855,-22.69320401],[133.359378,-22.69323001],[133.359901,-22.69323101],[133.360416,-22.69320901],[133.360937,-22.69316201],[133.361455,-22.69309101],[133.361967,-22.69299701],[133.362481,-22.69287701],[133.362982,-22.69273501],[133.363376,-22.69260501],[133.370743,-22.69000601],[133.370223,-22.68874501],[133.362868,-22.69134001],[133.362171,-22.69155601],[133.361649,-22.69168001],[133.361208,-22.69176201],[133.360762,-22.69182301],[133.360225,-22.69186901],[133.359776,-22.69188401],[133.359236,-22.69187501],[133.358787,-22.69184401],[133.358341,-22.69179301],[133.357809,-22.69170401],[133.345626,-22.68926701],[133.324456,-22.68550101],[133.320678,-22.68484501],[133.311406,-22.68281501],[133.30047,-22.68062001],[133.299833,-22.68047701],[133.299291,-22.68033801],[133.2984,-22.68007301],[133.297523,-22.67976701],[133.296664,-22.67942101],[133.295825,-22.67903501],[133.29525,-22.67874201],[133.294347,-22.67825201],[133.291562,-22.67658701],[133.290109,-22.67585701],[133.289812,-22.67567901],[133.286177,-22.67332401],[133.285744,-22.67296801],[133.284832,-22.67203901],[133.284508,-22.67175301],[133.28425,-22.67155401],[133.283979,-22.67137001],[133.283502,-22.67109801],[133.283092,-22.67090901],[133.280685,-22.66992001],[133.271839,-22.66643501],[133.272074,-22.66607301],[133.274123,-22.66327901],[133.27311,-22.66231601],[133.272989,-22.66241801],[133.270863,-22.66531701],[133.270652,-22.66562701],[133.27049,-22.66590401],[133.237881,-22.65305801],[133.237656,-22.65295801],[133.237369,-22.65280601],[133.237096,-22.65263401],[133.236901,-22.65249101],[133.236597,-22.65223001],[133.235657,-22.65131601],[133.234602,-22.65224801]]]},"properties":{"@featureType":"MineralTenement","identifier":"http://geology.data.nt.gov.au/resource/feature/ntgs/mineraltenement/1745","name":"AA33279","tenementType":"Access Authority (AA)","commodity":"urn:ogc:def:nil:OGC::missing","owner":"Applicant - ARAFURA NOLANS PROJECT PTY LTD (100%),\nAgent - AUSTRALIAN MINING & EXPLORATION TITLE SERVICES PTY LTD ","status":"Grant","area":"15.41 Km","applicationDate":"2022-11-15T14:30:00Z","fileID":"AA33279","tenementType_uri":"urn:ogc:def:nil:OGC::missing","status_uri":"http://resource.geoscience.gov.au/classifier/ggic/petroleum_tenement_status/granted","jurisdiction_uri":"https://nt.gov.au/industry/mining-and-petroleum","fmt_tenid":"AA33279","type":"Access Authority (AA)","tenstatus":"LIVE","holder1":"ARAFURA NOLANS PROJECT PTY LTD (100%),","_colour":"#a0c4f0","_label":"Access Authority (Aa)"}},{"type":"Feature","id":"mt.mineraltenement.2001","geometry":{"type":"Polygon","coordinates":[[[133.33333333,-22.66666668],[133.33333333,-22.71666668],[133.35,-22.71666668],[133.35,-22.69999901],[133.36666667,-22.70000001],[133.36666667,-22.68333335],[133.35,-22.68333335],[133.35,-22.66666668],[133.33333333,-22.66666668]]]},"properties":{"@featureType":"MineralTenement","identifier":"http://geology.data.nt.gov.au/resource/feature/ntgs/mineraltenement/2001","name":"EMEL32676","tenementType":"Extractive Mineral Exploration Licence (EMEL)","commodity":"urn:ogc:def:nil:OGC::missing","owner":"Holder - ARAFURA NOLANS PROJECT PTY LTD (100%),\nAgent - AUSTRALIAN MINING & EXPLORATION TITLE SERVICES PTY LTD ","status":"Grant","area":"4 Blocks (12.28 Km2)","applicationDate":"2021-05-12T14:30:00Z","fileID":"EMEL32676","tenementType_uri":"http://resource.geoscience.gov.au/classifier/ggic/tenementtype/extractive-mineral-exploration-licence","status_uri":"http://resource.geoscience.gov.au/classifier/ggic/petroleum_tenement_status/granted","jurisdiction_uri":"https://nt.gov.au/industry/mining-and-petroleum","fmt_tenid":"EMEL32676","type":"EXPLORATION LICENCE","tenstatus":"LIVE","holder1":"ARAFURA NOLANS PROJECT PTY LTD (100%),","_colour":"#a0c4f0","_label":"Exploration Licence"}},{"type":"Feature","id":"mt.mineraltenement.2002","geometry":{"type":"Polygon","coordinates":[[[133.3,-22.68333335],[133.3,-22.71666668],[133.33333333,-22.71666668],[133.333331,-22.68333335],[133.3,-22.68333335]]]},"properties":{"@featureType":"MineralTenement","identifier":"http://geology.data.nt.gov.au/resource/feature/ntgs/mineraltenement/2002","name":"EMEL32675","tenementType":"Extractive Mineral Exploration Licence (EMEL)","commodity":"urn:ogc:def:nil:OGC::missing","owner":"Holder - ARAFURA NOLANS PROJECT PTY LTD (100%),\nAgent - AUSTRALIAN MINING & EXPLORATION TITLE SERVICES PTY LTD ","status":"Grant","area":"4 Blocks (12.68 Km2)","applicationDate":"2021-05-12T14:30:00Z","fileID":"EMEL32675","tenementType_uri":"http://resource.geoscience.gov.au/classifier/ggic/tenementtype/extractive-mineral-exploration-licence","status_uri":"http://resource.geoscience.gov.au/classifier/ggic/petroleum_tenement_status/granted","jurisdiction_uri":"https://nt.gov.au/industry/mining-and-petroleum","fmt_tenid":"EMEL32675","type":"EXPLORATION LICENCE","tenstatus":"LIVE","holder1":"ARAFURA NOLANS PROJECT PTY LTD (100%),","_colour":"#a0c4f0","_label":"Exploration Licence"}},{"type":"Feature","id":"mt.mineraltenement.2003","geometry":{"type":"Polygon","coordinates":[[[133.28333,-22.70000301],[133.3,-22.69995701],[133.3,-22.68333335],[133.333331,-22.68333335],[133.33333333,-22.66666668],[133.28333333,-22.66666668],[133.28333,-22.70000301]]]},"properties":{"@featureType":"MineralTenement","identifier":"http://geology.data.nt.gov.au/resource/feature/ntgs/mineraltenement/2003","name":"EMEL32674","tenementType":"Extractive Mineral Exploration Licence (EMEL)","commodity":"urn:ogc:def:nil:OGC::missing","owner":"Holder - ARAFURA NOLANS PROJECT PTY LTD (100%),\nAgent - AUSTRALIAN MINING & EXPLORATION TITLE SERVICES PTY LTD ","status":"Grant","area":"4 Blocks (12.68 Km2)","applicationDate":"2021-05-12T14:30:00Z","fileID":"EMEL32674","tenementType_uri":"http://resource.geoscience.gov.au/classifier/ggic/tenementtype/extractive-mineral-exploration-licence","status_uri":"http://resource.geoscience.gov.au/classifier/ggic/petroleum_tenement_status/granted","jurisdiction_uri":"https://nt.gov.au/industry/mining-and-petroleum","fmt_tenid":"EMEL32674","type":"EXPLORATION LICENCE","tenstatus":"LIVE","holder1":"ARAFURA NOLANS PROJECT PTY LTD (100%),","_colour":"#a0c4f0","_label":"Exploration Licence"}},{"type":"Feature","id":"mt.mineraltenement.2004","geometry":{"type":"Polygon","coordinates":[[[133.25,-22.65000001],[133.25,-22.68333335],[133.28333333,-22.68333501],[133.283332,-22.65000201],[133.25,-22.65000001]]]},"properties":{"@featureType":"MineralTenement","identifier":"http://geology.data.nt.gov.au/resource/feature/ntgs/mineraltenement/2004","name":"EMEL32673","tenementType":"Extractive Mineral Exploration Licence (EMEL)","commodity":"urn:ogc:def:nil:OGC::missing","owner":"Holder - ARAFURA NOLANS PROJECT PTY LTD (100%),\nAgent - AUSTRALIAN MINING & EXPLORATION TITLE SERVICES PTY LTD ","status":"Grant","area":"4 Blocks (12.68 Km2)","applicationDate":"2021-05-12T14:30:00Z","fileID":"EMEL32673","tenementType_uri":"http://resource.geoscience.gov.au/classifier/ggic/tenementtype/extractive-mineral-exploration-licence","status_uri":"http://resource.geoscience.gov.au/classifier/ggic/petroleum_tenement_status/granted","jurisdiction_uri":"https://nt.gov.au/industry/mining-and-petroleum","fmt_tenid":"EMEL32673","type":"EXPLORATION LICENCE","tenstatus":"LIVE","holder1":"ARAFURA NOLANS PROJECT PTY LTD (100%),","_colour":"#a0c4f0","_label":"Exploration Licence"}},{"type":"Feature","id":"mt.mineraltenement.2005","geometry":{"type":"Polygon","coordinates":[[[133.199997,-22.63334001],[133.199997,-22.64999701],[133.25,-22.65000001],[133.25,-22.61671901],[133.233332,-22.61667001],[133.233332,-22.63333335],[133.199997,-22.63334001]]]},"properties":{"@featureType":"MineralTenement","identifier":"http://geology.data.nt.gov.au/resource/feature/ntgs/mineraltenement/2005","name":"EMEL32672","tenementType":"Extractive Mineral Exploration Licence (EMEL)","commodity":"urn:ogc:def:nil:OGC::missing","owner":"Holder - ARAFURA NOLANS PROJECT PTY LTD (100%),\nAgent - AUSTRALIAN MINING & EXPLORATION TITLE SERVICES PTY LTD ","status":"Grant","area":"4 Blocks (12.68 Km2)","applicationDate":"2021-05-12T14:30:00Z","fileID":"EMEL32672","tenementType_uri":"http://resource.geoscience.gov.au/classifier/ggic/tenementtype/extractive-mineral-exploration-licence","status_uri":"http://resource.geoscience.gov.au/classifier/ggic/petroleum_tenement_status/granted","jurisdiction_uri":"https://nt.gov.au/industry/mining-and-petroleum","fmt_tenid":"EMEL32672","type":"EXPLORATION LICENCE","tenstatus":"LIVE","holder1":"ARAFURA NOLANS PROJECT PTY LTD (100%),","_colour":"#a0c4f0","_label":"Exploration Licence"}},{"type":"Feature","id":"mt.mineraltenement.2115","geometry":{"type":"MultiPolygon","coordinates":[[[[133.226796,-22.57900201],[133.223879,-22.57897001],[133.226761,-22.58171101],[133.226796,-22.57900201]]],[[[133.215494,-22.56324501],[133.214753,-22.56265801],[133.213076,-22.56458101],[133.211737,-22.57034601],[133.214213,-22.57443701],[133.217096,-22.57708901],[133.217128,-22.57456001],[133.213487,-22.57036601],[133.214273,-22.56594901],[133.215494,-22.56324501]]]]},"properties":{"@featureType":"MineralTenement","identifier":"http://geology.data.nt.gov.au/resource/feature/ntgs/mineraltenement/2115","name":"ML32416","tenementType":"Mineral Lease (ML)","commodity":"urn:ogc:def:nil:OGC::missing","owner":"Holder - ARAFURA NOLANS PROJECT PTY LTD (100%),\nAgent - AUSTRALIAN MINING & EXPLORATION TITLE SERVICES PTY LTD ","status":"Grant","area":"33.01 Hectares","applicationDate":"2021-01-28T14:30:00Z","fileID":"ML32416","tenementType_uri":"http://resource.geoscience.gov.au/classifier/ggic/tenementtype/mineral-lease","status_uri":"http://resource.geoscience.gov.au/classifier/ggic/petroleum_tenement_status/granted","jurisdiction_uri":"https://nt.gov.au/industry/mining-and-petroleum","fmt_tenid":"ML32416","type":"MINING LEASE","tenstatus":"LIVE","holder1":"ARAFURA NOLANS PROJECT PTY LTD (100%),","_colour":"#f5a520","_label":"Mining Lease"}},{"type":"Feature","id":"mt.mineraltenement.2116","geometry":{"type":"MultiPolygon","coordinates":[[[[132.834242,-22.71549801],[132.832296,-22.71547101],[132.832211,-22.72088801],[132.834157,-22.72091401],[132.834242,-22.71549801]]],[[[132.805123,-22.71058601],[132.803177,-22.71055901],[132.803148,-22.71236401],[132.805094,-22.71239101],[132.805123,-22.71058601]]]]},"properties":{"@featureType":"MineralTenement","identifier":"http://geology.data.nt.gov.au/resource/feature/ntgs/mineraltenement/2116","name":"ML32415","tenementType":"Mineral Lease (ML)","commodity":"urn:ogc:def:nil:OGC::missing","owner":"Holder - ARAFURA NOLANS PROJECT PTY LTD (100%),\nAgent - AUSTRALIAN MINING & EXPLORATION TITLE SERVICES PTY LTD ","status":"Grant","area":"16 Hectares","applicationDate":"2021-01-28T14:30:00Z","fileID":"ML32415","tenementType_uri":"http://resource.geoscience.gov.au/classifier/ggic/tenementtype/mineral-lease","status_uri":"http://resource.geoscience.gov.au/classifier/ggic/petroleum_tenement_status/granted","jurisdiction_uri":"https://nt.gov.au/industry/mining-and-petroleum","fmt_tenid":"ML32415","type":"MINING LEASE","tenstatus":"LIVE","holder1":"ARAFURA NOLANS PROJECT PTY LTD (100%),","_colour":"#f5a520","_label":"Mining Lease"}},{"type":"Feature","id":"mt.mineraltenement.2117","geometry":{"type":"MultiPolygon","coordinates":[[[[132.999206,-22.74970301],[132.997259,-22.74967901],[132.997161,-22.75645001],[132.999107,-22.75647401],[132.999206,-22.74970301]]],[[[132.940959,-22.73857901],[132.939012,-22.73855401],[132.938911,-22.74532401],[132.940857,-22.74535001],[132.940959,-22.73857901]]]]},"properties":{"@featureType":"MineralTenement","identifier":"http://geology.data.nt.gov.au/resource/feature/ntgs/mineraltenement/2117","name":"ML32413","tenementType":"Mineral Lease (ML)","commodity":"urn:ogc:def:nil:OGC::missing","owner":"Holder - ARAFURA NOLANS PROJECT PTY LTD (100%),\nAgent - AUSTRALIAN MINING & EXPLORATION TITLE SERVICES PTY LTD ","status":"Grant","area":"30 Hectares","applicationDate":"2021-01-28T14:30:00Z","fileID":"ML32413","tenementType_uri":"http://resource.geoscience.gov.au/classifier/ggic/tenementtype/mineral-lease","status_uri":"http://resource.geoscience.gov.au/classifier/ggic/petroleum_tenement_status/granted","jurisdiction_uri":"https://nt.gov.au/industry/mining-and-petroleum","fmt_tenid":"ML32413","type":"MINING LEASE","tenstatus":"LIVE","holder1":"ARAFURA NOLANS PROJECT PTY LTD (100%),","_colour":"#f5a520","_label":"Mining Lease"}},{"type":"Feature","id":"mt.mineraltenement.2118","geometry":{"type":"MultiPolygon","coordinates":[[[[133.065354,-22.77444801],[133.063407,-22.77442401],[133.06333,-22.77984201],[133.06527778,-22.77986501],[133.065354,-22.77444801]]],[[[133.018453,-22.76529401],[133.016506,-22.76527001],[133.016414,-22.77159001],[133.018361,-22.77161401],[133.018453,-22.76529401]]]]},"properties":{"@featureType":"MineralTenement","identifier":"http://geology.data.nt.gov.au/resource/feature/ntgs/mineraltenement/2118","name":"ML32412","tenementType":"Mineral Lease (ML)","commodity":"urn:ogc:def:nil:OGC::missing","owner":"Holder - ARAFURA NOLANS PROJECT PTY LTD (100%),\nAgent - AUSTRALIAN MINING & EXPLORATION TITLE SERVICES PTY LTD ","status":"Grant","area":"26 Hectares","applicationDate":"2021-01-28T14:30:00Z","fileID":"ML32412","tenementType_uri":"http://resource.geoscience.gov.au/classifier/ggic/tenementtype/mineral-lease","status_uri":"http://resource.geoscience.gov.au/classifier/ggic/petroleum_tenement_status/granted","jurisdiction_uri":"https://nt.gov.au/industry/mining-and-petroleum","fmt_tenid":"ML32412","type":"MINING LEASE","tenstatus":"LIVE","holder1":"ARAFURA NOLANS PROJECT PTY LTD (100%),","_colour":"#f5a520","_label":"Mining Lease"}},{"type":"Feature","id":"mt.mineraltenement.2119","geometry":{"type":"MultiPolygon","coordinates":[[[[132.912315,-22.70163701],[132.910369,-22.70161201],[132.91026,-22.70883401],[132.912206,-22.70885901],[132.912315,-22.70163701]]],[[[132.874424,-22.69752601],[132.872478,-22.69750101],[132.872367,-22.70472301],[132.874313,-22.70474901],[132.874424,-22.69752601]]]]},"properties":{"@featureType":"MineralTenement","identifier":"http://geology.data.nt.gov.au/resource/feature/ntgs/mineraltenement/2119","name":"ML32414","tenementType":"Mineral Lease (ML)","commodity":"urn:ogc:def:nil:OGC::missing","owner":"Holder - ARAFURA NOLANS PROJECT PTY LTD (100%),\nAgent - AUSTRALIAN MINING & EXPLORATION TITLE SERVICES PTY LTD ","status":"Grant","area":"32 Hectares","applicationDate":"2021-01-28T14:30:00Z","fileID":"ML32414","tenementType_uri":"http://resource.geoscience.gov.au/classifier/ggic/tenementtype/mineral-lease","status_uri":"http://resource.geoscience.gov.au/classifier/ggic/petroleum_tenement_status/granted","jurisdiction_uri":"https://nt.gov.au/industry/mining-and-petroleum","fmt_tenid":"ML32414","type":"MINING LEASE","tenstatus":"LIVE","holder1":"ARAFURA NOLANS PROJECT PTY LTD (100%),","_colour":"#f5a520","_label":"Mining Lease"}},{"type":"Feature","id":"mt.mineraltenement.2120","geometry":{"type":"MultiPolygon","coordinates":[[[[133.159427,-22.78143101],[133.157479,-22.78140801],[133.157455,-22.78321401],[133.159402,-22.78323701],[133.159427,-22.78143101]]],[[[133.131656,-22.78258001],[133.116553,-22.78318801],[133.116528,-22.78499401],[133.131631,-22.78438601],[133.131656,-22.78258001]]]]},"properties":{"@featureType":"MineralTenement","identifier":"http://geology.data.nt.gov.au/resource/feature/ntgs/mineraltenement/2120","name":"ML32411","tenementType":"Mineral Lease (ML)","commodity":"urn:ogc:def:nil:OGC::missing","owner":"Holder - ARAFURA NOLANS PROJECT PTY LTD (100%),\nAgent - AUSTRALIAN MINING & EXPLORATION TITLE SERVICES PTY LTD ","status":"Grant","area":"35 Hectares","applicationDate":"2021-01-28T14:30:00Z","fileID":"ML32411","tenementType_uri":"http://resource.geoscience.gov.au/classifier/ggic/tenementtype/mineral-lease","status_uri":"http://resource.geoscience.gov.au/classifier/ggic/petroleum_tenement_status/granted","jurisdiction_uri":"https://nt.gov.au/industry/mining-and-petroleum","fmt_tenid":"ML32411","type":"MINING LEASE","tenstatus":"LIVE","holder1":"ARAFURA NOLANS PROJECT PTY LTD (100%),","_colour":"#f5a520","_label":"Mining Lease"}},{"type":"Feature","id":"mt.mineraltenement.2163","geometry":{"type":"Polygon","coordinates":[[[133.241994,-22.64571301],[133.231714,-22.63694701],[133.221871,-22.64586901],[133.231483,-22.65500601],[133.241994,-22.64571301]]]},"properties":{"@featureType":"MineralTenement","identifier":"http://geology.data.nt.gov.au/resource/feature/ntgs/mineraltenement/2163","name":"ML30704","tenementType":"Mineral Lease (ML)","commodity":"urn:ogc:def:nil:OGC::missing","owner":"Holder - ARAFURA NOLANS PROJECT PTY LTD (100%),\nAgent - AUSTRALIAN MINING & EXPLORATION TITLE SERVICES PTY LTD ","status":"Grant","area":"206.8 Hectares","applicationDate":"2020-07-20T14:30:00Z","fileID":"ML30704","tenementType_uri":"http://resource.geoscience.gov.au/classifier/ggic/tenementtype/mineral-lease","status_uri":"http://resource.geoscience.gov.au/classifier/ggic/petroleum_tenement_status/granted","jurisdiction_uri":"https://nt.gov.au/industry/mining-and-petroleum","fmt_tenid":"ML30704","type":"MINING LEASE","tenstatus":"LIVE","holder1":"ARAFURA NOLANS PROJECT PTY LTD (100%),","_colour":"#f5a520","_label":"Mining Lease"}},{"type":"Feature","id":"mt.mineraltenement.2164","geometry":{"type":"Polygon","coordinates":[[[133.221871,-22.64586901],[133.202579,-22.63301001],[133.195794,-22.63112801],[133.177111,-22.64626901],[133.185389,-22.65415601],[133.200811,-22.66760901],[133.208844,-22.67500801],[133.231483,-22.65500601],[133.221871,-22.64586901]]]},"properties":{"@featureType":"MineralTenement","identifier":"http://geology.data.nt.gov.au/resource/feature/ntgs/mineraltenement/2164","name":"ML30703","tenementType":"Mineral Lease (ML)","commodity":"urn:ogc:def:nil:OGC::missing","owner":"Holder - ARAFURA NOLANS PROJECT PTY LTD (100%),\nAgent - AUSTRALIAN MINING & EXPLORATION TITLE SERVICES PTY LTD ","status":"Grant","area":"1380 Hectares","applicationDate":"2020-07-20T14:30:00Z","fileID":"ML30703","tenementType_uri":"http://resource.geoscience.gov.au/classifier/ggic/tenementtype/mineral-lease","status_uri":"http://resource.geoscience.gov.au/classifier/ggic/petroleum_tenement_status/granted","jurisdiction_uri":"https://nt.gov.au/industry/mining-and-petroleum","fmt_tenid":"ML30703","type":"MINING LEASE","tenstatus":"LIVE","holder1":"ARAFURA NOLANS PROJECT PTY LTD (100%),","_colour":"#f5a520","_label":"Mining Lease"}},{"type":"Feature","id":"mt.mineraltenement.2165","geometry":{"type":"Polygon","coordinates":[[[133.275462,-22.65358601],[133.269557,-22.65894101],[133.275327,-22.66442201],[133.281232,-22.65906701],[133.275462,-22.65358601]]]},"properties":{"@featureType":"MineralTenement","identifier":"http://geology.data.nt.gov.au/resource/feature/ntgs/mineraltenement/2165","name":"ML30702","tenementType":"Mineral Lease (ML)","commodity":"urn:ogc:def:nil:OGC::missing","owner":"Holder - ARAFURA NOLANS PROJECT PTY LTD (100%),\nAgent - AUSTRALIAN MINING & EXPLORATION TITLE SERVICES PTY LTD ","status":"Grant","area":"72.01 Hectares","applicationDate":"2020-07-20T14:30:00Z","fileID":"ML30702","tenementType_uri":"http://resource.geoscience.gov.au/classifier/ggic/tenementtype/mineral-lease","status_uri":"http://resource.geoscience.gov.au/classifier/ggic/petroleum_tenement_status/granted","jurisdiction_uri":"https://nt.gov.au/industry/mining-and-petroleum","fmt_tenid":"ML30702","type":"MINING LEASE","tenstatus":"LIVE","holder1":"ARAFURA NOLANS PROJECT PTY LTD (100%),","_colour":"#f5a520","_label":"Mining Lease"}},{"type":"Feature","id":"mt.mineraltenement.2166","geometry":{"type":"Polygon","coordinates":[[[133.258996,-22.57032301],[133.241495,-22.57013301],[133.241541,-22.56652101],[133.217235,-22.56625301],[133.217073,-22.57889401],[133.226796,-22.57900201],[133.22668,-22.58803201],[133.221586,-22.60603701],[133.242009,-22.60626201],[133.242124,-22.59723201],[133.258656,-22.59741301],[133.258996,-22.57032301]]]},"properties":{"@featureType":"MineralTenement","identifier":"http://geology.data.nt.gov.au/resource/feature/ntgs/mineraltenement/2166","name":"ML26659","tenementType":"Mineral Lease (ML)","commodity":"urn:ogc:def:nil:OGC::missing","owner":"Holder - ARAFURA NOLANS PROJECT PTY LTD (100%),\nAgent - AUSTRALIAN MINING & EXPLORATION TITLE SERVICES PTY LTD ","status":"Grant","area":"1400 Hectares","applicationDate":"2020-07-20T14:30:00Z","fileID":"ML26659","tenementType_uri":"http://resource.geoscience.gov.au/classifier/ggic/tenementtype/mineral-lease","status_uri":"http://resource.geoscience.gov.au/classifier/ggic/petroleum_tenement_status/granted","jurisdiction_uri":"https://nt.gov.au/industry/mining-and-petroleum","fmt_tenid":"ML26659","type":"MINING LEASE","tenstatus":"LIVE","holder1":"ARAFURA NOLANS PROJECT PTY LTD (100%),","_colour":"#f5a520","_label":"Mining Lease"}},{"type":"Feature","id":"mt.mineraltenement.2266","geometry":{"type":"Polygon","coordinates":[[[132.95,-22.66666668],[132.86666667,-22.66666668],[132.86666667,-22.73333335],[132.83333333,-22.73333335],[132.83333333,-22.78333335],[132.95,-22.78333335],[132.95,-22.66666668]]]},"properties":{"@featureType":"MineralTenement","identifier":"http://geology.data.nt.gov.au/resource/feature/ntgs/mineraltenement/2266","name":"EL31957","tenementType":"Exploration Licence (EL)","commodity":"urn:ogc:def:nil:OGC::missing","owner":"Holder - ARAFURA RARE EARTHS LTD (100%),\nAgent - AUSTRALIAN MINING & EXPLORATION TITLE SERVICES PTY LTD ","status":"Grant","area":"41 Block (129.88 Km2)","applicationDate":"2019-02-14T14:30:00Z","fileID":"EL31957","tenementType_uri":"http://resource.geoscience.gov.au/classifier/ggic/tenementtype/exploration-licence","status_uri":"http://resource.geoscience.gov.au/classifier/ggic/petroleum_tenement_status/granted","jurisdiction_uri":"https://nt.gov.au/industry/mining-and-petroleum","fmt_tenid":"EL31957","type":"EXPLORATION LICENCE","tenstatus":"LIVE","holder1":"ARAFURA RARE EARTHS LTD (100%),","_colour":"#a0c4f0","_label":"Exploration Licence"}},{"type":"Feature","id":"mt.mineraltenement.3044","geometry":{"type":"Polygon","coordinates":[[[133.01666667,-22.46666668],[133.01666667,-22.50000001],[133.1,-22.50000001],[133.1,-22.53333335],[133.11666667,-22.53333335],[133.11666667,-22.55000001],[133.13333333,-22.55000001],[133.13333333,-22.56666668],[133.15,-22.56666668],[133.15,-22.61666668],[133.23333333,-22.61666668],[133.23333333,-22.63333335],[133.31666667,-22.63333335],[133.31666667,-22.61666668],[133.35,-22.61666668],[133.35,-22.56666668],[133.33333333,-22.56666668],[133.33333333,-22.53333335],[133.26666667,-22.53333335],[133.26666667,-22.50000001],[133.18333333,-22.50000001],[133.18333333,-22.51666668],[133.15,-22.51666668],[133.15,-22.50000001],[133.13333333,-22.50000001],[133.13333333,-22.48333335],[133.11666667,-22.48333335],[133.11666667,-22.45000001],[133.08333333,-22.45000001],[133.08333333,-22.46666668],[133.01666667,-22.46666668]]]},"properties":{"@featureType":"MineralTenement","identifier":"http://geology.data.nt.gov.au/resource/feature/ntgs/mineraltenement/3044","name":"EL28473","tenementType":"Exploration Licence (EL)","commodity":"urn:ogc:def:nil:OGC::missing","owner":"Holder - ARAFURA RARE EARTHS LTD (100%),\nAgent - AUSTRALIAN MINING & EXPLORATION TITLE SERVICES PTY LTD ","status":"Renew Retained","area":"99 Blocks","applicationDate":"2021-10-04T14:30:00Z","fileID":"EL28473","tenementType_uri":"http://resource.geoscience.gov.au/classifier/ggic/tenementtype/exploration-licence","status_uri":"http://resource.geoscience.gov.au/classifier/ggic/tenement-status/renew-retained","jurisdiction_uri":"https://nt.gov.au/industry/mining-and-petroleum","fmt_tenid":"EL28473","type":"EXPLORATION LICENCE","tenstatus":"LIVE","holder1":"ARAFURA RARE EARTHS LTD (100%),","_colour":"#a0c4f0","_label":"Exploration Licence"}},{"type":"Feature","id":"mt.mineraltenement.3328","geometry":{"type":"MultiPolygon","coordinates":[[[[133.05,-22.83333335],[133.05,-22.80000001],[133.01666667,-22.80000001],[133.01666667,-22.83333335],[133.05,-22.83333335]]],[[[133.16666667,-22.75000001],[133.16666667,-22.71666668],[133.11666667,-22.71666668],[133.11666667,-22.73333335],[133.15,-22.73333335],[133.15,-22.75000001],[133.16666667,-22.75000001]]],[[[133.2,-22.78333335],[133.2,-22.76666668],[133.18333333,-22.76666668],[133.18333333,-22.75000001],[133.16666667,-22.75000001],[133.16666667,-22.78333335],[133.05,-22.78333335],[133.05,-22.80000001],[133.11666667,-22.80000001],[133.11666667,-22.83333335],[133.13333333,-22.83333335],[133.13333333,-22.80000001],[133.18333333,-22.80000001],[133.18333333,-22.78333335],[133.2,-22.78333335]]],[[[133.18333333,-22.71666668],[133.18333333,-22.70000001],[133.16666667,-22.70000001],[133.16666667,-22.71666668],[133.18333333,-22.71666668]]],[[[133.21666667,-22.75000001],[133.21666667,-22.73333335],[133.18333333,-22.73333335],[133.18333333,-22.75000001],[133.21666667,-22.75000001]]]]},"properties":{"@featureType":"MineralTenement","identifier":"http://geology.data.nt.gov.au/resource/feature/ntgs/mineraltenement/3328","name":"EL31224","tenementType":"Exploration Licence (EL)","commodity":"urn:ogc:def:nil:OGC::missing","owner":"Holder - ARAFURA RARE EARTHS LTD (100%),\nAgent - AUSTRALIAN MINING & EXPLORATION TITLE SERVICES PTY LTD ","status":"Renew Retained","area":"24 Blocks","applicationDate":"2022-10-11T14:30:00Z","fileID":"EL31224","tenementType_uri":"http://resource.geoscience.gov.au/classifier/ggic/tenementtype/exploration-licence","status_uri":"http://resource.geoscience.gov.au/classifier/ggic/tenement-status/renew-retained","jurisdiction_uri":"https://nt.gov.au/industry/mining-and-petroleum","fmt_tenid":"EL31224","type":"EXPLORATION LICENCE","tenstatus":"LIVE","holder1":"ARAFURA RARE EARTHS LTD (100%),","_colour":"#a0c4f0","_label":"Exploration Licence"}},{"type":"Feature","id":"mt.mineraltenement.3379","geometry":{"type":"Polygon","coordinates":[[[133.36666667,-22.71666668],[133.36666667,-22.68333335],[133.33333333,-22.68333335],[133.33333333,-22.65000001],[133.31666667,-22.65000001],[133.31666667,-22.63333335],[133.23333333,-22.63333335],[133.23333333,-22.61666668],[133.15,-22.61666668],[133.15,-22.56666668],[133.13333333,-22.56666668],[133.13333333,-22.55000001],[133.11666667,-22.55000001],[133.11666667,-22.53333335],[133.1,-22.53333335],[133.1,-22.50000001],[133.03333333,-22.50000001],[133.03333333,-22.53333335],[133.01666667,-22.53333335],[133.01666667,-22.56666668],[133,-22.56666668],[133,-22.58333335],[133.05,-22.58333335],[133.05,-22.60000001],[133.06666667,-22.60000001],[133.06666667,-22.61666668],[133.08333333,-22.61666668],[133.08333333,-22.63333335],[133.15,-22.63333335],[133.21666667,-22.63333335],[133.21666667,-22.65000001],[133.26666667,-22.65000001],[133.26666667,-22.68333335],[133.3,-22.68333335],[133.3,-22.71666668],[133.36666667,-22.71666668]],[[133.144701,-22.57979101],[133.144701,-22.59069101],[133.137854,-22.59069301],[133.137855,-22.57979301],[133.144701,-22.57979101]]]},"properties":{"@featureType":"MineralTenement","identifier":"http://geology.data.nt.gov.au/resource/feature/ntgs/mineraltenement/3379","name":"EL28498","tenementType":"Exploration Licence (EL)","commodity":"urn:ogc:def:nil:OGC::missing","owner":"Holder - ARAFURA RARE EARTHS LTD (100%),\nAgent - AUSTRALIAN MINING & EXPLORATION TITLE SERVICES PTY LTD ","status":"Renew Retained","area":"72 Blocks","applicationDate":"2021-08-11T14:30:00Z","fileID":"EL28498","tenementType_uri":"http://resource.geoscience.gov.au/classifier/ggic/tenementtype/exploration-licence","status_uri":"http://resource.geoscience.gov.au/classifier/ggic/tenement-status/renew-retained","jurisdiction_uri":"https://nt.gov.au/industry/mining-and-petroleum","fmt_tenid":"EL28498","type":"EXPLORATION LICENCE","tenstatus":"LIVE","holder1":"ARAFURA RARE EARTHS LTD (100%),","_colour":"#a0c4f0","_label":"Exploration Licence"}},{"type":"Feature","id":"mt.mineraltenement.4042","geometry":{"type":"Polygon","coordinates":[[[133.16666667,-22.70000001],[133.08333333,-22.70000001],[133.08333333,-22.66666668],[133.03333333,-22.66666668],[133.03333333,-22.70000001],[132.95,-22.70000001],[132.95,-22.80000001],[133.05,-22.80000001],[133.05,-22.78333335],[133.16666667,-22.78333335],[133.16666667,-22.75000001],[133.15,-22.75000001],[133.15,-22.73333335],[133.11666667,-22.73333335],[133.11666667,-22.71666668],[133.16666667,-22.71666668],[133.16666667,-22.70000001]]]},"properties":{"@featureType":"MineralTenement","identifier":"http://geology.data.nt.gov.au/resource/feature/ntgs/mineraltenement/4042","name":"EL31284","tenementType":"Exploration Licence (EL)","commodity":"urn:ogc:def:nil:OGC::missing","owner":"Holder - ARAFURA RARE EARTHS LTD (100%),\nAgent - AUSTRALIAN MINING & EXPLORATION TITLE SERVICES PTY LTD ","status":"Renew Retained","area":"73 Blocks","applicationDate":"2022-12-14T14:30:00Z","fileID":"EL31284","tenementType_uri":"http://resource.geoscience.gov.au/classifier/ggic/tenementtype/exploration-licence","status_uri":"http://resource.geoscience.gov.au/classifier/ggic/tenement-status/renew-retained","jurisdiction_uri":"https://nt.gov.au/industry/mining-and-petroleum","fmt_tenid":"EL31284","type":"EXPLORATION LICENCE","tenstatus":"LIVE","holder1":"ARAFURA RARE EARTHS LTD (100%),","_colour":"#a0c4f0","_label":"Exploration Licence"}},{"type":"Feature","id":"mt.mineraltenement.4093","geometry":{"type":"Polygon","coordinates":[[[133.45,-22.78333335],[133.5,-22.78333335],[133.5,-22.71666668],[133.3,-22.71666668],[133.3,-22.68333335],[133.26666667,-22.68333335],[133.26666667,-22.65000001],[133.21666667,-22.65000001],[133.21666667,-22.63333335],[133.16666667,-22.63333335],[133.16666667,-22.70000001],[133.25,-22.70000001],[133.25,-22.71666668],[133.26666667,-22.71666668],[133.26666667,-22.75000001],[133.43333333,-22.75000001],[133.43333333,-22.76666668],[133.45,-22.76666668],[133.45,-22.78333335]]]},"properties":{"@featureType":"MineralTenement","identifier":"http://geology.data.nt.gov.au/resource/feature/ntgs/mineraltenement/4093","name":"EL29509","tenementType":"Exploration Licence (EL)","commodity":"urn:ogc:def:nil:OGC::missing","owner":"Holder - ARAFURA RARE EARTHS LTD (100%),\nAgent - AUSTRALIAN MINING & EXPLORATION TITLE SERVICES PTY LTD ","status":"Renew Retained","area":"61 Block (193.2 Km2)","applicationDate":"2023-01-01T14:30:00Z","fileID":"EL29509","tenementType_uri":"http://resource.geoscience.gov.au/classifier/ggic/tenementtype/exploration-licence","status_uri":"http://resource.geoscience.gov.au/classifier/ggic/tenement-status/renew-retained","jurisdiction_uri":"https://nt.gov.au/industry/mining-and-petroleum","fmt_tenid":"EL29509","type":"EXPLORATION LICENCE","tenstatus":"LIVE","holder1":"ARAFURA RARE EARTHS LTD (100%),","_colour":"#a0c4f0","_label":"Exploration Licence"}},{"type":"Feature","id":"mt.mineraltenement.4148","geometry":{"type":"Polygon","coordinates":[[[136.2,-22.69999995],[136.18333334,-22.69999995],[136.18333334,-22.68333329],[136.16666667,-22.68333329],[136.16666667,-22.64999996],[136.13333334,-22.64999996],[136.13333334,-22.63333329],[136.11666667,-22.63333329],[136.11666667,-22.64999996],[136.08333334,-22.64999996],[136.08333334,-22.68333329],[136,-22.6833333],[136,-22.64999997],[135.98333334,-22.64999997],[135.98333334,-22.6333333],[135.95,-22.6333333],[135.95,-22.6833333],[135.98333334,-22.6833333],[135.98333334,-22.69999997],[136,-22.69999997],[136,-22.71666663],[136.05,-22.71666663],[136.05,-22.7333333],[136.06666667,-22.73333329],[136.06666667,-22.74999996],[136.1,-22.74999996],[136.1,-22.79999996],[136.105761,-22.79999996],[136.11666667,-22.78926296],[136.11666667,-22.78333329],[136.122691,-22.78333329],[136.13333334,-22.77285596],[136.13333334,-22.78333329],[136.162164,-22.78333329],[136.16223,-22.78227896],[136.16666667,-22.77771296],[136.16666667,-22.71666662],[136.2,-22.71666662],[136.2,-22.69999995]]]},"properties":{"@featureType":"MineralTenement","identifier":"http://geology.data.nt.gov.au/resource/feature/ntgs/mineraltenement/4148","name":"EL29701","tenementType":"Exploration Licence (EL)","commodity":"urn:ogc:def:nil:OGC::missing","owner":"Holder - MOLYHIL MINING PTY LTD (40%),\nHolder - ARAFURA RARE EARTHS LTD (60%),\nAgent - AUSTWIDE MINING TITLE MANAGEMENT PTY LTD","status":"Renew Retained","area":"65 Blocks","applicationDate":"2022-11-05T14:30:00Z","fileID":"EL29701","tenementType_uri":"http://resource.geoscience.gov.au/classifier/ggic/tenementtype/exploration-licence","status_uri":"http://resource.geoscience.gov.au/classifier/ggic/tenement-status/renew-retained","jurisdiction_uri":"https://nt.gov.au/industry/mining-and-petroleum","fmt_tenid":"EL29701","type":"EXPLORATION LICENCE","tenstatus":"LIVE","holder1":"MOLYHIL MINING PTY LTD (40%),","_colour":"#a0c4f0","_label":"Exploration Licence"}},{"type":"Feature","id":"mt.mineraltenement.4157","geometry":{"type":"Polygon","coordinates":[[[136.26666667,-22.59999995],[136.21666667,-22.59999995],[136.21666667,-22.63333329],[136.23333334,-22.63333328],[136.23333334,-22.61666662],[136.31666667,-22.61666661],[136.31666667,-22.64999994],[136.35,-22.64999994],[136.35,-22.66666661],[136.35204,-22.66666661],[136.362996,-22.66167594],[136.364357,-22.66167494],[136.383224,-22.66128894],[136.383286,-22.61666661],[136.36666667,-22.61666661],[136.36666667,-22.59999994],[136.35,-22.59999994],[136.35,-22.58333328],[136.28333334,-22.58333328],[136.28333334,-22.59999995],[136.26666667,-22.59999995]]]},"properties":{"@featureType":"MineralTenement","identifier":"http://geology.data.nt.gov.au/resource/feature/ntgs/mineraltenement/4157","name":"EL32167","tenementType":"Exploration Licence (EL)","commodity":"urn:ogc:def:nil:OGC::missing","owner":"Holder - ARAFURA RARE EARTHS LTD (60%),\nHolder - MOLYHIL MINING PTY LTD (40%),\nAgent - AUSTWIDE MINING TITLE MANAGEMENT PTY LTD","status":"Renew Retained","area":"24 Blocks","applicationDate":"2022-11-05T14:30:00Z","fileID":"EL32167","tenementType_uri":"http://resource.geoscience.gov.au/classifier/ggic/tenementtype/exploration-licence","status_uri":"http://resource.geoscience.gov.au/classifier/ggic/tenement-status/renew-retained","jurisdiction_uri":"https://nt.gov.au/industry/mining-and-petroleum","fmt_tenid":"EL32167","type":"EXPLORATION LICENCE","tenstatus":"LIVE","holder1":"ARAFURA RARE EARTHS LTD (60%),","_colour":"#a0c4f0","_label":"Exploration Licence"}},{"type":"Feature","id":"mt.mineraltenement.4280","geometry":{"type":"Polygon","coordinates":[[[133.233287,-22.61100201],[133.233141,-22.62238001],[133.245841,-22.62252001],[133.245985,-22.61114101],[133.233287,-22.61100201]]]},"properties":{"@featureType":"MineralTenement","identifier":"http://geology.data.nt.gov.au/resource/feature/ntgs/mineraltenement/4280","name":"ML33107","tenementType":"Mineral Lease (ML)","commodity":"urn:ogc:def:nil:OGC::missing","owner":"Applicant - ARAFURA NOLANS PROJECT PTY LTD (100%),\nAgent - AUSTRALIAN MINING & EXPLORATION TITLE SERVICES PTY LTD ","status":"Revised Application","area":"165 Hectares","applicationDate":"2022-03-31T14:30:00Z","fileID":"ML33107","tenementType_uri":"http://resource.geoscience.gov.au/classifier/ggic/tenementtype/mineral-lease","status_uri":"http://resource.geoscience.gov.au/classifier/ggic/tenement-status/revised-application","jurisdiction_uri":"https://nt.gov.au/industry/mining-and-petroleum","fmt_tenid":"ML33107","type":"MINING LEASE","tenstatus":"LIVE","holder1":"ARAFURA NOLANS PROJECT PTY LTD (100%),","_colour":"#f5a520","_label":"Mining Lease"}},{"type":"Feature","id":"mt.mineraltenement.4296","geometry":{"type":"Polygon","coordinates":[[[133.245697,-22.64759901],[133.245766,-22.65317901],[133.251996,-22.65330401],[133.25185,-22.64779401],[133.245697,-22.64759901]]]},"properties":{"@featureType":"MineralTenement","identifier":"http://geology.data.nt.gov.au/resource/feature/ntgs/mineraltenement/4296","name":"ML32722","tenementType":"Mineral Lease (ML)","commodity":"urn:ogc:def:nil:OGC::missing","owner":"Applicant - ARAFURA NOLANS PROJECT PTY LTD (100%),\nAgent - AUSTRALIAN MINING & EXPLORATION TITLE SERVICES PTY LTD ","status":"Revised Application","area":"40 Hectares","applicationDate":"2022-09-18T14:30:00Z","fileID":"ML32722","tenementType_uri":"http://resource.geoscience.gov.au/classifier/ggic/tenementtype/mineral-lease","status_uri":"http://resource.geoscience.gov.au/classifier/ggic/tenement-status/revised-application","jurisdiction_uri":"https://nt.gov.au/industry/mining-and-petroleum","fmt_tenid":"ML32722","type":"MINING LEASE","tenstatus":"LIVE","holder1":"ARAFURA NOLANS PROJECT PTY LTD (100%),","_colour":"#f5a520","_label":"Mining Lease"}}]}