{"type":"FeatureCollection","_source":"Multi-state Australian tenement registry","_holders":["BHP Olympic Dam Corporation Pty Ltd"],"_ticker":"BHP_SA","features":[{"type":"Feature","id":"olympic_dam_sml.fid--761f8abd_19d1b365924_330d","geometry":{"type":"Polygon","coordinates":[[[136.855154,-30.49852303],[136.84468,-30.49852803],[136.843013,-30.49852803],[136.801345,-30.49852303],[136.801343,-30.38185603],[136.822177,-30.38185603],[136.84301,-30.38185603],[136.863843,-30.38185603],[136.884677,-30.38185603],[136.90551,-30.38185603],[136.925731,-30.38185603],[136.95134,-30.38185603],[136.951342,-30.49852303],[136.924541,-30.49852303],[136.897871,-30.49852603],[136.89787,-30.48076803],[136.896328,-30.47699503],[136.896119,-30.47648503],[136.895227,-30.47430103],[136.888322,-30.47641903],[136.887916,-30.47654303],[136.885235,-30.47736503],[136.852446,-30.48741103],[136.853699,-30.49257203],[136.855154,-30.49852303]]]},"geometry_name":"WKB_GEOMETRY","properties":{"TENEMENT_TYPE":"SML","TENEMENT_NUMBER":1,"TENEMENT_LABEL":"SML 1","TENEMENT_STATUS":"Active","TENEMENT_HOLDERS":"BHP Olympic Dam Corporation Pty Ltd","TENEMENT_OPERATORS":"BHP Olympic Dam Corporation Pty Ltd","LEGAL_AREA":17788.11,"AREA_UNIT":"Hectares","LOCATION":"","REGISTRATION_GRANT_DATE":"1986-05-09T02:30:00Z","SURRENDER_DATE":null,"EXPIRY_DATE":"2036-05-08T02:30:00Z","RENEWAL_RECEIVED_DATE":null,"TRANSFER_RECEIVED_DATE":null,"SURRENDER_RECEIVED_DATE":null,"COMMODITY_CATEGORIES":"Metallic","COMMODITIES":"Copper, Dolomite, Gold, Limestone, Sand, Silver, Uranium Oxide","COURT_ACTION_PENDING":"","MPL_PURPOSE":"","OPERATION_NAME":"Olympic Dam Mine","OPERATION_STATUS":"Active","OPERATION_METHOD":"Underground","OBJECTID":1,"NAME":null,"TIME_SLICE":null,"SHAPE_LENG":null,"SHAPE_LENGTH":0.5715362901029147,"SHAPE_AREA":0.01670356719074903,"fmt_tenid":"SML 1","type":"SPECIAL MINING LEASE","tenstatus":"LIVE","holder1":"BHP Olympic Dam Corporation Pty Ltd","_colour":"#e05c00","_label":"Special Mining Lease"}}]}