{"type":"FeatureCollection","_source":"WA DMIRS via SLIP public API","_holders":["CAPRICORN OROGEN PTY LTD"],"_ticker":"CMM.AX","features":[{"type":"Feature","geometry":{"type":"Polygon","coordinates":[[[116.4499999999072,-24.300000000151663],[116.45000000011954,-24.31666666734347],[116.4666666668489,-24.31666666698166],[116.46666666745253,-24.299999999877333],[116.4499999999072,-24.300000000151663]]]},"properties":{"fmt_tenid":"E 09/1676","type":"EXPLORATION LICENCE","tenstatus":"LIVE","holder1":"CAPRICORN OROGEN PTY LTD","holder2":" ","legal_area":1,"unit_of_me":"BL.","_colour":"#a0c4f0","_label":"Exploration Licence"}},{"type":"Feature","geometry":{"type":"Polygon","coordinates":[[[115.45000000037749,-24.166666666717223],[115.4333333328944,-24.16666666726608],[115.41666666692346,-24.16666666715637],[115.40000000036326,-24.16666666727086],[115.40000000042065,-24.18333333280511],[115.38333333332963,-24.183333333045383],[115.383333333101,-24.166666667194896],[115.36666666700981,-24.166666666738642],[115.34999999957088,-24.166666666511013],[115.35000000030091,-24.183333333070273],[115.36666666725317,-24.183333333240647],[115.36666666665397,-24.20000000048288],[115.38333333258386,-24.19999999974443],[115.39999999981084,-24.19999999991996],[115.41666666656128,-24.19999999959048],[115.43333333286512,-24.200000000076553],[115.4499999997941,-24.200000000471825],[115.46666666742036,-24.1999999999313],[115.46666666652713,-24.183333333460208],[115.44999999951237,-24.183333332588507],[115.45000000037749,-24.166666666717223]]]},"properties":{"fmt_tenid":"E 09/2236","type":"EXPLORATION LICENCE","tenstatus":"LIVE","holder1":"CAPRICORN OROGEN PTY LTD","holder2":" ","legal_area":11,"unit_of_me":"BL.","_colour":"#a0c4f0","_label":"Exploration Licence"}},{"type":"Feature","geometry":{"type":"MultiPolygon","coordinates":[[[[115.95000000048333,-24.200000000203886],[115.93333333305198,-24.199999999520582],[115.93333333265146,-24.21666666725584],[115.93333333314993,-24.233333332640942],[115.93333333325647,-24.24999999955413],[115.9499999998499,-24.249999999801336],[115.9500000000666,-24.26666666650039],[115.96666666693861,-24.26666666747863],[115.98333333335682,-24.266666667102708],[115.98333333287098,-24.24999999957537],[115.98333333289142,-24.233333333407902],[115.96666666682965,-24.233333333496763],[115.96666666691118,-24.216666666701332],[115.94999999978926,-24.216666667045125],[115.95000000048333,-24.200000000203886]]],[[[115.99999999989666,-24.199999999649283],[116.00000000036391,-24.183333332569486],[115.98333333295886,-24.18333333328659],[115.9666666673181,-24.18333333311993],[115.96666666655624,-24.199999999961676],[115.9833333331357,-24.200000000100736],[115.98333333304126,-24.216666666717995],[116.00000000034372,-24.216666667380785],[115.99999999989666,-24.199999999649283]]]]},"properties":{"fmt_tenid":"E 09/2239","type":"EXPLORATION LICENCE","tenstatus":"LIVE","holder1":"CAPRICORN OROGEN PTY LTD","holder2":" ","legal_area":11,"unit_of_me":"BL.","_colour":"#a0c4f0","_label":"Exploration Licence"}},{"type":"Feature","geometry":{"type":"MultiPolygon","coordinates":[[[[116.016666667455,-24.266666666519342],[116.01666666694359,-24.249999999751513],[116.0000000000927,-24.249999999564817],[115.98333333287098,-24.24999999957537],[115.98333333335682,-24.266666667102708],[115.96666666693861,-24.26666666747863],[115.9500000000666,-24.26666666650039],[115.9499999998499,-24.249999999801336],[115.93333333325647,-24.24999999955413],[115.9166666674839,-24.249999999720526],[115.91666666672317,-24.266666666631977],[115.91666666741979,-24.28333333327646],[115.9166666665978,-24.300000000273663],[115.93333333330189,-24.29999999950117],[115.93333333273361,-24.31666666732112],[115.94999999961473,-24.31666666675095],[115.96666666747282,-24.316666667443883],[115.96666666701525,-24.29999999983745],[115.98333333292818,-24.300000000273002],[116.00000000034603,-24.299999999720235],[116.00000000001194,-24.31666666654561],[116.01666666664964,-24.31666666705831],[116.01666666707898,-24.30000000044684],[116.01666666699711,-24.28333333299038],[116.016666667455,-24.266666666519342]]],[[[116.01666666690316,-24.15000000001118],[115.99999999955165,-24.150000000469365],[116.00000000037228,-24.16666666694081],[115.98333333293697,-24.1666666671112],[115.98333333295886,-24.18333333328659],[116.00000000036391,-24.183333332569486],[115.99999999989666,-24.199999999649283],[116.00000000034372,-24.216666667380785],[116.01666666662231,-24.21666666699118],[116.01666666706754,-24.23333333259279],[116.03333333314782,-24.23333333270456],[116.05000000009173,-24.233333332569433],[116.0499999995611,-24.216666666641927],[116.05000000037852,-24.200000000242476],[116.05000000004846,-24.18333333256353],[116.06666666694889,-24.18333333337123],[116.06666666676246,-24.16666666707627],[116.06666666672349,-24.15000000047682],[116.04999999976141,-24.149999999873067],[116.03333333285543,-24.150000000489463],[116.01666666690316,-24.15000000001118]]],[[[115.93333333305198,-24.199999999520582],[115.93333333322728,-24.183333333202242],[115.93333333331341,-24.1666666665573],[115.91666666684468,-24.166666666855804],[115.90000000026507,-24.166666666578372],[115.88333333286226,-24.166666667169487],[115.88333333291936,-24.183333333111033],[115.89999999965596,-24.183333332512923],[115.90000000049834,-24.200000000086593],[115.91666666701508,-24.199999999589064],[115.9166666674299,-24.216666667169033],[115.93333333265146,-24.21666666725584],[115.93333333305198,-24.199999999520582]]]]},"properties":{"fmt_tenid":"E 09/2308","type":"EXPLORATION LICENCE","tenstatus":"LIVE","holder1":"CAPRICORN OROGEN PTY LTD","holder2":" ","legal_area":42,"unit_of_me":"BL.","_colour":"#a0c4f0","_label":"Exploration Licence"}},{"type":"Feature","geometry":{"type":"Polygon","coordinates":[[[115.45000000040147,-24.08333333325111],[115.43333333347312,-24.083333333266012],[115.41666666713576,-24.083333332655677],[115.41666666666868,-24.100000000384366],[115.41666666674013,-24.11666666738746],[115.41666666743973,-24.13333333337025],[115.39999999981815,-24.13333333334256],[115.38333333284926,-24.133333333453585],[115.36666666689821,-24.133333333138275],[115.35000000005532,-24.133333332693823],[115.33333333315073,-24.133333333232688],[115.3333333329984,-24.149999999673778],[115.31666666741886,-24.149999999977393],[115.30000000045625,-24.15000000049248],[115.30000000022804,-24.166666667352537],[115.31666666677563,-24.166666667362406],[115.31666666703714,-24.183333333436725],[115.33333333309074,-24.183333333462407],[115.35000000030091,-24.183333333070273],[115.34999999957088,-24.166666666511013],[115.36666666700981,-24.166666666738642],[115.383333333101,-24.166666667194896],[115.40000000036326,-24.16666666727086],[115.41666666692346,-24.16666666715637],[115.4333333328944,-24.16666666726608],[115.45000000037749,-24.166666666717223],[115.44999999951237,-24.183333332588507],[115.46666666652713,-24.183333333460208],[115.46666666742036,-24.1999999999313],[115.4499999997941,-24.200000000471825],[115.43333333286512,-24.200000000076553],[115.43333333333497,-24.216666666985443],[115.43333333344464,-24.233333333493206],[115.41666666670629,-24.233333332657473],[115.40000000000381,-24.233333332944504],[115.38333333343961,-24.233333333260354],[115.3666666668404,-24.233333333343147],[115.3666666665948,-24.249999999886295],[115.38333333310683,-24.249999999872696],[115.40000000048606,-24.250000000062823],[115.41666666694506,-24.25000000014014],[115.43333333260614,-24.24999999992068],[115.44999999964512,-24.250000000187672],[115.45000000029596,-24.23333333250107],[115.45000000000475,-24.216666666789706],[115.4666666671754,-24.216666667076645],[115.48333333346056,-24.216666666609118],[115.48333333310566,-24.23333333345709],[115.49999999952718,-24.233333332862422],[115.49999999994478,-24.216666667039863],[115.50000000004681,-24.200000000198113],[115.483333332743,-24.199999999719896],[115.48333333341125,-24.18333333318957],[115.48333333271127,-24.166666667091462],[115.48333333346388,-24.149999999616558],[115.4833333330981,-24.133333332806984],[115.46666666652051,-24.133333333498523],[115.44999999972501,-24.133333333496992],[115.44999999985063,-24.116666667293863],[115.45000000027271,-24.100000000044187],[115.45000000040147,-24.08333333325111]]]},"properties":{"fmt_tenid":"E 09/2309","type":"EXPLORATION LICENCE","tenstatus":"LIVE","holder1":"CAPRICORN OROGEN PTY LTD","holder2":" ","legal_area":42,"unit_of_me":"BL.","_colour":"#a0c4f0","_label":"Exploration Licence"}},{"type":"Feature","geometry":{"type":"Polygon","coordinates":[[[115.55000000000896,-24.166666667150665],[115.53333333289646,-24.166666667360925],[115.51666666683073,-24.166666666818006],[115.51666666687814,-24.183333332651745],[115.51666666673738,-24.199999999641957],[115.50000000004681,-24.200000000198113],[115.49999999994478,-24.216666667039863],[115.49999999952718,-24.233333332862422],[115.51666666730387,-24.233333332606648],[115.53333333266407,-24.233333333431933],[115.55000000034013,-24.233333333287703],[115.5499999997856,-24.249999999997936],[115.56666666696327,-24.249999999587963],[115.58333333290284,-24.249999999629804],[115.59999999956418,-24.25000000014922],[115.6166666674994,-24.249999999731337],[115.63333333303709,-24.250000000165336],[115.63333333344514,-24.26666666675169],[115.64999999955434,-24.266666667158102],[115.66666666740284,-24.266666667405424],[115.68333333313056,-24.266666666522333],[115.68333333276442,-24.283333332915607],[115.70000000040216,-24.28333333275179],[115.7000000000612,-24.299999999760338],[115.71666666717358,-24.30000000033474],[115.73333333284846,-24.30000000021],[115.73333333332646,-24.31666666710015],[115.75000000020506,-24.316666667316788],[115.75000000010486,-24.299999999875176],[115.74999999970542,-24.283333332710654],[115.75000000014114,-24.266666666574217],[115.73333333290654,-24.26666666660618],[115.71666666726004,-24.266666666767097],[115.71666666657958,-24.250000000187004],[115.71666666735945,-24.233333332845106],[115.69999999994245,-24.23333333280617],[115.70000000049241,-24.21666666712184],[115.68333333277454,-24.216666666977712],[115.66666666724515,-24.216666666624125],[115.6666666666807,-24.23333333346291],[115.64999999988298,-24.23333333264763],[115.6333333333853,-24.233333332994754],[115.63333333302072,-24.216666667099233],[115.61666666690739,-24.21666666706107],[115.61666666726056,-24.2333333331833],[115.59999999969037,-24.233333332793826],[115.58333333281233,-24.233333333448204],[115.58333333309723,-24.21666666731404],[115.60000000005691,-24.216666666522453],[115.6000000000436,-24.200000000122515],[115.5833333328507,-24.200000000437143],[115.5666666673264,-24.199999999580786],[115.56666666734684,-24.183333332836984],[115.54999999957964,-24.183333332696073],[115.55000000000896,-24.166666667150665]]]},"properties":{"fmt_tenid":"E 09/2310","type":"EXPLORATION LICENCE","tenstatus":"LIVE","holder1":"CAPRICORN OROGEN PTY LTD","holder2":" ","legal_area":42,"unit_of_me":"BL.","_colour":"#a0c4f0","_label":"Exploration Licence"}},{"type":"Feature","geometry":{"type":"Polygon","coordinates":[[[115.78333333278457,-24.316666667454943],[115.78333333264771,-24.300000000384195],[115.78333333296509,-24.283333333040822],[115.766666666584,-24.283333333378355],[115.74999999970542,-24.283333332710654],[115.75000000010486,-24.299999999875176],[115.75000000020506,-24.316666667316788],[115.74999999980182,-24.333333332850977],[115.76666666717841,-24.33333333322983],[115.76666666719979,-24.350000000399405],[115.7833333331219,-24.350000000001046],[115.80000000049598,-24.350000000076623],[115.81666666687593,-24.350000000456294],[115.83333333268853,-24.34999999972655],[115.84999999998496,-24.350000000283572],[115.8666666671177,-24.349999999611235],[115.8833333330281,-24.350000000130677],[115.88333333263138,-24.333333332742942],[115.90000000006746,-24.333333333096785],[115.89999999988743,-24.350000000018238],[115.91666666670405,-24.349999999806144],[115.93333333275507,-24.3499999998078],[115.93333333250912,-24.333333333223443],[115.93333333273361,-24.31666666732112],[115.93333333330189,-24.29999999950117],[115.9166666665978,-24.300000000273663],[115.91666666741979,-24.28333333327646],[115.89999999956622,-24.283333332806695],[115.88333333260434,-24.283333332903304],[115.8666666670794,-24.28333333337434],[115.84999999972646,-24.283333332883217],[115.850000000221,-24.29999999974631],[115.83333333319132,-24.300000000005532],[115.8333333333523,-24.31666666705737],[115.81666666687221,-24.316666666563826],[115.79999999979181,-24.316666667120053],[115.78333333278457,-24.316666667454943]]]},"properties":{"fmt_tenid":"E 09/2311","type":"EXPLORATION LICENCE","tenstatus":"LIVE","holder1":"CAPRICORN OROGEN PTY LTD","holder2":" ","legal_area":34,"unit_of_me":"BL.","_colour":"#a0c4f0","_label":"Exploration Licence"}},{"type":"Feature","geometry":{"type":"Polygon","coordinates":[[[115.366666666604,-24.08333333258206],[115.36666666690644,-24.066666667457],[115.36666666667479,-24.050000000185246],[115.36666666693961,-24.033333332775953],[115.36666666749939,-24.016666666926078],[115.35000000005668,-24.0166666667173],[115.33333333294897,-24.016666667432002],[115.33333333315275,-24.03333333268588],[115.33333333257714,-24.049999999778674],[115.33333333302777,-24.06666666670528],[115.33333333335709,-24.083333332685523],[115.33333333349006,-24.10000000001471],[115.33333333346971,-24.116666667099185],[115.33333333315073,-24.133333333232688],[115.35000000005532,-24.133333332693823],[115.36666666689821,-24.133333333138275],[115.38333333284926,-24.133333333453585],[115.39999999981815,-24.13333333334256],[115.41666666743973,-24.13333333337025],[115.41666666674013,-24.11666666738746],[115.41666666666868,-24.100000000384366],[115.39999999984555,-24.099999999826796],[115.38333333313496,-24.099999999987805],[115.36666666652691,-24.09999999951692],[115.366666666604,-24.08333333258206]]]},"properties":{"fmt_tenid":"E 09/2323","type":"EXPLORATION LICENCE","tenstatus":"LIVE","holder1":"CAPRICORN OROGEN PTY LTD","holder2":" ","legal_area":20,"unit_of_me":"BL.","_colour":"#a0c4f0","_label":"Exploration Licence"}},{"type":"Feature","geometry":{"type":"MultiPolygon","coordinates":[[[[115.45000000040147,-24.08333333325111],[115.46666666708121,-24.083333333265443],[115.46666666661936,-24.066666667327922],[115.46666666675763,-24.049999999525877],[115.46666666689563,-24.033333333091747],[115.45000000008874,-24.0333333329166],[115.43333333254014,-24.033333333448407],[115.4166666669918,-24.033333333485107],[115.41666666684206,-24.016666666511128],[115.39999999967856,-24.016666667351938],[115.38333333251015,-24.01666666695202],[115.36666666749939,-24.016666666926078],[115.36666666693961,-24.033333332775953],[115.36666666667479,-24.050000000185246],[115.36666666690644,-24.066666667457],[115.366666666604,-24.08333333258206],[115.36666666652691,-24.09999999951692],[115.38333333313496,-24.099999999987805],[115.39999999984555,-24.099999999826796],[115.41666666666868,-24.100000000384366],[115.41666666713576,-24.083333332655677],[115.43333333347312,-24.083333333266012],[115.45000000040147,-24.08333333325111]]],[[[115.51666666673738,-24.199999999641957],[115.51666666687814,-24.183333332651745],[115.51666666683073,-24.166666666818006],[115.5166666669581,-24.15000000041471],[115.5000000003564,-24.15000000024939],[115.49999999991095,-24.133333333143085],[115.4833333330981,-24.133333332806984],[115.48333333346388,-24.149999999616558],[115.48333333271127,-24.166666667091462],[115.48333333341125,-24.18333333318957],[115.483333332743,-24.199999999719896],[115.50000000004681,-24.200000000198113],[115.51666666673738,-24.199999999641957]]]]},"properties":{"fmt_tenid":"E 09/2324","type":"EXPLORATION LICENCE","tenstatus":"LIVE","holder1":"CAPRICORN OROGEN PTY LTD","holder2":" ","legal_area":31,"unit_of_me":"BL.","_colour":"#a0c4f0","_label":"Exploration Licence"}},{"type":"Feature","geometry":{"type":"Polygon","coordinates":[[[115.3666666668404,-24.233333333343147],[115.35000000008903,-24.23333333323923],[115.35000000014875,-24.249999999541362],[115.3499999997394,-24.266666667255297],[115.36666666681738,-24.266666667299567],[115.36666666687911,-24.283333332623002],[115.38333333269914,-24.28333333295086],[115.39999999995908,-24.283333332789347],[115.41666666724319,-24.28333333343248],[115.43333333259031,-24.283333332852187],[115.43333333348181,-24.26666666714721],[115.44999999983598,-24.266666666829916],[115.44999999964512,-24.250000000187672],[115.43333333260614,-24.24999999992068],[115.41666666694506,-24.25000000014014],[115.40000000048606,-24.250000000062823],[115.38333333310683,-24.249999999872696],[115.3666666665948,-24.249999999886295],[115.3666666668404,-24.233333333343147]]]},"properties":{"fmt_tenid":"E 09/2325","type":"EXPLORATION LICENCE","tenstatus":"LIVE","holder1":"CAPRICORN OROGEN PTY LTD","holder2":" ","legal_area":11,"unit_of_me":"BL.","_colour":"#a0c4f0","_label":"Exploration Licence"}},{"type":"Feature","geometry":{"type":"Polygon","coordinates":[[[116.0333333329763,-24.316666667031658],[116.04999999973946,-24.3166666671424],[116.05000000014464,-24.299999999652638],[116.05000000035943,-24.28333333299625],[116.04999999984253,-24.266666667479097],[116.04999999961055,-24.24999999969915],[116.05000000009173,-24.233333332569433],[116.03333333314782,-24.23333333270456],[116.01666666706754,-24.23333333259279],[116.01666666694359,-24.249999999751513],[116.016666667455,-24.266666666519342],[116.01666666699711,-24.28333333299038],[116.01666666707898,-24.30000000044684],[116.01666666664964,-24.31666666705831],[116.0333333329763,-24.316666667031658]]]},"properties":{"fmt_tenid":"E 09/2367","type":"EXPLORATION LICENCE","tenstatus":"LIVE","holder1":"CAPRICORN OROGEN PTY LTD","holder2":" ","legal_area":10,"unit_of_me":"BL.","_colour":"#a0c4f0","_label":"Exploration Licence"}},{"type":"Feature","geometry":{"type":"Polygon","coordinates":[[[116.05000000014502,-24.333333333423266],[116.06666666669113,-24.3333333325899],[116.08333333310361,-24.3333333330264],[116.08333333338065,-24.316666666597133],[116.08333333334183,-24.29999999973568],[116.08333333270453,-24.283333332675944],[116.08333333303958,-24.26666666725718],[116.08333333274943,-24.249999999550457],[116.08333333263872,-24.23333333268072],[116.0666666665846,-24.233333333089842],[116.05000000009173,-24.233333332569433],[116.04999999961055,-24.24999999969915],[116.04999999984253,-24.266666667479097],[116.05000000035943,-24.28333333299625],[116.05000000014464,-24.299999999652638],[116.04999999973946,-24.3166666671424],[116.0333333329763,-24.316666667031658],[116.03333333331862,-24.333333332734433],[116.05000000014502,-24.333333333423266]]]},"properties":{"fmt_tenid":"E 09/2475","type":"EXPLORATION LICENCE","tenstatus":"LIVE","holder1":"CAPRICORN OROGEN PTY LTD","holder2":" ","legal_area":13,"unit_of_me":"BL.","_colour":"#a0c4f0","_label":"Exploration Licence"}},{"type":"Feature","geometry":{"type":"MultiPolygon","coordinates":[[[[116.44999999998188,-24.333333333122624],[116.43333333341654,-24.333333333165683],[116.41666666659906,-24.33333333309262],[116.39999999959906,-24.333333333226978],[116.38333333279641,-24.333333332594435],[116.36666666653241,-24.333333333176455],[116.36666666689192,-24.349999999582113],[116.36666666682599,-24.366666667495792],[116.36666666679714,-24.383333333446778],[116.36666666742666,-24.400000000071568],[116.36666666743142,-24.41666666678062],[116.36666666659868,-24.433333332727337],[116.36666666654061,-24.45000000040251],[116.36666666671108,-24.46666666740575],[116.36666666708342,-24.483333333116647],[116.38333333275239,-24.483333333362506],[116.40000000038198,-24.48333333325195],[116.4166666666794,-24.48333333256066],[116.43333333302321,-24.48333333328317],[116.43333333271984,-24.49999999953731],[116.44999999961068,-24.500000000326757],[116.46666666694473,-24.500000000193822],[116.46666666728106,-24.48333333284638],[116.46666666802525,-24.478655180208644],[116.46666666778708,-24.476443900819284],[116.46666666710637,-24.466666667106857],[116.46666666686892,-24.450000000319797],[116.46666666719331,-24.433333333422375],[116.46666666733505,-24.416666666581104],[116.46666666736127,-24.40000000046831],[116.46666666736722,-24.383333332861877],[116.46666666728757,-24.366666667033993],[116.46666666679589,-24.350000000123348],[116.44999999954949,-24.350000000369146],[116.44999999998188,-24.333333333122624]]],[[[116.11666666731396,-24.300000000208247],[116.11666666669387,-24.283333332847135],[116.11666666693405,-24.266666667218274],[116.11666666687103,-24.249999999751356],[116.11666666690351,-24.23333333315367],[116.09999999960317,-24.233333332859175],[116.08333333263872,-24.23333333268072],[116.08333333274943,-24.249999999550457],[116.08333333303958,-24.26666666725718],[116.08333333270453,-24.283333332675944],[116.08333333334183,-24.29999999973568],[116.08333333338065,-24.316666666597133],[116.08333333310361,-24.3333333330264],[116.10000000043529,-24.333333332656938],[116.11666666664635,-24.333333333483246],[116.11666666675168,-24.349999999888936],[116.11666666678097,-24.366666666957297],[116.11666666669201,-24.383333333076934],[116.1333333329341,-24.38333333320734],[116.15000000022228,-24.383333332978868],[116.16666666664733,-24.38333333274624],[116.16666666652327,-24.40000000007086],[116.18333333336332,-24.39999999998642],[116.18333333333877,-24.383333333018662],[116.18333333290687,-24.36666666664283],[116.16666666720052,-24.36666666721928],[116.14999999954166,-24.36666666740945],[116.13333333299332,-24.366666667492204],[116.13333333294385,-24.35000000045154],[116.13333333260445,-24.333333332528753],[116.13333333279716,-24.31666666735498],[116.11666666729052,-24.31666666656065],[116.11666666731396,-24.300000000208247]]]]},"properties":{"fmt_tenid":"E 09/2518","type":"EXPLORATION LICENCE","tenstatus":"LIVE","holder1":"CAPRICORN OROGEN PTY LTD","holder2":" ","legal_area":75,"unit_of_me":"BL.","_colour":"#a0c4f0","_label":"Exploration Licence"}},{"type":"Feature","geometry":{"type":"Polygon","coordinates":[[[115.24999999973849,-23.99999999982105],[115.26666666675685,-23.999999999978307],[115.28333333283075,-24.00000000006916],[115.29999999953228,-24.00000000010499],[115.3166666671484,-24.00000000048983],[115.33333333341751,-23.99999999991394],[115.34999999958912,-24.000000000308525],[115.3666666674464,-23.99999999958416],[115.36666666706073,-23.983333333020084],[115.3666666668223,-23.96666666697501],[115.36666666669484,-23.950000000468656],[115.36666666683347,-23.933333333265427],[115.3666666670692,-23.91666666653386],[115.36666666700432,-23.899999999647157],[115.36666666724021,-23.883333332554493],[115.36666666695066,-23.866666667203734],[115.3499999999242,-23.86666666714135],[115.3333333327337,-23.86666666738821],[115.31666666691639,-23.86666666674646],[115.29999999978558,-23.866666667090712],[115.28333333311703,-23.866666667006083],[115.26666666706893,-23.8666666666686],[115.25000000036897,-23.866666667476604],[115.23333333275177,-23.866666666630763],[115.23333333288416,-23.88333333342105],[115.2333333332814,-23.900000000352122],[115.23333333326282,-23.916666666655917],[115.23333333322937,-23.933333332843258],[115.23333333296324,-23.949999999712826],[115.23333333274294,-23.96666666669357],[115.23333333290826,-23.983333333452947],[115.23333333293508,-23.99999999956383],[115.24999999973849,-23.99999999982105]]]},"properties":{"fmt_tenid":"E 09/2519","type":"EXPLORATION LICENCE","tenstatus":"LIVE","holder1":"CAPRICORN OROGEN PTY LTD","holder2":" ","legal_area":64,"unit_of_me":"BL.","_colour":"#a0c4f0","_label":"Exploration Licence"}}]}