{"type":"FeatureCollection","_source":"Multi-state Australian tenement registry","_holders":["BYNOE LITHIUM PTY LTD (100%),"],"_ticker":"CXO.AX","features":[{"type":"Feature","id":"mt.mineraltenement.2233","geometry":{"type":"Polygon","coordinates":[[[130.726183,-12.812196],[130.721578,-12.812226],[130.721627,-12.819457],[130.726232,-12.819427],[130.726183,-12.812196]]]},"properties":{"@featureType":"MineralTenement","identifier":"http://geology.data.nt.gov.au/resource/feature/ntgs/mineraltenement/2233","name":"ML29985","tenementType":"Mineral Lease (ML)","commodity":"urn:ogc:def:nil:OGC::missing","owner":"Holder - BYNOE LITHIUM PTY LTD (100%),\nAgent - AUSTRALIAN MINING & EXPLORATION TITLE SERVICES PTY LTD ","status":"Grant","area":"40 Hectares","applicationDate":"2019-08-04T14:30:00Z","fileID":"ML29985","tenementType_uri":"http://resource.geoscience.gov.au/classifier/ggic/tenementtype/mineral-lease","status_uri":"http://resource.geoscience.gov.au/classifier/ggic/petroleum_tenement_status/granted","jurisdiction_uri":"https://nt.gov.au/industry/mining-and-petroleum","fmt_tenid":"ML29985","type":"MINING LEASE","tenstatus":"LIVE","holder1":"BYNOE LITHIUM PTY LTD (100%),","_colour":"#f5a520","_label":"Mining Lease"}},{"type":"Feature","id":"mt.mineraltenement.2401","geometry":{"type":"Polygon","coordinates":[[[130.714958,-12.78739],[130.714882,-12.805926],[130.725548,-12.805897],[130.725641,-12.78736],[130.714958,-12.78739]]]},"properties":{"@featureType":"MineralTenement","identifier":"http://geology.data.nt.gov.au/resource/feature/ntgs/mineraltenement/2401","name":"MLN1148","tenementType":"Mineral Lease (Northern) (MLN)","commodity":"urn:ogc:def:nil:OGC::missing","owner":"Holder - BYNOE LITHIUM PTY LTD (100%),\nAgent - AUSTRALIAN MINING & EXPLORATION TITLE SERVICES PTY LTD ","status":"Grant","area":"237.7 Hectares","applicationDate":"2013-06-20T14:30:00Z","fileID":"MLN1148","tenementType_uri":"http://resource.geoscience.gov.au/classifier/ggic/tenementtype/mineral-lease","status_uri":"http://resource.geoscience.gov.au/classifier/ggic/petroleum_tenement_status/granted","jurisdiction_uri":"https://nt.gov.au/industry/mining-and-petroleum","fmt_tenid":"MLN1148","type":"MINING LEASE","tenstatus":"LIVE","holder1":"BYNOE LITHIUM PTY LTD (100%),","_colour":"#f5a520","_label":"Mining Lease"}},{"type":"Feature","id":"mt.mineraltenement.3409","geometry":{"type":"Polygon","coordinates":[[[130.775343,-12.811034],[130.775394,-12.818265],[130.784607,-12.818226],[130.784556,-12.810995],[130.775343,-12.811034]]]},"properties":{"@featureType":"MineralTenement","identifier":"http://geology.data.nt.gov.au/resource/feature/ntgs/mineraltenement/3409","name":"ML31654","tenementType":"Mineral Lease (ML)","commodity":"urn:ogc:def:nil:OGC::missing","owner":"Holder - BYNOE LITHIUM PTY LTD (100%),\nAgent - AUSTRALIAN MINING & EXPLORATION TITLE SERVICES PTY LTD ","status":"Renew Retained","area":"80 Hectares","applicationDate":"2022-07-16T14:30:00Z","fileID":"ML31654","tenementType_uri":"http://resource.geoscience.gov.au/classifier/ggic/tenementtype/mineral-lease","status_uri":"http://resource.geoscience.gov.au/classifier/ggic/tenement-status/renew-retained","jurisdiction_uri":"https://nt.gov.au/industry/mining-and-petroleum","fmt_tenid":"ML31654","type":"MINING LEASE","tenstatus":"LIVE","holder1":"BYNOE LITHIUM PTY LTD (100%),","_colour":"#f5a520","_label":"Mining Lease"}},{"type":"Feature","id":"mt.mineraltenement.3811","geometry":{"type":"Polygon","coordinates":[[[130.567426,-13.117382],[130.567371,-13.108343],[130.559993,-13.108388],[130.560048,-13.117427],[130.567426,-13.117382]]]},"properties":{"@featureType":"MineralTenement","identifier":"http://geology.data.nt.gov.au/resource/feature/ntgs/mineraltenement/3811","name":"ML29914","tenementType":"Mineral Lease (ML)","commodity":"urn:ogc:def:nil:OGC::missing","owner":"Holder - BYNOE LITHIUM PTY LTD (100%),\nAgent - AUSTRALIAN MINING & EXPLORATION TITLE SERVICES PTY LTD ","status":"Renew Retained","area":"80 Hectares","applicationDate":"2019-04-21T14:30:00Z","fileID":"ML29914","tenementType_uri":"http://resource.geoscience.gov.au/classifier/ggic/tenementtype/mineral-lease","status_uri":"http://resource.geoscience.gov.au/classifier/ggic/tenement-status/renew-retained","jurisdiction_uri":"https://nt.gov.au/industry/mining-and-petroleum","fmt_tenid":"ML29914","type":"MINING LEASE","tenstatus":"LIVE","holder1":"BYNOE LITHIUM PTY LTD (100%),","_colour":"#f5a520","_label":"Mining Lease"}},{"type":"Feature","id":"mt.mineraltenement.3984","geometry":{"type":"Polygon","coordinates":[[[130.75552,-12.859926],[130.750918,-12.860114],[130.751072,-12.863727],[130.755674,-12.863538],[130.75552,-12.859926]]]},"properties":{"@featureType":"MineralTenement","identifier":"http://geology.data.nt.gov.au/resource/feature/ntgs/mineraltenement/3984","name":"ML29912","tenementType":"Mineral Lease (ML)","commodity":"urn:ogc:def:nil:OGC::missing","owner":"Holder - BYNOE LITHIUM PTY LTD (100%),\nAgent - AUSTRALIAN MINING & EXPLORATION TITLE SERVICES PTY LTD ","status":"Renew Retained","area":"20 Hectares","applicationDate":"2018-04-21T14:30:00Z","fileID":"ML29912","tenementType_uri":"http://resource.geoscience.gov.au/classifier/ggic/tenementtype/mineral-lease","status_uri":"http://resource.geoscience.gov.au/classifier/ggic/tenement-status/renew-retained","jurisdiction_uri":"https://nt.gov.au/industry/mining-and-petroleum","fmt_tenid":"ML29912","type":"MINING LEASE","tenstatus":"LIVE","holder1":"BYNOE LITHIUM PTY LTD (100%),","_colour":"#f5a520","_label":"Mining Lease"}},{"type":"Feature","id":"mt.mineraltenement.4109","geometry":{"type":"Polygon","coordinates":[[[130.761479,-12.850835],[130.759023,-12.852388],[130.760493,-12.854529],[130.762951,-12.852985],[130.761479,-12.850835]]]},"properties":{"@featureType":"MineralTenement","identifier":"http://geology.data.nt.gov.au/resource/feature/ntgs/mineraltenement/4109","name":"MLN813","tenementType":"Mineral Lease (Northern) (MLN)","commodity":"urn:ogc:def:nil:OGC::missing","owner":"Holder - BYNOE LITHIUM PTY LTD (100%),\nAgent - AUSTRALIAN MINING & EXPLORATION TITLE SERVICES PTY LTD ","status":"Renew Retained","area":"7.28 Hectares","applicationDate":"2022-12-31T14:30:00Z","fileID":"MLN813","tenementType_uri":"http://resource.geoscience.gov.au/classifier/ggic/tenementtype/mineral-lease","status_uri":"http://resource.geoscience.gov.au/classifier/ggic/tenement-status/renew-retained","jurisdiction_uri":"https://nt.gov.au/industry/mining-and-petroleum","fmt_tenid":"MLN813","type":"MINING LEASE","tenstatus":"LIVE","holder1":"BYNOE LITHIUM PTY LTD (100%),","_colour":"#f5a520","_label":"Mining Lease"}}]}