{"type":"FeatureCollection","_source":"Multi-state Australian tenement registry","_holders":["Golden Camel Mining Pty Ltd","Kite Operations Pty Ltd"],"_ticker":"CYL.AX","features":[{"type":"Feature","id":"ER_CURR_EL.60520","geometry":{"type":"MultiPolygon","coordinates":[[[[144.38957726,-35.89995185],[144.37400962,-35.89961222],[144.30759394,-35.89814057],[144.3060736,-35.94295295],[144.31085473,-35.95003288],[144.31286241,-35.95241462],[144.31560007,-35.9562785],[144.31762646,-35.9603816],[144.31809261,-35.96288966],[144.31818226,-35.97822885],[144.31672974,-35.98465521],[144.31481997,-35.98878987],[144.31231584,-35.99110967],[144.30756019,-35.99344346],[144.30435698,-35.99343187],[144.30207817,-36.06024809],[144.30146258,-36.07825972],[144.30084645,-36.09627129],[144.31194305,-36.09652091],[144.31224993,-36.08751505],[144.31440055,-36.0875633],[144.31362376,-36.08648749],[144.31321011,-36.08591457],[144.31305369,-36.08476774],[144.31275377,-36.08256865],[144.31187656,-36.08011876],[144.31184231,-36.08002271],[144.31181243,-36.07992749],[144.3120486,-36.07995419],[144.31226491,-36.07997864],[144.31231075,-36.07998381],[144.31221585,-36.07886275],[144.31267697,-36.07618251],[144.31255903,-36.07540544],[144.31095904,-36.07432925],[144.31044971,-36.07398366],[144.3103338,-36.07390569],[144.30919998,-36.07347806],[144.30838408,-36.07300847],[144.30653755,-36.07241787],[144.30580158,-36.07285176],[144.3053036,-36.06983006],[144.30544268,-36.06795764],[144.30579731,-36.06800523],[144.30600273,-36.06722962],[144.30662708,-36.06702],[144.30501162,-36.06274837],[144.30386283,-36.06274541],[144.30334783,-36.06168612],[144.30288661,-36.06173138],[144.30264508,-36.06121954],[144.30532205,-36.05585735],[144.3060513,-36.05513979],[144.30768348,-36.05546921],[144.30785855,-36.05480194],[144.30842551,-36.05427689],[144.30814979,-36.05395875],[144.30802466,-36.053198],[144.30938151,-36.05186277],[144.31143414,-36.05212871],[144.31241992,-36.04994982],[144.31254401,-36.0499385],[144.3126681,-36.04992718],[144.31463704,-36.04976542],[144.31683958,-36.04993014],[144.3167742,-36.04857324],[144.31599461,-36.04843767],[144.31426526,-36.04712872],[144.31401908,-36.0456494],[144.31435521,-36.04502991],[144.31465709,-36.04472467],[144.31531458,-36.04461269],[144.31371885,-36.04332259],[144.31280033,-36.04381466],[144.30938084,-36.04391506],[144.30787499,-36.04270439],[144.30772766,-36.04182429],[144.30745512,-36.0403476],[144.3078901,-36.0389601],[144.30881729,-36.03755455],[144.30854656,-36.03724335],[144.30795731,-36.03674404],[144.30770386,-36.03654355],[144.30749895,-36.03638144],[144.30843466,-36.03650901],[144.30855186,-36.03658284],[144.30872533,-36.03666869],[144.30915729,-36.03692012],[144.30942434,-36.03731826],[144.30945995,-36.03766202],[144.3092763,-36.03804881],[144.30900394,-36.03828574],[144.30872033,-36.03873994],[144.30871546,-36.03885555],[144.30870146,-36.03898574],[144.30865321,-36.03929414],[144.30853438,-36.03960735],[144.30835542,-36.04011435],[144.30825934,-36.04070824],[144.30839483,-36.04135079],[144.30861259,-36.04174831],[144.30868036,-36.04195434],[144.30877891,-36.04225391],[144.30884708,-36.0427354],[144.30920069,-36.04303164],[144.30973836,-36.04328439],[144.31017885,-36.04346155],[144.31052226,-36.04355739],[144.31073999,-36.04359444],[144.31103586,-36.04359814],[144.31143941,-36.04350016],[144.31183446,-36.04347649],[144.31201048,-36.0434844],[144.31231318,-36.04349962],[144.31270791,-36.04349309],[144.31303429,-36.04337699],[144.31349608,-36.04318249],[144.31376898,-36.04291695],[144.31390793,-36.04265547],[144.31418806,-36.04274479],[144.31464308,-36.04289922],[144.31505385,-36.04315609],[144.31531042,-36.04337099],[144.31523521,-36.0436161],[144.31507591,-36.04383727],[144.31509383,-36.04400344],[144.3152947,-36.04418331],[144.31547136,-36.04415689],[144.31558025,-36.04399232],[144.31565347,-36.04385019],[144.31588738,-36.04377871],[144.31613163,-36.0439019],[144.31647813,-36.04420374],[144.31652796,-36.04454196],[144.31632573,-36.04479693],[144.31572987,-36.04500123],[144.31524926,-36.04507536],[144.31504923,-36.04521592],[144.3149969,-36.04573596],[144.31502282,-36.04621692],[144.31509828,-36.04668706],[144.31524346,-36.04683191],[144.31560077,-36.04693935],[144.31584359,-36.04713691],[144.31611038,-36.04755221],[144.31651491,-36.04776895],[144.31697316,-36.04775747],[144.31728811,-36.0478701],[144.31752817,-36.04821068],[144.31770988,-36.04865352],[144.3177552,-36.04922629],[144.31784201,-36.0498396],[144.31759373,-36.05028855],[144.31728846,-36.05040491],[144.3168446,-36.0503994],[144.31629439,-36.05042689],[144.31598012,-36.05027994],[144.31549266,-36.05034254],[144.31504969,-36.05029125],[144.31451358,-36.05031891],[144.31383268,-36.05054504],[144.31350699,-36.05098729],[144.31342811,-36.05142116],[144.3132354,-36.05191084],[144.31276846,-36.05236849],[144.31193365,-36.05253547],[144.31129966,-36.05252183],[144.3112574,-36.05252354],[144.31053797,-36.05255239],[144.31012932,-36.05254729],[144.30998497,-36.05272286],[144.30985504,-36.05288145],[144.30982107,-36.05317856],[144.30969844,-36.05334248],[144.31036823,-36.05335964],[144.31035606,-36.05344974],[144.31034391,-36.05353984],[144.31014609,-36.05495069],[144.30930154,-36.05634199],[144.30713831,-36.05704735],[144.30589528,-36.05935489],[144.30639523,-36.06082596],[144.30717047,-36.06227759],[144.30761379,-36.06412561],[144.30829938,-36.06475215],[144.30829304,-36.06507822],[144.30826191,-36.06667998],[144.30686999,-36.06793856],[144.30714281,-36.06851916],[144.30640151,-36.07027869],[144.3065409,-36.07180819],[144.30937342,-36.07259319],[144.31141891,-36.07398055],[144.31241022,-36.07447927],[144.3133894,-36.07546499],[144.31377301,-36.07545184],[144.31390111,-36.08084349],[144.31497859,-36.0859952],[144.31529102,-36.08624514],[144.31602837,-36.08712405],[144.31634141,-36.08760681],[144.3233454,-36.08776357],[144.32287051,-36.10175627],[144.33169966,-36.10179836],[144.33173164,-36.10802974],[144.33175273,-36.11214345],[144.33173477,-36.11232368],[144.3225109,-36.11234591],[144.32242817,-36.11478134],[144.310582,-36.1145158],[144.31057775,-36.11591719],[144.30593552,-36.11587348],[144.30590941,-36.11684892],[144.30668496,-36.11758533],[144.30730823,-36.11853726],[144.3069042,-36.11936186],[144.30619815,-36.11939878],[144.30574522,-36.12092083],[144.30468916,-36.1215427],[144.30375945,-36.12183429],[144.30418403,-36.12320714],[144.3033388,-36.1249474],[144.30223441,-36.12623365],[144.30203082,-36.12623424],[144.29982005,-36.12624061],[144.29899476,-36.15030561],[144.29744792,-36.19533378],[144.29589764,-36.24036155],[144.31813156,-36.24086238],[144.35148345,-36.2416059],[144.41819087,-36.24306507],[144.43056018,-36.24333155],[144.44042774,-36.24354321],[144.4434274,-36.15139471],[144.44153473,-36.15139786],[144.44155441,-36.14276185],[144.45167676,-36.14273844],[144.45278431,-36.14273581],[144.46139277,-36.14271514],[144.46772902,-36.14269954],[144.46772206,-36.15135156],[144.46565527,-36.15135543],[144.46557176,-36.15394932],[144.46654909,-36.15397001],[144.49889069,-36.15465029],[144.49903398,-36.15014047],[144.49903937,-36.1471363],[144.49884313,-36.14713629],[144.49884964,-36.14434424],[144.49883994,-36.12975482],[144.49968128,-36.12975534],[144.49974876,-36.12762893],[144.51085153,-36.1278603],[144.51061482,-36.13535127],[144.51408142,-36.14432916],[144.51033103,-36.14432851],[144.50999726,-36.15488189],[144.51097464,-36.15490222],[144.52110395,-36.15511246],[144.52053634,-36.17312693],[144.53289582,-36.1733824],[144.54275517,-36.17358528],[144.54400532,-36.17361095],[144.54316104,-36.20063301],[144.64193561,-36.20262093],[144.64274606,-36.17559691],[144.64543977,-36.08551586],[144.57885408,-36.0841884],[144.57940654,-36.06617288],[144.46846551,-36.06387986],[144.44627883,-36.06340895],[144.42409266,-36.06293394],[144.42643874,-35.99087974],[144.42702396,-35.97286603],[144.42819285,-35.93683843],[144.40604242,-35.93636151],[144.40671532,-35.9157696],[144.39342936,-35.915817],[144.39339532,-35.90840397],[144.39234431,-35.90851399],[144.39338844,-35.90690671],[144.3933739,-35.90374261],[144.39205217,-35.90292647],[144.39191467,-35.90284157],[144.39051305,-35.9019757],[144.39052977,-35.90163498],[144.39054583,-35.90130786],[144.38987682,-35.90037124],[144.38957726,-35.89995185]],[[144.38540721,-36.03475956],[144.38370063,-36.03184429],[144.3830123,-36.03012789],[144.38373465,-36.02744351],[144.38758951,-36.02408562],[144.40089777,-36.02406334],[144.40091792,-36.03350965],[144.39430392,-36.03327982],[144.3943361,-36.03101059],[144.39192124,-36.0309736],[144.3918774,-36.03373374],[144.3942962,-36.03381817],[144.3943,-36.03354793],[144.40086538,-36.03377684],[144.40086651,-36.03430411],[144.40091962,-36.03430404],[144.40092893,-36.03865151],[144.38627596,-36.03865224],[144.38623897,-36.03706361],[144.38540721,-36.03475956]],[[144.45400649,-36.07893873],[144.45401855,-36.08340424],[144.454029,-36.0872843],[144.4540405,-36.09156911],[144.44778805,-36.09157596],[144.44278188,-36.09158122],[144.43175021,-36.09159191],[144.43174342,-36.08377315],[144.43370277,-36.0837715],[144.43364534,-36.06980443],[144.44028187,-36.06978629],[144.45398166,-36.06974758],[144.45400649,-36.07893873]],[[144.3770523,-36.07629276],[144.3779414,-36.07628332],[144.38937364,-36.08550724],[144.39309777,-36.08851132],[144.38928609,-36.08852025],[144.3770809,-36.08854802],[144.36813492,-36.08856759],[144.36816244,-36.0825772],[144.36819086,-36.07638646],[144.3770523,-36.07629276]],[[144.39800771,-36.0920904],[144.39920344,-36.09208934],[144.40422879,-36.09610219],[144.4042316,-36.09710944],[144.39800771,-36.0920904]],[[144.40559095,-36.09858655],[144.40607652,-36.09859706],[144.40445413,-36.09728889],[144.40445146,-36.09633385],[144.40730723,-36.09862372],[144.41181855,-36.09872131],[144.41152292,-36.10772788],[144.41049934,-36.10770574],[144.41051648,-36.10968232],[144.40847928,-36.10971995],[144.40843676,-36.10762479],[144.40197315,-36.10763874],[144.40166292,-36.10763941],[144.39506106,-36.1076533],[144.38946126,-36.10766479],[144.38514542,-36.10767347],[144.37952063,-36.1076846],[144.37951635,-36.10703165],[144.37822609,-36.10700341],[144.37852552,-36.09799708],[144.37945726,-36.09801748],[144.37944565,-36.0962473],[144.38515082,-36.09623782],[144.38946018,-36.09623049],[144.3950656,-36.09622074],[144.39900074,-36.09621372],[144.4026401,-36.09620714],[144.40559095,-36.09858655]],[[144.46897429,-36.09980479],[144.47238019,-36.09980322],[144.47233823,-36.11229095],[144.46889027,-36.11227121],[144.46892751,-36.10674663],[144.4670902,-36.1067371],[144.46702024,-36.10891479],[144.45592052,-36.10867946],[144.45621109,-36.09967258],[144.46256946,-36.09980748],[144.46897429,-36.09980479]],[[144.43853204,-36.1048876],[144.4385576,-36.11217822],[144.43176783,-36.11218793],[144.4317616,-36.10485714],[144.43853204,-36.1048876]],[[144.52582832,-36.11569369],[144.52582823,-36.11573574],[144.52538872,-36.11576714],[144.51684244,-36.12515152],[144.51686043,-36.11476309],[144.52494617,-36.11477635],[144.52583035,-36.11477776],[144.52582832,-36.11569369]],[[144.52365048,-36.129238],[144.52254126,-36.12923682],[144.51728269,-36.12923108],[144.51727988,-36.12530464],[144.52042354,-36.12184096],[144.52219691,-36.11985744],[144.52558861,-36.11617165],[144.52582736,-36.11612865],[144.52579824,-36.12924026],[144.52365048,-36.129238]],[[144.39170754,-36.22402504],[144.38203504,-36.22402773],[144.38209598,-36.21157857],[144.39176819,-36.21162025],[144.39170754,-36.22402504]]]]},"geometry_name":"SHAPE","properties":{"TAG":"EL006507","TNO":"EL006507","GTYPE":"EL","GSTATUS":"CURRE","INGRES":"Y","LAYER":"el","COVER":"el55i","ZONE":55,"ACTIVE":"Current","SOURCEFC":"MI_CURRENT","X_COORD":144.42943339,"Y_COORD":-36.09717217,"TYPE":"EL","TNO_OLD":" ","TYPEDESCM":"Exploration","TYPEDESC":"Exploration Licence","ACT":"MRSDA","ACTDESC":"Mineral Resources Sustainable Development Act 1990","NO":" ","RENEW":"0","RENEW_APP":"No","OWN_NAME":"Kite Operations Pty Ltd","OWN_ADDR1":"Level 9150 St George Terrace","OWN_ADDR2":" ","OWN_TOWN":"Perth","OWN_POST":"6000","OWN_PHONE":"+61 3 5464 1451","OWN_FAX":" ","APPSUB_DT":"2017-05-09T14:00:00Z","APPSUB_DTI":20170510,"APPREC_DT":"2017-07-04T14:00:00Z","APPREC_DTI":20170705,"GRANT1_DT":"2017-12-21T13:00:00Z","GRANT1_DTI":20171222,"GRANTL_DT":"2022-12-21T13:00:00Z","GRANTL_DTI":20221222,"EXPL_DT":"2027-12-20T13:00:00Z","EXPL_DTI":20271221,"ACW_DT":null,"ACW_DTI":0,"BOND":10000,"COV_TOT":0,"AREA_CURR":648,"AREA_ORIG":671,"RSTATUS":"Current","RSTAGE":" ","STATUS":"CURRE","STATUSSDSC":"Current","STATUSLDSC":"Currently Active","STATUSADSC":"Current","SITE_NAME":" ","INSP":"North","LGA_DESC":"Campaspe","LVS_REG":"North West","LVS_NAME":" ","LVS_PHONE":" ","LVS_EMAIL":" ","MAP":"(7725) Mitiamo","LSTAT_DESC":"PL and road and road reserves","MIN_DESC":"Gold;Silver;Antimony;Base Metals (copper / lead / zinc)","CORRE_NAME":"Belinda Ingram","CORRE_ADDR":"PO Box 563 East Maitland 2323","CSO_NAME":"Licensing","CSO_PHONE":"1300 366 356","CSO_EMAIL":"licensing.err@deeca.vic.gov.au","DBSOURCE":"rram_sf","AREASQM":629290383.353121,"HECTARES":62929.03833531,"SE_ANNO_CAD_DATA":null,"fmt_tenid":"EL006507","type":"EXPLORATION LICENCE","tenstatus":"LIVE","holder1":"Kite Operations Pty Ltd","_colour":"#a0c4f0","_label":"Exploration Licence"}},{"type":"Feature","id":"ER_CURR_EL.61173","geometry":{"type":"Polygon","coordinates":[[[144.73547875,-36.59199774],[144.73198634,-36.59193131],[144.73194896,-36.5932072],[144.73194188,-36.59344906],[144.73066553,-36.63697094],[144.73044992,-36.64431357],[144.71927166,-36.6441],[144.71922251,-36.64576521],[144.71820733,-36.68013124],[144.71807415,-36.68463512],[144.71248214,-36.68452779],[144.71256629,-36.68168897],[144.71261564,-36.68002392],[144.69584074,-36.67970039],[144.69579103,-36.68136538],[144.69552201,-36.69037297],[144.69476404,-36.71573073],[144.69479298,-36.71573129],[144.72707475,-36.71635244],[144.72782172,-36.69099405],[144.75019199,-36.69141905],[144.75150335,-36.64637921],[144.75275846,-36.6464029],[144.75280689,-36.64473759],[144.76273035,-36.64492445],[144.76398412,-36.60154923],[144.76424416,-36.59254107],[144.74190225,-36.59211967],[144.73805914,-36.59204677],[144.73547875,-36.59199774]]]},"geometry_name":"SHAPE","properties":{"TAG":"EL5449","TNO":"EL5449","GTYPE":"EL","GSTATUS":"CURRE","INGRES":"Y","LAYER":"el","COVER":"el55c","ZONE":55,"ACTIVE":"Current","SOURCEFC":"MI_CURRENT","X_COORD":144.73378683,"Y_COORD":-36.65584236,"TYPE":"EL","TNO_OLD":" ","TYPEDESCM":"Exploration","TYPEDESC":"Exploration Licence","ACT":"MRSDA","ACTDESC":"Mineral Resources Sustainable Development Act 1990","NO":" ","RENEW":"0","RENEW_APP":"No","OWN_NAME":"Golden Camel Mining Pty Ltd","OWN_ADDR1":"c/- Post Office37 Mitchell Street","OWN_ADDR2":" ","OWN_TOWN":"Colbinabbin","OWN_POST":"3559","OWN_PHONE":"0499371337","OWN_FAX":" ","APPSUB_DT":"2012-10-16T13:00:00Z","APPSUB_DTI":20121017,"APPREC_DT":"2012-10-16T13:00:00Z","APPREC_DTI":20121017,"GRANT1_DT":"2013-05-09T14:00:00Z","GRANT1_DTI":20130510,"GRANTL_DT":"2023-05-09T14:00:00Z","GRANTL_DTI":20230510,"EXPL_DT":"2028-05-08T14:00:00Z","EXPL_DTI":20280509,"ACW_DT":null,"ACW_DTI":0,"BOND":10000,"COV_TOT":0,"AREA_CURR":47,"AREA_ORIG":47,"RSTATUS":"Current","RSTAGE":" ","STATUS":"CURRE","STATUSSDSC":"Current","STATUSLDSC":"Currently Active","STATUSADSC":"Current","SITE_NAME":" ","INSP":"North","LGA_DESC":"Campaspe","LVS_REG":"North West","LVS_NAME":" ","LVS_PHONE":" ","LVS_EMAIL":" ","MAP":"(7824) Heathcote","LSTAT_DESC":"PL and road and road reserves","MIN_DESC":"Base Metals;Gold;Platinum;Silver","CORRE_NAME":"Eden Hodson","CORRE_ADDR":"GPO Box 1661 Brisbane 4001","CSO_NAME":"Licensing","CSO_PHONE":"1300 366 356","CSO_EMAIL":"licensing.err@deeca.vic.gov.au","DBSOURCE":"rram_sf","AREASQM":42108090.7869072,"HECTARES":4210.80907869,"SE_ANNO_CAD_DATA":null,"fmt_tenid":"EL5449","type":"EXPLORATION LICENCE","tenstatus":"LIVE","holder1":"Golden Camel Mining Pty Ltd","_colour":"#a0c4f0","_label":"Exploration Licence"}},{"type":"Feature","id":"ER_CURR_EL.61057","geometry":{"type":"Polygon","coordinates":[[[144.21295625,-36.38265295],[144.19068401,-36.38213083],[144.1903598,-36.39113532],[144.1890615,-36.42715314],[144.20020396,-36.42741515],[144.19988031,-36.43641965],[144.2110242,-36.4366807],[144.21005624,-36.46369436],[144.22120413,-36.46395463],[144.22184701,-36.44594537],[144.22281025,-36.41893136],[144.21166879,-36.41867152],[144.21295625,-36.38265295]]]},"geometry_name":"SHAPE","properties":{"TAG":"EL5509","TNO":"EL5509","GTYPE":"EL","GSTATUS":"CURRE","INGRES":"Y","LAYER":"el","COVER":"el55g","ZONE":55,"ACTIVE":"Current","SOURCEFC":"MI_CURRENT","X_COORD":144.20612091,"Y_COORD":-36.41798376,"TYPE":"EL","TNO_OLD":" ","TYPEDESCM":"Exploration","TYPEDESC":"Exploration Licence","ACT":"MRSDA","ACTDESC":"Mineral Resources Sustainable Development Act 1990","NO":" ","RENEW":"0","RENEW_APP":"No","OWN_NAME":"Kite Operations Pty Ltd","OWN_ADDR1":"Level 9150 St George Terrace","OWN_ADDR2":" ","OWN_TOWN":"Perth","OWN_POST":"6000","OWN_PHONE":"+61 3 5464 1451","OWN_FAX":" ","APPSUB_DT":"2014-04-21T14:00:00Z","APPSUB_DTI":20140422,"APPREC_DT":"2014-04-21T14:00:00Z","APPREC_DTI":20140422,"GRANT1_DT":"2014-06-25T14:00:00Z","GRANT1_DTI":20140626,"GRANTL_DT":"2024-06-25T14:00:00Z","GRANTL_DTI":20240626,"EXPL_DT":"2029-06-24T14:00:00Z","EXPL_DTI":20290625,"ACW_DT":null,"ACW_DTI":0,"BOND":10000,"COV_TOT":0,"AREA_CURR":16,"AREA_ORIG":49,"RSTATUS":"Current","RSTAGE":" ","STATUS":"CURRE","STATUSSDSC":"Current","STATUSLDSC":"Currently Active","STATUSADSC":"Current","SITE_NAME":" ","INSP":"North","LGA_DESC":"Loddon","LVS_REG":"North West","LVS_NAME":" ","LVS_PHONE":" ","LVS_EMAIL":" ","MAP":"(7725) Mitiamo","LSTAT_DESC":"PL and road and road reserves","MIN_DESC":"Antimony;Base Metals;Gold;Mineral Sands;Silver","CORRE_NAME":"Belinda Ingram","CORRE_ADDR":"PO Box 563 East Maitland 2323","CSO_NAME":"Licensing","CSO_PHONE":"1300 366 356","CSO_EMAIL":"licensing.err@deeca.vic.gov.au","DBSOURCE":"rram_sf","AREASQM":16007835.1278775,"HECTARES":1600.78351279,"SE_ANNO_CAD_DATA":null,"fmt_tenid":"EL5509","type":"EXPLORATION LICENCE","tenstatus":"LIVE","holder1":"Kite Operations Pty Ltd","_colour":"#a0c4f0","_label":"Exploration Licence"}},{"type":"Feature","id":"ER_CURR_EL.61075","geometry":{"type":"MultiPolygon","coordinates":[[[[144.19305036,-36.6255104],[144.20422134,-36.62577326],[144.22656374,-36.62629582],[144.22882029,-36.56326457],[144.21765808,-36.5630044],[144.21798117,-36.55399996],[144.19565976,-36.55347667],[144.1966359,-36.52646375],[144.18547928,-36.5262008],[144.1861319,-36.50819228],[144.1539215,-36.50742756],[144.15267066,-36.50739769],[144.15068785,-36.56142149],[144.15035687,-36.57042541],[144.1615195,-36.57069192],[144.16085968,-36.58869987],[144.17202505,-36.58896551],[144.17169621,-36.59796955],[144.14936304,-36.59743704],[144.14869975,-36.61544472],[144.1710381,-36.61597757],[144.17037941,-36.63398553],[144.19272353,-36.63451455],[144.19305036,-36.6255104]],[[144.18187952,-36.6252465],[144.1822075,-36.61624243],[144.19337704,-36.61650624],[144.19305036,-36.6255104],[144.18187952,-36.6252465]]]]},"geometry_name":"SHAPE","properties":{"TAG":"EL5533","TNO":"EL5533","GTYPE":"EL","GSTATUS":"CURRE","INGRES":"Y","LAYER":"el","COVER":"el55e","ZONE":55,"ACTIVE":"Current","SOURCEFC":"MI_CURRENT","X_COORD":144.1863577,"Y_COORD":-36.57460546,"TYPE":"EL","TNO_OLD":" ","TYPEDESCM":"Exploration","TYPEDESC":"Exploration Licence","ACT":"MRSDA","ACTDESC":"Mineral Resources Sustainable Development Act 1990","NO":" ","RENEW":"0","RENEW_APP":"No","OWN_NAME":"Kite Operations Pty Ltd","OWN_ADDR1":"Level 9150 St George Terrace","OWN_ADDR2":" ","OWN_TOWN":"Perth","OWN_POST":"6000","OWN_PHONE":"+61 3 5464 1451","OWN_FAX":" ","APPSUB_DT":"2014-11-09T13:00:00Z","APPSUB_DTI":20141110,"APPREC_DT":"2014-11-09T13:00:00Z","APPREC_DTI":20141110,"GRANT1_DT":"2015-01-22T13:00:00Z","GRANT1_DTI":20150123,"GRANTL_DT":"2025-01-22T13:00:00Z","GRANTL_DTI":20250123,"EXPL_DT":"2030-01-21T13:00:00Z","EXPL_DTI":20300122,"ACW_DT":null,"ACW_DTI":0,"BOND":10000,"COV_TOT":0,"AREA_CURR":68,"AREA_ORIG":140,"RSTATUS":"Current","RSTAGE":" ","STATUS":"CURRE","STATUSSDSC":"Current","STATUSLDSC":"Currently Active","STATUSADSC":"Current","SITE_NAME":" ","INSP":"North","LGA_DESC":"Greater Bendigo","LVS_REG":"North West","LVS_NAME":" ","LVS_PHONE":" ","LVS_EMAIL":" ","MAP":"(7724) Bendigo","LSTAT_DESC":"PL and road and road reserves","MIN_DESC":"Base Metals;Gold","CORRE_NAME":"Belinda Ingram","CORRE_ADDR":"PO Box 563 East Maitland 2323","CSO_NAME":"Licensing","CSO_PHONE":"1300 366 356","CSO_EMAIL":"licensing.err@deeca.vic.gov.au","DBSOURCE":"rram_sf","AREASQM":68029855.6800974,"HECTARES":6802.98556801,"SE_ANNO_CAD_DATA":null,"fmt_tenid":"EL5533","type":"EXPLORATION LICENCE","tenstatus":"LIVE","holder1":"Kite Operations Pty Ltd","_colour":"#a0c4f0","_label":"Exploration Licence"}},{"type":"Feature","id":"ER_CURR_EL.61192","geometry":{"type":"Polygon","coordinates":[[[144.69350923,-36.71570642],[144.69318993,-36.72637887],[144.70437987,-36.72659533],[144.70411156,-36.73560291],[144.71530292,-36.73581839],[144.71503579,-36.74482602],[144.71428315,-36.77018423],[144.71369839,-36.78986398],[144.72489771,-36.79007883],[144.72516412,-36.7810712],[144.73636225,-36.78128492],[144.73900679,-36.69120707],[144.72782172,-36.69099405],[144.72707475,-36.71635242],[144.70595249,-36.71594698],[144.69350923,-36.71570642]]]},"geometry_name":"SHAPE","properties":{"TAG":"EL5490","TNO":"EL5490","GTYPE":"EL","GSTATUS":"CURRE","INGRES":"Y","LAYER":"el","COVER":"el55a","ZONE":55,"ACTIVE":"Current","SOURCEFC":"MI_CURRENT","X_COORD":144.72358533,"Y_COORD":-36.74072605,"TYPE":"EL","TNO_OLD":" ","TYPEDESCM":"Exploration","TYPEDESC":"Exploration Licence","ACT":"MRSDA","ACTDESC":"Mineral Resources Sustainable Development Act 1990","NO":" ","RENEW":"0","RENEW_APP":"No","OWN_NAME":"Golden Camel Mining Pty Ltd","OWN_ADDR1":"c/- Post Office37 Mitchell Street","OWN_ADDR2":" ","OWN_TOWN":"Colbinabbin","OWN_POST":"3559","OWN_PHONE":"0499371337","OWN_FAX":" ","APPSUB_DT":"2013-08-22T14:00:00Z","APPSUB_DTI":20130823,"APPREC_DT":"2013-08-22T14:00:00Z","APPREC_DTI":20130823,"GRANT1_DT":"2013-12-05T13:00:00Z","GRANT1_DTI":20131206,"GRANTL_DT":"2023-12-05T13:00:00Z","GRANTL_DTI":20231206,"EXPL_DT":"2028-12-04T13:00:00Z","EXPL_DTI":20281205,"ACW_DT":null,"ACW_DTI":0,"BOND":10000,"COV_TOT":0,"AREA_CURR":38,"AREA_ORIG":173,"RSTATUS":"Current","RSTAGE":" ","STATUS":"CURRE","STATUSSDSC":"Current","STATUSLDSC":"Currently Active","STATUSADSC":"Current","SITE_NAME":" ","INSP":"North","LGA_DESC":"Campaspe","LVS_REG":"North West","LVS_NAME":" ","LVS_PHONE":" ","LVS_EMAIL":" ","MAP":"(7824) Heathcote","LSTAT_DESC":"PL and road and road reserves","MIN_DESC":"Antimony;Base Metals;Gold;Silver","CORRE_NAME":"Eden Hodson","CORRE_ADDR":"GPO Box 1661 Brisbane 4001","CSO_NAME":"Licensing","CSO_PHONE":"1300 366 356","CSO_EMAIL":"licensing.err@deeca.vic.gov.au","DBSOURCE":"rram_sf","AREASQM":21590269.4421358,"HECTARES":2159.02694421,"SE_ANNO_CAD_DATA":null,"fmt_tenid":"EL5490","type":"EXPLORATION LICENCE","tenstatus":"LIVE","holder1":"Golden Camel Mining Pty Ltd","_colour":"#a0c4f0","_label":"Exploration Licence"}},{"type":"Feature","id":"ER_CURR_EL.61050","geometry":{"type":"Polygon","coordinates":[[[144.95202286,-36.67703687],[144.96320757,-36.67722877],[144.96178011,-36.73128375],[144.97297275,-36.73147498],[145.01774434,-36.73222937],[145.01751259,-36.74123879],[145.06229106,-36.74197659],[145.06251758,-36.73296693],[145.05132412,-36.73278412],[145.05177947,-36.71476488],[145.04058872,-36.71458113],[145.01820753,-36.71421049],[145.01797599,-36.72321994],[144.97320962,-36.72246579],[144.97344638,-36.71345659],[144.98463651,-36.71364664],[144.98604706,-36.65959073],[144.95250044,-36.65901854],[144.95202286,-36.67703687]]]},"geometry_name":"SHAPE","properties":{"TAG":"EL5547","TNO":"EL5547","GTYPE":"EL","GSTATUS":"CURRE","INGRES":"Y","LAYER":"el","COVER":"el55h","ZONE":55,"ACTIVE":"Current","SOURCEFC":"MI_CURRENT","X_COORD":144.99638521,"Y_COORD":-36.70723834,"TYPE":"EL","TNO_OLD":" ","TYPEDESCM":"Exploration","TYPEDESC":"Exploration Licence","ACT":"MRSDA","ACTDESC":"Mineral Resources Sustainable Development Act 1990","NO":" ","RENEW":"0","RENEW_APP":"No","OWN_NAME":"Golden Camel Mining Pty Ltd","OWN_ADDR1":"c/- Post Office37 Mitchell Street","OWN_ADDR2":" ","OWN_TOWN":"Colbinabbin","OWN_POST":"3559","OWN_PHONE":"0499371337","OWN_FAX":" ","APPSUB_DT":"2015-02-10T13:00:00Z","APPSUB_DTI":20150211,"APPREC_DT":"2015-02-15T13:00:00Z","APPREC_DTI":20150216,"GRANT1_DT":"2017-05-07T14:00:00Z","GRANT1_DTI":20170508,"GRANTL_DT":"2022-05-07T14:00:00Z","GRANTL_DTI":20220508,"EXPL_DT":"2027-05-06T14:00:00Z","EXPL_DTI":20270507,"ACW_DT":null,"ACW_DTI":0,"BOND":10000,"COV_TOT":0,"AREA_CURR":30,"AREA_ORIG":40,"RSTATUS":"Current","RSTAGE":" ","STATUS":"CURRE","STATUSSDSC":"Current","STATUSLDSC":"Currently Active","STATUSADSC":"Current","SITE_NAME":" ","INSP":"North","LGA_DESC":"Strathbogie","LVS_REG":"North East","LVS_NAME":" ","LVS_PHONE":" ","LVS_EMAIL":" ","MAP":"(7824) Heathcote","LSTAT_DESC":"CL and PL and road and road reserves","MIN_DESC":"Gold;Silver","CORRE_NAME":"Eden Hodson","CORRE_ADDR":"GPO Box 1661 Brisbane 4001","CSO_NAME":"Licensing","CSO_PHONE":"1300 366 356","CSO_EMAIL":"licensing.err@deeca.vic.gov.au","DBSOURCE":"rram_sf","AREASQM":30070608.8226081,"HECTARES":3007.06088226,"SE_ANNO_CAD_DATA":null,"fmt_tenid":"EL5547","type":"EXPLORATION LICENCE","tenstatus":"LIVE","holder1":"Golden Camel Mining Pty Ltd","_colour":"#a0c4f0","_label":"Exploration Licence"}},{"type":"Feature","id":"ER_CURR_EL.61051","geometry":{"type":"Polygon","coordinates":[[[144.69844941,-36.9247586],[144.69817847,-36.93376584],[144.68695837,-36.93354776],[144.68668598,-36.94255492],[144.6979074,-36.94277307],[144.69763621,-36.95178029],[144.72008205,-36.95221356],[144.72035059,-36.94320621],[144.70912894,-36.94299017],[144.70966831,-36.92497556],[144.69844941,-36.9247586]]]},"geometry_name":"SHAPE","properties":{"TAG":"EL5548","TNO":"EL5548","GTYPE":"EL","GSTATUS":"CURRE","INGRES":"Y","LAYER":"el","COVER":"el55h","ZONE":55,"ACTIVE":"Current","SOURCEFC":"MI_CURRENT","X_COORD":144.70359978,"Y_COORD":-36.94017981,"TYPE":"EL","TNO_OLD":" ","TYPEDESCM":"Exploration","TYPEDESC":"Exploration Licence","ACT":"MRSDA","ACTDESC":"Mineral Resources Sustainable Development Act 1990","NO":" ","RENEW":"0","RENEW_APP":"No","OWN_NAME":"Golden Camel Mining Pty Ltd","OWN_ADDR1":"c/- Post Office37 Mitchell Street","OWN_ADDR2":" ","OWN_TOWN":"Colbinabbin","OWN_POST":"3559","OWN_PHONE":"0499371337","OWN_FAX":" ","APPSUB_DT":"2015-02-10T13:00:00Z","APPSUB_DTI":20150211,"APPREC_DT":"2015-02-15T13:00:00Z","APPREC_DTI":20150216,"GRANT1_DT":"2017-05-07T14:00:00Z","GRANT1_DTI":20170508,"GRANTL_DT":"2022-05-07T14:00:00Z","GRANTL_DTI":20220508,"EXPL_DT":"2027-05-06T14:00:00Z","EXPL_DTI":20270507,"ACW_DT":null,"ACW_DTI":0,"BOND":10000,"COV_TOT":0,"AREA_CURR":5,"AREA_ORIG":20,"RSTATUS":"Current","RSTAGE":" ","STATUS":"CURRE","STATUSSDSC":"Current","STATUSLDSC":"Currently Active","STATUSADSC":"Current","SITE_NAME":" ","INSP":"North","LGA_DESC":"Greater Bendigo","LVS_REG":"North West","LVS_NAME":" ","LVS_PHONE":" ","LVS_EMAIL":" ","MAP":"(7824) Heathcote","LSTAT_DESC":"CL and PL and road and road reserves","MIN_DESC":"Gold;Silver","CORRE_NAME":"Eden Hodson","CORRE_ADDR":"GPO Box 1661 Brisbane 4001","CSO_NAME":"Licensing","CSO_PHONE":"1300 366 356","CSO_EMAIL":"licensing.err@deeca.vic.gov.au","DBSOURCE":"rram_sf","AREASQM":5008250.04295735,"HECTARES":500.8250043,"SE_ANNO_CAD_DATA":null,"fmt_tenid":"EL5548","type":"EXPLORATION LICENCE","tenstatus":"LIVE","holder1":"Golden Camel Mining Pty Ltd","_colour":"#a0c4f0","_label":"Exploration Licence"}},{"type":"Feature","id":"ER_CURR_EL.60831","geometry":{"type":"Polygon","coordinates":[[[144.73178603,-36.55587545],[144.72062055,-36.55566242],[144.71982591,-36.5826862],[144.70865666,-36.58247191],[144.70812372,-36.60048756],[144.71929557,-36.60070198],[144.71823346,-36.63673336],[144.73066553,-36.63697094],[144.73194188,-36.59344906],[144.73194896,-36.5932072],[144.73198634,-36.59193131],[144.73547875,-36.59199774],[144.73805914,-36.59204677],[144.74190225,-36.59211967],[144.74242717,-36.57410359],[144.73125898,-36.57389146],[144.73178603,-36.55587545]]]},"geometry_name":"SHAPE","properties":{"TAG":"EL007269","TNO":"EL007269","GTYPE":"EL","GSTATUS":"CURRE","INGRES":"Y","LAYER":"el","COVER":"el55c","ZONE":55,"ACTIVE":"Current","SOURCEFC":"MI_CURRENT","X_COORD":144.72532649,"Y_COORD":-36.59440362,"TYPE":"EL","TNO_OLD":" ","TYPEDESCM":"Exploration","TYPEDESC":"Exploration Licence","ACT":"MRSDA","ACTDESC":"Mineral Resources Sustainable Development Act 1990","NO":" ","RENEW":"0","RENEW_APP":"No","OWN_NAME":"Golden Camel Mining Pty Ltd","OWN_ADDR1":"c/- Post Office37 Mitchell Street","OWN_ADDR2":" ","OWN_TOWN":"Colbinabbin","OWN_POST":"3559","OWN_PHONE":"0499371337","OWN_FAX":" ","APPSUB_DT":"2020-04-23T14:00:00Z","APPSUB_DTI":20200424,"APPREC_DT":"2020-07-01T14:00:00Z","APPREC_DTI":20200702,"GRANT1_DT":"2022-10-10T13:00:00Z","GRANT1_DTI":20221011,"GRANTL_DT":"2022-10-10T13:00:00Z","GRANTL_DTI":20221011,"EXPL_DT":"2027-10-09T13:00:00Z","EXPL_DTI":20271010,"ACW_DT":null,"ACW_DTI":0,"BOND":0,"COV_TOT":0,"AREA_CURR":18,"AREA_ORIG":18,"RSTATUS":"Current","RSTAGE":" ","STATUS":"CURRE","STATUSSDSC":"Current","STATUSLDSC":"Currently Active","STATUSADSC":"Current","SITE_NAME":" ","INSP":"North","LGA_DESC":"Campaspe","LVS_REG":"North West","LVS_NAME":" ","LVS_PHONE":" ","LVS_EMAIL":" ","MAP":"(7824) Heathcote","LSTAT_DESC":"PL and road and road reserves","MIN_DESC":"Gold;Silver","CORRE_NAME":"Eden Hodson","CORRE_ADDR":"GPO Box 1661 Brisbane 4001","CSO_NAME":"Licensing","CSO_PHONE":"1300 366 356","CSO_EMAIL":"licensing.err@deeca.vic.gov.au","DBSOURCE":"rram_sf","AREASQM":13584789.2039941,"HECTARES":1358.4789204,"SE_ANNO_CAD_DATA":null,"fmt_tenid":"EL007269","type":"EXPLORATION LICENCE","tenstatus":"LIVE","holder1":"Golden Camel Mining Pty Ltd","_colour":"#a0c4f0","_label":"Exploration Licence"}},{"type":"Feature","id":"ER_CURR_EL.60832","geometry":{"type":"Polygon","coordinates":[[[144.71820733,-36.68013124],[144.71922251,-36.64576521],[144.7067893,-36.64552639],[144.70598723,-36.67254951],[144.69480511,-36.67233347],[144.6942672,-36.69034866],[144.68308259,-36.69013144],[144.68281216,-36.69913894],[144.69399806,-36.69935624],[144.69350923,-36.71570642],[144.69476404,-36.71573073],[144.69552201,-36.69037297],[144.69579103,-36.68136538],[144.69584074,-36.67970039],[144.71261564,-36.68002392],[144.71256629,-36.68168897],[144.71248214,-36.68452779],[144.71807415,-36.68463512],[144.71820733,-36.68013124]]]},"geometry_name":"SHAPE","properties":{"TAG":"EL007270","TNO":"EL007270","GTYPE":"EL","GSTATUS":"CURRE","INGRES":"Y","LAYER":"el","COVER":"el55c","ZONE":55,"ACTIVE":"Current","SOURCEFC":"MI_CURRENT","X_COORD":144.70639918,"Y_COORD":-36.67219463,"TYPE":"EL","TNO_OLD":" ","TYPEDESCM":"Exploration","TYPEDESC":"Exploration Licence","ACT":"MRSDA","ACTDESC":"Mineral Resources Sustainable Development Act 1990","NO":" ","RENEW":"0","RENEW_APP":"No","OWN_NAME":"Golden Camel Mining Pty Ltd","OWN_ADDR1":"c/- Post Office37 Mitchell Street","OWN_ADDR2":" ","OWN_TOWN":"Colbinabbin","OWN_POST":"3559","OWN_PHONE":"0499371337","OWN_FAX":" ","APPSUB_DT":"2020-04-23T14:00:00Z","APPSUB_DTI":20200424,"APPREC_DT":"2020-07-01T14:00:00Z","APPREC_DTI":20200702,"GRANT1_DT":"2022-10-10T13:00:00Z","GRANT1_DTI":20221011,"GRANTL_DT":"2022-10-10T13:00:00Z","GRANTL_DTI":20221011,"EXPL_DT":"2027-10-09T13:00:00Z","EXPL_DTI":20271010,"ACW_DT":null,"ACW_DTI":0,"BOND":0,"COV_TOT":0,"AREA_CURR":16,"AREA_ORIG":16,"RSTATUS":"Current","RSTAGE":" ","STATUS":"CURRE","STATUSSDSC":"Current","STATUSLDSC":"Currently Active","STATUSADSC":"Current","SITE_NAME":" ","INSP":"North","LGA_DESC":"Campaspe","LVS_REG":"North West","LVS_NAME":" ","LVS_PHONE":" ","LVS_EMAIL":" ","MAP":"(7824) Heathcote","LSTAT_DESC":"PL and road and road reserves","MIN_DESC":"Gold;Silver","CORRE_NAME":"Eden Hodson","CORRE_ADDR":"GPO Box 1661 Brisbane 4001","CSO_NAME":"Licensing","CSO_PHONE":"1300 366 356","CSO_EMAIL":"licensing.err@deeca.vic.gov.au","DBSOURCE":"rram_sf","AREASQM":6768470.10137315,"HECTARES":676.84701014,"SE_ANNO_CAD_DATA":null,"fmt_tenid":"EL007270","type":"EXPLORATION LICENCE","tenstatus":"LIVE","holder1":"Golden Camel Mining Pty Ltd","_colour":"#a0c4f0","_label":"Exploration Licence"}},{"type":"Feature","id":"ER_CURR_MIN.20694","geometry":{"type":"Polygon","coordinates":[[[144.73482519,-36.64363148],[144.73437488,-36.6436313],[144.73433725,-36.6454235],[144.73432477,-36.64601746],[144.73423083,-36.64909143],[144.73717452,-36.64908795],[144.73733937,-36.64890756],[144.73745069,-36.64847869],[144.73848311,-36.64544473],[144.73910076,-36.64362955],[144.73482519,-36.64363148]]]},"geometry_name":"SHAPE","properties":{"TAG":"MIN5548","TNO":"MIN5548","GTYPE":"MIN","GSTATUS":"CURRE","INGRES":"Y","LAYER":"min","COVER":"ml55b","ZONE":55,"ACTIVE":"Current","SOURCEFC":"MI_CURRENT","X_COORD":144.73627775,"Y_COORD":-36.64615897,"TYPE":"MIN","TNO_OLD":" ","TYPEDESCM":"Mining","TYPEDESC":"Mining Licence","ACT":"MRSDA","ACTDESC":"Mineral Resources Sustainable Development Act 1990","NO":" ","RENEW":"0","RENEW_APP":"No","OWN_NAME":"Golden Camel Mining Pty Ltd","OWN_ADDR1":"c/- Post Office37 Mitchell Street","OWN_ADDR2":" ","OWN_TOWN":"Colbinabbin","OWN_POST":"3559","OWN_PHONE":"0499371337","OWN_FAX":" ","APPSUB_DT":"2011-08-24T14:00:00Z","APPSUB_DTI":20110825,"APPREC_DT":"2011-08-24T14:00:00Z","APPREC_DTI":20110825,"GRANT1_DT":"2012-02-08T13:00:00Z","GRANT1_DTI":20120209,"GRANTL_DT":"2025-02-08T13:00:00Z","GRANTL_DTI":20250209,"EXPL_DT":"2030-02-07T13:00:00Z","EXPL_DTI":20300208,"ACW_DT":null,"ACW_DTI":0,"BOND":455000,"COV_TOT":0,"AREA_CURR":24.52,"AREA_ORIG":24.52,"RSTATUS":"Current","RSTAGE":" ","STATUS":"CURRE","STATUSSDSC":"Current","STATUSLDSC":"Currently Active","STATUSADSC":"Current","SITE_NAME":" ","INSP":"North","LGA_DESC":"Campaspe","LVS_REG":"North East","LVS_NAME":" ","LVS_PHONE":" ","LVS_EMAIL":" ","MAP":"(7824) Heathcote","LSTAT_DESC":"PL and road and road reserves","MIN_DESC":"Gold","CORRE_NAME":"Eden Hodson","CORRE_ADDR":"GPO Box 1661 Brisbane 4001","CSO_NAME":"Licensing","CSO_PHONE":"1300 366 356","CSO_EMAIL":"licensing.err@deeca.vic.gov.au","DBSOURCE":"rram_sf","AREASQM":209678.67065477,"HECTARES":20.96786707,"SE_ANNO_CAD_DATA":null,"fmt_tenid":"MIN5548","type":"MINING LICENCE","tenstatus":"LIVE","holder1":"Golden Camel Mining Pty Ltd","_colour":"#f5a520","_label":"Mining Licence"}},{"type":"Feature","id":"ER_CURR_MIN.20700","geometry":{"type":"Polygon","coordinates":[[[144.73433725,-36.6454235],[144.73254673,-36.64541428],[144.73255505,-36.64909339],[144.73423083,-36.64909143],[144.73432477,-36.64601746],[144.73433725,-36.6454235]]]},"geometry_name":"SHAPE","properties":{"TAG":"MIN5570","TNO":"MIN5570","GTYPE":"MIN","GSTATUS":"CURRE","INGRES":"Y","LAYER":"min","COVER":"ml55b","ZONE":55,"ACTIVE":"Current","SOURCEFC":"MI_CURRENT","X_COORD":144.73341851,"Y_COORD":-36.64723482,"TYPE":"MIN","TNO_OLD":" ","TYPEDESCM":"Mining","TYPEDESC":"Mining Licence","ACT":"MRSDA","ACTDESC":"Mineral Resources Sustainable Development Act 1990","NO":" ","RENEW":"0","RENEW_APP":"No","OWN_NAME":"Golden Camel Mining Pty Ltd","OWN_ADDR1":"c/- Post Office37 Mitchell Street","OWN_ADDR2":" ","OWN_TOWN":"Colbinabbin","OWN_POST":"3559","OWN_PHONE":"0499371337","OWN_FAX":" ","APPSUB_DT":"2013-06-06T14:00:00Z","APPSUB_DTI":20130607,"APPREC_DT":"2013-06-06T14:00:00Z","APPREC_DTI":20130607,"GRANT1_DT":"2013-09-25T14:00:00Z","GRANT1_DTI":20130926,"GRANTL_DT":"2025-02-08T13:00:00Z","GRANTL_DTI":20250209,"EXPL_DT":"2030-02-07T13:00:00Z","EXPL_DTI":20300208,"ACW_DT":null,"ACW_DTI":0,"BOND":0,"COV_TOT":0,"AREA_CURR":6.3,"AREA_ORIG":6.3,"RSTATUS":"Current","RSTAGE":" ","STATUS":"CURRE","STATUSSDSC":"Current","STATUSLDSC":"Currently Active","STATUSADSC":"Current","SITE_NAME":" ","INSP":"North","LGA_DESC":"Campaspe","LVS_REG":"North East","LVS_NAME":" ","LVS_PHONE":" ","LVS_EMAIL":" ","MAP":"(7824) Heathcote","LSTAT_DESC":"PL and road and road reserves","MIN_DESC":"Gold","CORRE_NAME":"Eden Hodson","CORRE_ADDR":"GPO Box 1661 Brisbane 4001","CSO_NAME":"Licensing","CSO_PHONE":"1300 366 356","CSO_EMAIL":"licensing.err@deeca.vic.gov.au","DBSOURCE":"rram_sf","AREASQM":63389.71534536,"HECTARES":6.33897153,"SE_ANNO_CAD_DATA":null,"fmt_tenid":"MIN5570","type":"MINING LICENCE","tenstatus":"LIVE","holder1":"Golden Camel Mining Pty Ltd","_colour":"#f5a520","_label":"Mining Licence"}},{"type":"Feature","id":"ER_CURR_RL.22506","geometry":{"type":"Polygon","coordinates":[[[144.17264726,-36.26454691],[144.17232236,-36.27355144],[144.16120207,-36.27328778],[144.1602227,-36.30030102],[144.14909873,-36.30003608],[144.14647045,-36.37206997],[144.17987346,-36.37286379],[144.17954811,-36.38186821],[144.22409259,-36.38291246],[144.22601183,-36.32888363],[144.20375465,-36.3283646],[144.20407658,-36.3193599],[144.19294948,-36.31909892],[144.19359547,-36.30108966],[144.18247107,-36.30082781],[144.18376642,-36.26480944],[144.17264726,-36.26454691]]]},"geometry_name":"SHAPE","properties":{"TAG":"RL006660","TNO":"RL006660","GTYPE":"RL","GSTATUS":"CURRE","INGRES":"Y","LAYER":"rl","COVER":"rl55a","ZONE":55,"ACTIVE":"Current","SOURCEFC":"MI_CURRENT","X_COORD":144.18278978,"Y_COORD":-36.3366625,"TYPE":"RL","TNO_OLD":" ","TYPEDESCM":"Retention Mining","TYPEDESC":"Retention Licence","ACT":"MRSDA","ACTDESC":"Mineral Resources Sustainable Development Act 1990","NO":" ","RENEW":"0","RENEW_APP":"No","OWN_NAME":"Kite Operations Pty Ltd","OWN_ADDR1":"Level 9150 St George Terrace","OWN_ADDR2":" ","OWN_TOWN":"Perth","OWN_POST":"6000","OWN_PHONE":"+61 3 5464 1451","OWN_FAX":" ","APPSUB_DT":"2017-12-11T13:00:00Z","APPSUB_DTI":20171212,"APPREC_DT":"2018-08-19T14:00:00Z","APPREC_DTI":20180820,"GRANT1_DT":"2018-11-02T13:00:00Z","GRANT1_DTI":20181103,"GRANTL_DT":"2018-11-02T13:00:00Z","GRANTL_DTI":20181103,"EXPL_DT":"2028-11-01T13:00:00Z","EXPL_DTI":20281102,"ACW_DT":null,"ACW_DTI":0,"BOND":10000,"COV_TOT":0,"AREA_CURR":5896,"AREA_ORIG":5896,"RSTATUS":"Current","RSTAGE":" ","STATUS":"CURRE","STATUSSDSC":"Current","STATUSLDSC":"Currently Active","STATUSADSC":"Current","SITE_NAME":" ","INSP":"North","LGA_DESC":"Loddon","LVS_REG":"North West","LVS_NAME":" ","LVS_PHONE":" ","LVS_EMAIL":" ","MAP":"(7725) Mitiamo","LSTAT_DESC":"PL and road and road reserves","MIN_DESC":"Gold;Silver","CORRE_NAME":"Belinda Ingram","CORRE_ADDR":"PO Box 563 East Maitland 2323","CSO_NAME":"Licensing","CSO_PHONE":"1300 366 356","CSO_EMAIL":"licensing.err@deeca.vic.gov.au","DBSOURCE":"rram_sf","AREASQM":59025977.660411,"HECTARES":5902.59776604,"SE_ANNO_CAD_DATA":null,"fmt_tenid":"RL006660","type":"RETENTION LICENCE","tenstatus":"LIVE","holder1":"Kite Operations Pty Ltd","_colour":"#a0d4a0","_label":"Retention Licence"}}]}