{"type":"FeatureCollection","_source":"WA DMIRS via SLIP public API","_holders":["EVOLUTION MINING (MUNGARI) PTY LTD","EVOLUTION MINING (PHOENIX) PTY LTD","EVOLUTION MINING (PHOENIX) PTY LIMITED"],"_ticker":"EVN.AX","features":[{"type":"Feature","geometry":{"type":"Polygon","coordinates":[[[121.35144618202042,-30.805142781880402],[121.35144613939407,-30.815371950816825],[121.33477920540251,-30.815371700341203],[121.3299191600395,-30.81537128694663],[121.32991941227753,-30.81648875429969],[121.32254606374984,-30.816512375854643],[121.31941917461583,-30.81651378222139],[121.31941049158897,-30.81666666728875],[121.33333333278757,-30.81666666679095],[121.3333333327561,-30.833333332665177],[121.33477931315062,-30.833333332524894],[121.33477929221586,-30.832038578983934],[121.35144634045052,-30.83203816421646],[121.36811340977027,-30.83203799790083],[121.3681134314385,-30.83333333255906],[121.37682205350553,-30.83333333338924],[121.37682202460442,-30.83203797763209],[121.3807755212846,-30.832038088265236],[121.38081058638146,-30.83188973715894],[121.38142061239962,-30.83167181780691],[121.38141879542809,-30.831780056877076],[121.38096629694468,-30.83203808919927],[121.38333333413541,-30.83203809138088],[121.3833333339289,-30.828060151729478],[121.38179400244323,-30.828746963783274],[121.38173565126385,-30.828681438763553],[121.37535359193886,-30.821514030744943],[121.37366370599821,-30.822695348851493],[121.36032079794364,-30.806249001531437],[121.3593412920958,-30.80624901742729],[121.3576700243554,-30.806249043955916],[121.35188760665635,-30.80624960484425],[121.35144618202042,-30.805142781880402]]]},"properties":{"fmt_tenid":"E 15/1499","type":"EXPLORATION LICENCE","tenstatus":"LIVE","holder1":"EVOLUTION MINING (MUNGARI) PTY LTD","holder2":" ","legal_area":7,"unit_of_me":"BL.","_colour":"#a0c4f0","_label":"Exploration Licence"}},{"type":"Feature","geometry":{"type":"Polygon","coordinates":[[[121.28333333301305,-30.916666666525117],[121.26666666702377,-30.916666666728158],[121.26666666820641,-30.922594067586118],[121.27029849880529,-30.922591016883423],[121.2793247924619,-30.922582879764835],[121.28402819480448,-30.922578394812348],[121.29134355514873,-30.9225710786468],[121.3000000011328,-30.922561880830653],[121.30000000007952,-30.916666667070437],[121.28333333301305,-30.916666666525117]]]},"properties":{"fmt_tenid":"E 15/1661","type":"EXPLORATION LICENCE","tenstatus":"LIVE","holder1":"EVOLUTION MINING (MUNGARI) PTY LTD","holder2":" ","legal_area":2,"unit_of_me":"BL.","_colour":"#a0c4f0","_label":"Exploration Licence"}},{"type":"Feature","geometry":{"type":"MultiPolygon","coordinates":[[[[121.28333358038142,-30.81484054723222],[121.28333365439536,-30.814290620811107],[121.27667447504581,-30.799999999876295],[121.26810451800604,-30.799999895325385],[121.26809445629092,-30.803114370895443],[121.2754375247584,-30.818645530261794],[121.28333358038142,-30.81484054723222]]],[[[121.28231479045513,-30.833333332925523],[121.27722345822187,-30.822460270341292],[121.27718208104304,-30.822460269416364],[121.28166733251916,-30.8320383630947],[121.28227394531685,-30.83333333298083],[121.28231479045513,-30.833333332925523]]]]},"properties":{"fmt_tenid":"E 15/1794","type":"EXPLORATION LICENCE","tenstatus":"LIVE","holder1":"EVOLUTION MINING (MUNGARI) PTY LTD","holder2":" ","legal_area":2,"unit_of_me":"BL.","_colour":"#a0c4f0","_label":"Exploration Licence"}},{"type":"Feature","geometry":{"type":"MultiPolygon","coordinates":[[[[121.25088222965688,-30.786073370423114],[121.25090607015157,-30.782753019872906],[121.24535174981715,-30.782687600350044],[121.23154805969514,-30.782523829623074],[121.22746126023853,-30.782242160378633],[121.22761076750783,-30.78099669030183],[121.21666666720606,-30.78084705828847],[121.2166666666746,-30.816666666918845],[121.23333333258921,-30.81666666706848],[121.23333333427522,-30.822455158342997],[121.24997477009558,-30.82245739951342],[121.24994707961598,-30.79938023954721],[121.25078596963986,-30.799477549753888],[121.25088222965688,-30.786073370423114]]],[[[121.25144605538402,-30.837247841292246],[121.25000000029856,-30.837247261088198],[121.24999999964679,-30.848756380289952],[121.25174424993378,-30.848735800151847],[121.25172700964356,-30.847420050261157],[121.2517184799549,-30.84676980033956],[121.2516433000323,-30.84103405042363],[121.25144611758442,-30.84103593377278],[121.25144605538402,-30.837247841292246]]],[[[121.27386079617526,-30.793961833528556],[121.26260085104406,-30.79396188383007],[121.2647200740644,-30.79872405218724],[121.26810864157453,-30.798723580681642],[121.26810451800604,-30.799999895325385],[121.27667447504581,-30.799999999876295],[121.27386079617526,-30.793961833528556]]],[[[121.2755972700178,-30.792368070081817],[121.2718102697809,-30.789560150315097],[121.27224624951134,-30.790496069607936],[121.27519913986015,-30.792753699876737],[121.2755972700178,-30.792368070081817]]],[[[121.28273670962751,-30.785155359642594],[121.26943515028357,-30.784461140388895],[121.2695647295955,-30.784739329508344],[121.28286673000014,-30.78543328969791],[121.28273670962751,-30.785155359642594]]]]},"properties":{"fmt_tenid":"E 15/965","type":"EXPLORATION LICENCE","tenstatus":"LIVE","holder1":"EVOLUTION MINING (MUNGARI) PTY LTD","holder2":" ","legal_area":11,"unit_of_me":"BL.","_colour":"#a0c4f0","_label":"Exploration Licence"}},{"type":"Feature","geometry":{"type":"Polygon","coordinates":[[[118.95000000000094,-28.499999999854726],[118.94999999964239,-28.483333333000434],[118.93333333262103,-28.483333332640385],[118.93333333260126,-28.499999999972783],[118.91666666696669,-28.500000000302634],[118.9166666671899,-28.516666667028662],[118.89999999996522,-28.516666667261752],[118.89999999962266,-28.533333333179783],[118.89999999985712,-28.548714863722264],[118.90000000019066,-28.549999999700372],[118.91666666743126,-28.54999999955094],[118.9166666666208,-28.548714638475282],[118.91666666709531,-28.533333332669155],[118.93333333343259,-28.533333333273887],[118.95000000014484,-28.533333333031255],[118.95118566184377,-28.533333333469756],[118.96666666651635,-28.53333333347526],[118.96666666723839,-28.51666666700829],[118.95000000024775,-28.51666666698955],[118.95000000000094,-28.499999999854726]]]},"properties":{"fmt_tenid":"E 57/1027","type":"EXPLORATION LICENCE","tenstatus":"LIVE","holder1":"EVOLUTION MINING (MUNGARI) PTY LTD","holder2":" ","legal_area":8,"unit_of_me":"BL.","_colour":"#a0c4f0","_label":"Exploration Licence"}},{"type":"Feature","geometry":{"type":"Polygon","coordinates":[[[121.35619505379542,-30.914169189976967],[121.36661555952797,-30.936401018819453],[121.38476524574894,-30.929093588403784],[121.38478150085523,-30.924666140529258],[121.38044023905081,-30.915404625128417],[121.36785296667279,-30.915561802899703],[121.36795199714345,-30.909231265565754],[121.35619505379542,-30.914169189976967]]]},"properties":{"fmt_tenid":"M 15/1188","type":"MINING LEASE","tenstatus":"LIVE","holder1":"EVOLUTION MINING (MUNGARI) PTY LTD","holder2":" ","legal_area":466.4,"unit_of_me":"HA.","_colour":"#f5a520","_label":"Mining Lease"}},{"type":"Feature","geometry":{"type":"Polygon","coordinates":[[[121.24988118763487,-30.76537338911106],[121.26260085104406,-30.79396188383007],[121.27386079617526,-30.793961833528556],[121.27224624851135,-30.790496067607958],[121.27181026778094,-30.78956014831506],[121.26956472659539,-30.784739327508372],[121.26943515428356,-30.78446113938883],[121.2605462181453,-30.765372820229363],[121.25143545447405,-30.76537334570261],[121.24988118763487,-30.76537338911106]]]},"properties":{"fmt_tenid":"M 15/1287","type":"MINING LEASE","tenstatus":"LIVE","holder1":"EVOLUTION MINING (MUNGARI) PTY LTD","holder2":" ","legal_area":332.65,"unit_of_me":"HA.","_colour":"#f5a520","_label":"Mining Lease"}},{"type":"Feature","geometry":{"type":"Polygon","coordinates":[[[121.28021319808066,-30.779762115904433],[121.28273670462761,-30.785155355642576],[121.28286672900012,-30.78543329269794],[121.28721011617235,-30.794714228331646],[121.3131728029089,-30.794699190697532],[121.30370684418413,-30.789819730612802],[121.30139509924064,-30.789721837603174],[121.30136430805506,-30.786420712831873],[121.30171361967678,-30.782026300454884],[121.30199107257488,-30.782118481792924],[121.3014400987716,-30.78956299837734],[121.30378863890888,-30.789633215286415],[121.31304855978816,-30.794387328864893],[121.31040844395471,-30.787765825956683],[121.31904675717226,-30.781507745248888],[121.31756902238908,-30.77968943765859],[121.28021319808066,-30.779762115904433]]]},"properties":{"fmt_tenid":"M 15/1346","type":"MINING LEASE","tenstatus":"LIVE","holder1":"EVOLUTION MINING (MUNGARI) PTY LTD","holder2":" ","legal_area":473.65,"unit_of_me":"HA.","_colour":"#f5a520","_label":"Mining Lease"}},{"type":"Feature","geometry":{"type":"Polygon","coordinates":[[[121.28721011617235,-30.794714228331646],[121.29837681555098,-30.8185670601386],[121.31930420625442,-30.818538005114604],[121.31941917461583,-30.81651378222139],[121.32254606374984,-30.816512375854643],[121.3131728029089,-30.794699190697532],[121.28721011617235,-30.794714228331646]]]},"properties":{"fmt_tenid":"M 15/1347","type":"MINING LEASE","tenstatus":"LIVE","holder1":"EVOLUTION MINING (MUNGARI) PTY LTD","holder2":" ","legal_area":637.65,"unit_of_me":"HA.","_colour":"#f5a520","_label":"Mining Lease"}},{"type":"Feature","geometry":{"type":"Polygon","coordinates":[[[121.26760071118815,-30.752798640154424],[121.2688821512669,-30.755538899645824],[121.28021319808066,-30.779762115904433],[121.31756902238908,-30.77968943765859],[121.2940119807479,-30.75297628131315],[121.29126885345053,-30.75299073397027],[121.27205928863103,-30.752835156818243],[121.26857246884423,-30.752806611898293],[121.26760071118815,-30.752798640154424]]]},"properties":{"fmt_tenid":"M 15/1407","type":"MINING LEASE","tenstatus":"LIVE","holder1":"EVOLUTION MINING (MUNGARI) PTY LTD","holder2":" ","legal_area":906.85,"unit_of_me":"HA.","_colour":"#f5a520","_label":"Mining Lease"}},{"type":"Feature","geometry":{"type":"Polygon","coordinates":[[[121.25144043439543,-30.7535859474394],[121.25143545447405,-30.76537334570261],[121.2605462181453,-30.765372820229363],[121.25497247003317,-30.753399435284308],[121.25144043439543,-30.7535859474394]]]},"properties":{"fmt_tenid":"M 15/1408","type":"MINING LEASE","tenstatus":"LIVE","holder1":"EVOLUTION MINING (MUNGARI) PTY LTD","holder2":" ","legal_area":80,"unit_of_me":"HA.","_colour":"#f5a520","_label":"Mining Lease"}},{"type":"Feature","geometry":{"type":"Polygon","coordinates":[[[121.24469057296525,-30.753700371637454],[121.24988118763487,-30.76537338911106],[121.25143545447405,-30.76537334570261],[121.25144043439543,-30.7535859474394],[121.24711494021717,-30.753814073871855],[121.24469057296525,-30.753700371637454]]]},"properties":{"fmt_tenid":"M 15/1741","type":"MINING LEASE","tenstatus":"LIVE","holder1":"EVOLUTION MINING (MUNGARI) PTY LTD","holder2":" ","legal_area":51.305,"unit_of_me":"HA.","_colour":"#f5a520","_label":"Mining Lease"}},{"type":"Feature","geometry":{"type":"Polygon","coordinates":[[[121.24994708461591,-30.799380237547176],[121.24997476809564,-30.822457397513453],[121.27722345022191,-30.822460274341324],[121.27543752675838,-30.818645531261783],[121.2680944552909,-30.803114375895454],[121.26810864157453,-30.798723580681642],[121.2647200740644,-30.79872405218724],[121.26519672493419,-30.799794864776988],[121.25078597163987,-30.799477547753902],[121.24994708461591,-30.799380237547176]]]},"properties":{"fmt_tenid":"M 15/1821","type":"MINING LEASE","tenstatus":"LIVE","holder1":"EVOLUTION MINING (MUNGARI) PTY LTD","holder2":" ","legal_area":536.2,"unit_of_me":"HA.","_colour":"#f5a520","_label":"Mining Lease"}},{"type":"Feature","geometry":{"type":"Polygon","coordinates":[[[121.30527231881945,-30.833308879085028],[121.30563465259605,-30.834083674098515],[121.29850252383805,-30.836489495662825],[121.30322075852165,-30.84654549198343],[121.30025878354073,-30.847579477933355],[121.29056786293872,-30.850961814716396],[121.30307726959416,-30.875775040097473],[121.3075387830116,-30.884586853945233],[121.31563397884646,-30.9005709106801],[121.3252183391658,-30.89696015482824],[121.33349966736475,-30.913660873964734],[121.31518032928194,-30.920654516799452],[121.31476878655474,-30.922497663581677],[121.32587371924791,-30.92254972431458],[121.34999518621177,-30.922554871365435],[121.35003014227046,-30.916733163992166],[121.34320072546736,-30.90982093563536],[121.33480029663428,-30.89334898085923],[121.3316262286159,-30.887085097032763],[121.32223894543344,-30.8685544321135],[121.31031677459625,-30.844067993769674],[121.3166798217733,-30.833412025005632],[121.30527231881945,-30.833308879085028]],[[121.31817160054985,-30.88190416689199],[121.32313290043052,-30.88037288307422],[121.32671063529068,-30.888838625588914],[121.32180646789406,-30.89038864051804],[121.31817160054985,-30.88190416689199]]]},"properties":{"fmt_tenid":"M 15/1826","type":"MINING LEASE","tenstatus":"LIVE","holder1":"EVOLUTION MINING (MUNGARI) PTY LTD","holder2":" ","legal_area":1788,"unit_of_me":"HA.","_colour":"#f5a520","_label":"Mining Lease"}},{"type":"Feature","geometry":{"type":"Polygon","coordinates":[[[121.16595877755823,-30.758241178403868],[121.17408704900186,-30.773531225679633],[121.17318230387997,-30.773473211941425],[121.1728762771218,-30.773475494044508],[121.17292045670268,-30.780168674692142],[121.17293918606673,-30.781855539809655],[121.18419624568195,-30.782026889691473],[121.1842828420616,-30.78218937828736],[121.19140985514221,-30.77939298968294],[121.18661580568869,-30.770648205547403],[121.19384947067776,-30.76786576008935],[121.19247085413413,-30.765347323588387],[121.19093207972779,-30.7625359798331],[121.18473625392893,-30.751214617411215],[121.17593207201675,-30.754529690870122],[121.16595877755823,-30.758241178403868]]]},"properties":{"fmt_tenid":"M 15/1827","type":"MINING LEASE","tenstatus":"LIVE","holder1":"EVOLUTION MINING (MUNGARI) PTY LTD","holder2":"HAYES MINING PTY LTD","legal_area":560.1,"unit_of_me":"HA.","_colour":"#f5a520","_label":"Mining Lease"}},{"type":"Feature","geometry":{"type":"Polygon","coordinates":[[[121.12059824361425,-30.73033840107382],[121.12066423163972,-30.741327601818465],[121.12069758902913,-30.7523113522185],[121.1099171258085,-30.75233225722802],[121.10980643814842,-30.7743620496365],[121.11050796512896,-30.77435684990348],[121.11053531136312,-30.782685529603633],[121.13132858445499,-30.782692837068574],[121.13116276114914,-30.774261205586388],[121.13114136206997,-30.77086233493318],[121.13016905664115,-30.77193233472565],[121.12603659537429,-30.768779009643797],[121.12782889442906,-30.767818592709844],[121.13145666887078,-30.77051556598844],[121.13300536398957,-30.768738760156854],[121.13112054391897,-30.767522290295084],[121.13109404657997,-30.76326513333326],[121.13114555891222,-30.7522678532872],[121.13095013292885,-30.74128357980308],[121.13099380731559,-30.730306279623445],[121.12059824361425,-30.73033840107382]],[[121.12075137044242,-30.75743272881153],[121.12362983028514,-30.754461196524673],[121.128435689452,-30.757944355482817],[121.12586770042597,-30.760588984707837],[121.12557719498093,-30.760527302638295],[121.12542611421776,-30.761054773758215],[121.12082913182903,-30.76578612332799],[121.1203874646055,-30.76624066036191],[121.11559025870916,-30.76275991959607],[121.12075137044242,-30.75743272881153]]]},"properties":{"fmt_tenid":"M 15/1831","type":"MINING LEASE","tenstatus":"LIVE","holder1":"EVOLUTION MINING (PHOENIX) PTY LTD","holder2":" ","legal_area":844.2,"unit_of_me":"HA.","_colour":"#f5a520","_label":"Mining Lease"}},{"type":"Feature","geometry":{"type":"Polygon","coordinates":[[[121.13099380731559,-30.730306279623445],[121.13095013292885,-30.74128357980308],[121.13114555891222,-30.7522678532872],[121.13796148059185,-30.75223073177474],[121.14154954627348,-30.752211180500005],[121.15195172586792,-30.752155955785145],[121.15608221007385,-30.752130296920804],[121.15623592419638,-30.74102342256643],[121.15492194597013,-30.74121538042568],[121.15494926164853,-30.727740424325088],[121.14139248354469,-30.727693597410553],[121.14140226567768,-30.73027700147272],[121.13099380731559,-30.730306279623445]]]},"properties":{"fmt_tenid":"M 15/1832","type":"MINING LEASE","tenstatus":"LIVE","holder1":"EVOLUTION MINING (PHOENIX) PTY LTD","holder2":" ","legal_area":607.95,"unit_of_me":"HA.","_colour":"#f5a520","_label":"Mining Lease"}},{"type":"Feature","geometry":{"type":"Polygon","coordinates":[[[121.13796148059185,-30.75223073177474],[121.13810162280733,-30.76647179401275],[121.15177102410736,-30.76650213804402],[121.15183611974456,-30.774148349048023],[121.15210746228378,-30.774146588000384],[121.16212809827874,-30.77409168192661],[121.16212328849515,-30.77353690164642],[121.16204669582777,-30.763075205058772],[121.16196631402138,-30.75209361829181],[121.15608221007385,-30.752130296920804],[121.15195172586792,-30.752155955785145],[121.14154954627348,-30.752211180500005],[121.13796148059185,-30.75223073177474]]]},"properties":{"fmt_tenid":"M 15/1835","type":"MINING LEASE","tenstatus":"LIVE","holder1":"EVOLUTION MINING (PHOENIX) PTY LTD","holder2":" ","legal_area":448.15,"unit_of_me":"HA.","_colour":"#f5a520","_label":"Mining Lease"}},{"type":"Feature","geometry":{"type":"Polygon","coordinates":[[[121.1688773242243,-30.773498345386077],[121.1728762771218,-30.773475494044508],[121.1731822998799,-30.77347320994139],[121.17405273703626,-30.773466680648006],[121.16850813307718,-30.763036756177907],[121.16204669582777,-30.763075205058772],[121.16212328849515,-30.77353690164642],[121.1688773242243,-30.773498345386077]]]},"properties":{"fmt_tenid":"M 15/1846","type":"MINING LEASE","tenstatus":"LIVE","holder1":"EVOLUTION MINING (MUNGARI) PTY LTD","holder2":" ","legal_area":102.11115,"unit_of_me":"HA.","_colour":"#f5a520","_label":"Mining Lease"}},{"type":"Feature","geometry":{"type":"Polygon","coordinates":[[[121.11559025970915,-30.76275991959607],[121.12038745960554,-30.76624066036191],[121.12542611021772,-30.761054769758204],[121.125577189981,-30.760527299638323],[121.12586770042597,-30.76058898970784],[121.12843569045202,-30.757944350482813],[121.12362983028514,-30.754461199524695],[121.12075137044239,-30.75743272981152],[121.11559025970915,-30.76275991959607]]]},"properties":{"fmt_tenid":"M 15/1886","type":"MINING LEASE","tenstatus":"LIVE","holder1":"EVOLUTION MINING (PHOENIX) PTY LIMITED","holder2":" ","legal_area":71.95025,"unit_of_me":"HA.","_colour":"#f5a520","_label":"Mining Lease"}},{"type":"Feature","geometry":{"type":"MultiPolygon","coordinates":[[[[121.28721011617235,-30.794714228331646],[121.28286672900012,-30.78543329269794],[121.26956472659539,-30.784739327508372],[121.27181026778094,-30.78956014831506],[121.27559727201779,-30.792368070081817],[121.27519913786016,-30.792753696876712],[121.27224624851135,-30.790496067607958],[121.27386079617526,-30.793961833528556],[121.28354290696652,-30.814739678934767],[121.28853685694087,-30.82545323626479],[121.2989667443734,-30.819826821881172],[121.29837681555098,-30.8185670601386],[121.28721011617235,-30.794714228331646]]],[[[121.26760071118815,-30.752798640154424],[121.26653318556889,-30.752789873635102],[121.25497247003317,-30.753399435284308],[121.2605462181453,-30.765372820229363],[121.26943515428356,-30.78446113938883],[121.28273670462761,-30.785155355642576],[121.28021319808066,-30.779762115904433],[121.2688821512669,-30.755538899645824],[121.26760071118815,-30.752798640154424]]]]},"properties":{"fmt_tenid":"M 15/688","type":"MINING LEASE","tenstatus":"LIVE","holder1":"EVOLUTION MINING (MUNGARI) PTY LTD","holder2":" ","legal_area":952.45,"unit_of_me":"HA.","_colour":"#f5a520","_label":"Mining Lease"}},{"type":"Feature","geometry":{"type":"Polygon","coordinates":[[[121.28853685694087,-30.82545323626479],[121.29396297296972,-30.836963115080117],[121.28541801331323,-30.839959326312016],[121.29056786293872,-30.850961814716396],[121.30025878354073,-30.847579477933355],[121.30322075852165,-30.84654549198343],[121.29850252383805,-30.836489495662825],[121.30563465259605,-30.834083674098515],[121.30527231881945,-30.833308879085028],[121.2989667443734,-30.819826821881172],[121.28853685694087,-30.82545323626479]]]},"properties":{"fmt_tenid":"M 15/689","type":"MINING LEASE","tenstatus":"LIVE","holder1":"EVOLUTION MINING (MUNGARI) PTY LTD","holder2":" ","legal_area":351.75,"unit_of_me":"HA.","_colour":"#f5a520","_label":"Mining Lease"}},{"type":"Feature","geometry":{"type":"Polygon","coordinates":[[[121.1688773242243,-30.773498345386077],[121.16212328849515,-30.77353690164642],[121.16212809827874,-30.77409168192661],[121.16221107085991,-30.78454177718548],[121.16436924309087,-30.78452865147711],[121.17296886489287,-30.784522084507895],[121.17293918606673,-30.781855539809655],[121.17292045670268,-30.780168674692142],[121.1728762771218,-30.773475494044508],[121.1688773242243,-30.773498345386077]]]},"properties":{"fmt_tenid":"M 15/692","type":"MINING LEASE","tenstatus":"LIVE","holder1":"EVOLUTION MINING (MUNGARI) PTY LTD","holder2":"HAYES MINING PTY LTD","legal_area":125.75,"unit_of_me":"HA.","_colour":"#f5a520","_label":"Mining Lease"}},{"type":"Feature","geometry":{"type":"Polygon","coordinates":[[[121.20123032806413,-30.75334221879101],[121.20100637035789,-30.76536592649192],[121.20073952946362,-30.779750720536335],[121.20121768073,-30.780635833949184],[121.22761076750783,-30.78099669030183],[121.22746126023856,-30.782242157378658],[121.23154806269523,-30.782523827623095],[121.23211878667658,-30.7516553365223],[121.21812051074485,-30.751656747551507],[121.21812074653039,-30.75335381569126],[121.20123032806413,-30.75334221879101]]]},"properties":{"fmt_tenid":"M 15/829","type":"MINING LEASE","tenstatus":"LIVE","holder1":"EVOLUTION MINING (MUNGARI) PTY LTD","holder2":" ","legal_area":931.2,"unit_of_me":"HA.","_colour":"#f5a520","_label":"Mining Lease"}},{"type":"Feature","geometry":{"type":"Polygon","coordinates":[[[121.23211878667658,-30.7516553365223],[121.23154806269523,-30.782523827623095],[121.24535175181713,-30.782687596350023],[121.25090607015157,-30.78275301687287],[121.25088223165683,-30.786073369423125],[121.25078597163987,-30.799477547753902],[121.26519672493419,-30.799794864776988],[121.2647200740644,-30.79872405218724],[121.26260085104406,-30.79396188383007],[121.24988118763487,-30.76537338911106],[121.24469057296525,-30.753700371637454],[121.24387372089346,-30.751863098802566],[121.23646269083807,-30.75165472556615],[121.23211878667658,-30.7516553365223]]]},"properties":{"fmt_tenid":"M 15/830","type":"MINING LEASE","tenstatus":"LIVE","holder1":"EVOLUTION MINING (MUNGARI) PTY LTD","holder2":" ","legal_area":808.1,"unit_of_me":"HA.","_colour":"#f5a520","_label":"Mining Lease"}},{"type":"Feature","geometry":{"type":"Polygon","coordinates":[[[121.34478632705387,-30.889816596482515],[121.35619505379542,-30.914169189976967],[121.36795199714345,-30.909231265565754],[121.37596881712999,-30.905862990977646],[121.36811545576602,-30.889099995754155],[121.3681151023588,-30.88512912574401],[121.36625533580079,-30.885128759952796],[121.36625535888537,-30.881945230507846],[121.34478632705387,-30.889816596482515]]]},"properties":{"fmt_tenid":"M 15/836","type":"MINING LEASE","tenstatus":"LIVE","holder1":"EVOLUTION MINING (MUNGARI) PTY LTD","holder2":" ","legal_area":605.7,"unit_of_me":"HA.","_colour":"#f5a520","_label":"Mining Lease"}},{"type":"Feature","geometry":{"type":"Polygon","coordinates":[[[121.27543752675838,-30.818645531261783],[121.27722345022191,-30.822460274341324],[121.28541801331323,-30.839959326312016],[121.29396297296972,-30.836963115080117],[121.28853685694087,-30.82545323626479],[121.28354290696652,-30.814739678934767],[121.27543752675838,-30.818645531261783]]]},"properties":{"fmt_tenid":"M 15/837","type":"MINING LEASE","tenstatus":"LIVE","holder1":"EVOLUTION MINING (MUNGARI) PTY LTD","holder2":" ","legal_area":229.25,"unit_of_me":"HA.","_colour":"#f5a520","_label":"Mining Lease"}},{"type":"Feature","geometry":{"type":"Polygon","coordinates":[[[121.01519674907881,-30.587950227847134],[121.01173987631358,-30.589135175282774],[121.01020060128099,-30.589645519072377],[121.01061055680138,-30.590386028622966],[121.01208073751808,-30.58984396847068],[121.01256451505525,-30.590849886000804],[121.01577576669045,-30.589885144117975],[121.01967059687439,-30.589395957266227],[121.01952460459208,-30.588777785089132],[121.01921424673249,-30.58746361246505],[121.01519674907881,-30.587950227847134]]]},"properties":{"fmt_tenid":"M 16/16","type":"MINING LEASE","tenstatus":"LIVE","holder1":"EVOLUTION MINING (PHOENIX) PTY LTD","holder2":" ","legal_area":17.04,"unit_of_me":"HA.","_colour":"#f5a520","_label":"Mining Lease"}},{"type":"Feature","geometry":{"type":"Polygon","coordinates":[[[120.88181790172135,-30.451651280452506],[120.87653933429117,-30.457376976818136],[120.88462713594397,-30.463590750444514],[120.88996781662337,-30.45779491032252],[120.90155041808305,-30.466048605999838],[120.90678153097042,-30.460763765080408],[120.90770270371956,-30.45983299588519],[120.88833265033163,-30.44527075526925],[120.88181790172135,-30.451651280452506]]]},"properties":{"fmt_tenid":"M 16/187","type":"MINING LEASE","tenstatus":"LIVE","holder1":"EVOLUTION MINING (PHOENIX) PTY LTD","holder2":" ","legal_area":315.55,"unit_of_me":"HA.","_colour":"#f5a520","_label":"Mining Lease"}},{"type":"Feature","geometry":{"type":"Polygon","coordinates":[[[121.12306705642277,-30.577505896457847],[121.11649240864634,-30.58499924492682],[121.12584618885643,-30.590729579805654],[121.13171615026822,-30.58370696013031],[121.12306705642277,-30.577505896457847]]]},"properties":{"fmt_tenid":"M 16/19","type":"MINING LEASE","tenstatus":"LIVE","holder1":"CEREP PTY LTD","holder2":"EVOLUTION MINING (PHOENIX) PTY LTD","legal_area":109.05,"unit_of_me":"HA.","_colour":"#f5a520","_label":"Mining Lease"}},{"type":"Feature","geometry":{"type":"Polygon","coordinates":[[[121.05826637135647,-30.631488124497114],[121.05800246498512,-30.64249037880964],[121.06839097983081,-30.642484304719094],[121.07877844665867,-30.642476842186856],[121.07901821392508,-30.631663732198756],[121.05826637135647,-30.631488124497114]]]},"properties":{"fmt_tenid":"M 16/199","type":"MINING LEASE","tenstatus":"LIVE","holder1":"EVOLUTION MINING (PHOENIX) PTY LTD","holder2":" ","legal_area":240.75,"unit_of_me":"HA.","_colour":"#f5a520","_label":"Mining Lease"}},{"type":"Feature","geometry":{"type":"Polygon","coordinates":[[[121.07877844665867,-30.642476842186856],[121.0788006185527,-30.653438237612175],[121.0854433129665,-30.65916866972618],[121.08543972526263,-30.664431936758792],[121.0787692100625,-30.664444129112866],[121.07881187483538,-30.675446910027812],[121.07881625783698,-30.67544694403307],[121.07962167712137,-30.675453264003],[121.08917906030182,-30.67543049507391],[121.08914484868534,-30.66442517087644],[121.08905883874516,-30.664425330036245],[121.08904004596432,-30.653422655285624],[121.08917981037807,-30.653422464449104],[121.08914343635334,-30.642469416986863],[121.07877844665867,-30.642476842186856]]]},"properties":{"fmt_tenid":"M 16/200","type":"MINING LEASE","tenstatus":"LIVE","holder1":"EVOLUTION MINING (PHOENIX) PTY LTD","holder2":" ","legal_area":304.5,"unit_of_me":"HA.","_colour":"#f5a520","_label":"Mining Lease"}},{"type":"Feature","geometry":{"type":"MultiPolygon","coordinates":[[[[121.01061055680138,-30.590386028622966],[121.01130384273719,-30.591638291637036],[121.01019284724269,-30.591896784586183],[121.01328971359663,-30.59848247202665],[121.01390989641304,-30.59980134595681],[121.02549771463963,-30.595720948906845],[121.02184507914654,-30.587960693753818],[121.01952460459208,-30.588777785089132],[121.01967059687439,-30.589395957266227],[121.01577576669045,-30.589885144117975],[121.01256451505525,-30.590849886000804],[121.01208073751808,-30.58984396847068],[121.01061055680138,-30.590386028622966]]],[[[121.00806114042491,-30.58736307510344],[121.00923926097822,-30.589869221428312],[121.01020060128099,-30.589645519072377],[121.01173987631358,-30.589135175282774],[121.01519674907881,-30.587950227847134],[121.01394752319406,-30.585292496990746],[121.00806114042491,-30.58736307510344]]]]},"properties":{"fmt_tenid":"M 16/215","type":"MINING LEASE","tenstatus":"LIVE","holder1":"EVOLUTION MINING (PHOENIX) PTY LTD","holder2":" ","legal_area":133.2,"unit_of_me":"HA.","_colour":"#f5a520","_label":"Mining Lease"}},{"type":"Feature","geometry":{"type":"Polygon","coordinates":[[[121.02583526873585,-30.541556268711155],[121.0286131742212,-30.544490869821423],[121.04529875505395,-30.562113248218672],[121.0532005897237,-30.55622248446315],[121.04164314200628,-30.54517619727937],[121.03279870248616,-30.536720570585793],[121.02583526873585,-30.541556268711155]]]},"properties":{"fmt_tenid":"M 16/344","type":"MINING LEASE","tenstatus":"LIVE","holder1":"EVOLUTION MINING (PHOENIX) PTY LTD","holder2":" ","legal_area":272.1,"unit_of_me":"HA.","_colour":"#f5a520","_label":"Mining Lease"}},{"type":"Feature","geometry":{"type":"Polygon","coordinates":[[[121.00726644126199,-30.592577613351533],[121.01019284724269,-30.591896784586183],[121.01130384273719,-30.591638291637036],[121.01061055680138,-30.590386028622966],[121.01020060128099,-30.589645519072377],[121.00923926097822,-30.589869221428312],[121.00616360754222,-30.590584785620763],[121.00726644126199,-30.592577613351533]]]},"properties":{"fmt_tenid":"M 16/444","type":"MINING LEASE","tenstatus":"LIVE","holder1":"EVOLUTION MINING (PHOENIX) PTY LTD","holder2":" ","legal_area":9.661,"unit_of_me":"HA.","_colour":"#f5a520","_label":"Mining Lease"}},{"type":"Feature","geometry":{"type":"Polygon","coordinates":[[[121.06839097983081,-30.642484304719094],[121.06840984784841,-30.6534499959246],[121.06827997381255,-30.6534502937284],[121.06829915906874,-30.66446311787295],[121.06839151308878,-30.664462954003668],[121.07867223444326,-30.6644443062921],[121.0787692100625,-30.664444129112866],[121.08543972526263,-30.664431936758792],[121.0854433129665,-30.65916866972618],[121.0788006185527,-30.653438237612175],[121.07877844665867,-30.642476842186856],[121.06839097983081,-30.642484304719094]]]},"properties":{"fmt_tenid":"M 16/527","type":"MINING LEASE","tenstatus":"LIVE","holder1":"EVOLUTION MINING (PHOENIX) PTY LTD","holder2":" ","legal_area":301.5,"unit_of_me":"HA.","_colour":"#f5a520","_label":"Mining Lease"}},{"type":"Feature","geometry":{"type":"Polygon","coordinates":[[[121.12706795901373,-30.57036588595154],[121.12007190195797,-30.5658665733247],[121.11158922094172,-30.576620328514608],[121.10868318665374,-30.580302991862876],[121.11542347509946,-30.58482525133398],[121.1252092859581,-30.591467549515084],[121.12584618885643,-30.590729579805654],[121.11649240864634,-30.58499924492682],[121.12306705642277,-30.577505896457847],[121.13171615026822,-30.58370696013031],[121.13930175321856,-30.578552377198218],[121.12706795901373,-30.57036588595154]]]},"properties":{"fmt_tenid":"M 16/535","type":"MINING LEASE","tenstatus":"LIVE","holder1":"EVOLUTION MINING (PHOENIX) PTY LTD","holder2":" ","legal_area":300.2,"unit_of_me":"HA.","_colour":"#f5a520","_label":"Mining Lease"}},{"type":"Feature","geometry":{"type":"Polygon","coordinates":[[[120.99568640300909,-30.620483726769198],[120.9956377509182,-30.631489089731225],[121.00612040991834,-30.6314931622654],[121.01417958779341,-30.631497120730536],[121.00614169368224,-30.620490281750403],[120.99568640300909,-30.620483726769198]]]},"properties":{"fmt_tenid":"M 16/536","type":"MINING LEASE","tenstatus":"LIVE","holder1":"EVOLUTION MINING (PHOENIX) PTY LTD","holder2":" ","legal_area":169.6,"unit_of_me":"HA.","_colour":"#f5a520","_label":"Mining Lease"}},{"type":"Feature","geometry":{"type":"Polygon","coordinates":[[[120.99708781696937,-30.58750308229822],[120.99555314105447,-30.59846393937851],[121.00605849010331,-30.59847892636427],[121.01328971359663,-30.59848247202665],[121.01019284724269,-30.591896784586183],[121.00726644126199,-30.592577613351533],[121.00616360754222,-30.590584785620763],[121.00923926097822,-30.589869221428312],[121.00806114042491,-30.58736307510344],[121.00518178960861,-30.58842017703779],[121.00473097826705,-30.58750103582934],[120.99708781696937,-30.58750308229822]]]},"properties":{"fmt_tenid":"M 16/538","type":"MINING LEASE","tenstatus":"LIVE","holder1":"EVOLUTION MINING (PHOENIX) PTY LTD","holder2":" ","legal_area":159.3,"unit_of_me":"HA.","_colour":"#f5a520","_label":"Mining Lease"}},{"type":"Feature","geometry":{"type":"Polygon","coordinates":[[[121.09506196080298,-30.595976854463885],[121.09941992277827,-30.598419361618653],[121.09937902909203,-30.600027608946533],[121.12098961055244,-30.599955894818017],[121.13653253722957,-30.609352766861267],[121.15389817177753,-30.61984726018667],[121.14737541804574,-30.62776059089847],[121.1628318234487,-30.636739533806757],[121.16665089546545,-30.641616492262564],[121.16657989977648,-30.662596086845113],[121.17166857099502,-30.662644461303074],[121.18070051339133,-30.64583439352733],[121.17697315651368,-30.64358428649034],[121.18313846431784,-30.639679586894108],[121.18723583547205,-30.63708469049878],[121.18315024755746,-30.632130214866113],[121.17507258535124,-30.62254043921321],[121.18191646054964,-30.613816857036223],[121.18191862043317,-30.60383149237304],[121.16157426689796,-30.591539248246626],[121.15514961239094,-30.588138282571045],[121.13930175321856,-30.578552377198218],[121.13171615026822,-30.58370696013031],[121.12584618885643,-30.590729579805654],[121.1252092859581,-30.591467549515084],[121.11542347509946,-30.58482525133398],[121.10868318665374,-30.580302991862876],[121.10173104388143,-30.58830365079157],[121.09506196080298,-30.595976854463885]]]},"properties":{"fmt_tenid":"M 16/542","type":"MINING LEASE","tenstatus":"LIVE","holder1":"EVOLUTION MINING (PHOENIX) PTY LTD","holder2":" ","legal_area":2781,"unit_of_me":"HA.","_colour":"#f5a520","_label":"Mining Lease"}},{"type":"Feature","geometry":{"type":"Polygon","coordinates":[[[121.08019694931451,-30.541833543653038],[121.07309509727162,-30.547254234381793],[121.07311990682479,-30.5499257030059],[121.08212353465737,-30.548864044093804],[121.08154070255833,-30.55149332900096],[121.07999532299607,-30.558597798457082],[121.09250310895138,-30.560607238677115],[121.09506088286716,-30.561036530664385],[121.09706525664019,-30.56137290373984],[121.0976187321678,-30.56146581015473],[121.10017705150685,-30.561895214721307],[121.10273518867754,-30.56232453596358],[121.10494782294943,-30.562695828549707],[121.1064180011514,-30.555622818111104],[121.10801453968772,-30.548283711735447],[121.09548369958519,-30.54640633135889],[121.08770588538071,-30.545250663000534],[121.08805616339654,-30.542326219785558],[121.08822659276942,-30.535504648955115],[121.0858074091169,-30.53550405326072],[121.07347475432115,-30.535485585154984],[121.08019694931451,-30.541833543653038]]]},"properties":{"fmt_tenid":"M 16/544","type":"MINING LEASE","tenstatus":"LIVE","holder1":"EVOLUTION MINING (MUNGARI) PTY LTD","holder2":" ","legal_area":538.75,"unit_of_me":"HA.","_colour":"#f5a520","_label":"Mining Lease"}},{"type":"Feature","geometry":{"type":"Polygon","coordinates":[[[121.02872646031277,-30.5654685530081],[121.0269946036277,-30.565468218814935],[121.02692416832112,-30.570186560858303],[121.0164436058427,-30.570161835779334],[121.01644185413689,-30.576473513296087],[121.02163610439484,-30.576447193513875],[121.02478941840943,-30.57556051863886],[121.02623398681797,-30.57864220806419],[121.03299224568097,-30.576421925228118],[121.03713765999001,-30.58470315930844],[121.03062591339257,-30.58753126217363],[121.03721513398962,-30.587483742156532],[121.04760207506814,-30.587481379363535],[121.04760481488402,-30.598481219191026],[121.05797797255977,-30.598476374400892],[121.05794091664868,-30.58747571874416],[121.05793562714025,-30.582098068545182],[121.06828465091353,-30.58222308118996],[121.06831814547014,-30.570283504774483],[121.06019560339782,-30.573766872240906],[121.05827141481815,-30.57018424235594],[121.05291723927508,-30.570210869355023],[121.04529875505395,-30.562113248218672],[121.0286131742212,-30.544490869821423],[121.02872646031277,-30.5654685530081]]]},"properties":{"fmt_tenid":"M 16/545","type":"MINING LEASE","tenstatus":"LIVE","holder1":"EVOLUTION MINING (MUNGARI) PTY LTD","holder2":" ","legal_area":1128.5,"unit_of_me":"HA.","_colour":"#f5a520","_label":"Mining Lease"}},{"type":"Feature","geometry":{"type":"Polygon","coordinates":[[[121.01705058580443,-30.578181417084195],[121.02184507914654,-30.587960693753818],[121.02549771463963,-30.595720948906845],[121.01390989641304,-30.59980134595681],[121.0171914086031,-30.60694592968108],[121.02683126899844,-30.60335622084843],[121.026831829276,-30.59848315738896],[121.03723054234051,-30.59848023032663],[121.04760481488402,-30.598481219191026],[121.04760207506814,-30.587481379363535],[121.03721513398962,-30.587483742156532],[121.03062591339257,-30.58753126217363],[121.03713765999001,-30.58470315930844],[121.03299224568097,-30.576421925228118],[121.02623398681797,-30.57864220806419],[121.02478941840943,-30.57556051863886],[121.02163610439484,-30.576447193513875],[121.01705058580443,-30.578181417084195]]]},"properties":{"fmt_tenid":"M 16/546","type":"MINING LEASE","tenstatus":"LIVE","holder1":"EVOLUTION MINING (MUNGARI) PTY LTD","holder2":" ","legal_area":543.8,"unit_of_me":"HA.","_colour":"#f5a520","_label":"Mining Lease"}},{"type":"Feature","geometry":{"type":"Polygon","coordinates":[[[121.07305554614175,-30.558292217413598],[121.07528073319125,-30.559755232367323],[121.10868318665374,-30.580302991862876],[121.11158922094172,-30.576620328514608],[121.09361235923721,-30.56567154281676],[121.09706525664019,-30.56137290373984],[121.09506088286716,-30.561036530664385],[121.09250310895138,-30.560607238677115],[121.07999532299607,-30.558597798457082],[121.08154070255833,-30.55149332900096],[121.08212353465737,-30.548864044093804],[121.07311990682479,-30.5499257030059],[121.07305554614175,-30.558292217413598]]]},"properties":{"fmt_tenid":"M 16/547","type":"MINING LEASE","tenstatus":"LIVE","holder1":"EVOLUTION MINING (PHOENIX) PTY LTD","holder2":" ","legal_area":299.15,"unit_of_me":"HA.","_colour":"#f5a520","_label":"Mining Lease"}},{"type":"Feature","geometry":{"type":"Polygon","coordinates":[[[121.00806114042494,-30.587363080103458],[121.01394752019405,-30.585292499990704],[121.0151967500788,-30.58795022984717],[121.01921424973247,-30.58746361046508],[121.01952459959199,-30.588777780089096],[121.02184508014653,-30.587960689753864],[121.01705058980437,-30.578181420084196],[121.01182567003816,-30.58010041644368],[121.00911494592111,-30.581096006090743],[121.00599285376984,-30.582242682003105],[121.00273780043769,-30.583438190416842],[121.00473098026706,-30.587501039829377],[121.00518178960861,-30.588420180037765],[121.00806114042494,-30.587363080103458]]]},"properties":{"fmt_tenid":"M 16/562","type":"MINING LEASE","tenstatus":"LIVE","holder1":"EVOLUTION MINING (PHOENIX) PTY LTD","holder2":" ","legal_area":116.25766999999999,"unit_of_me":"HA.","_colour":"#f5a520","_label":"Mining Lease"}},{"type":"Feature","geometry":{"type":"Polygon","coordinates":[[[121.12376943558154,-30.701393539398598],[121.1204909559565,-30.697338437108197],[121.11008760984824,-30.69736738043479],[121.1101309202121,-30.708361980324124],[121.12050688967678,-30.708333389530715],[121.12051893270227,-30.708335580519318],[121.12051888969334,-30.708326139508898],[121.13091220095977,-30.710226625726737],[121.12376943558154,-30.701393539398598]]]},"properties":{"fmt_tenid":"M 16/565","type":"MINING LEASE","tenstatus":"LIVE","holder1":"EVOLUTION MINING (PHOENIX) PTY LTD","holder2":" ","legal_area":182.00408,"unit_of_me":"HA.","_colour":"#f5a520","_label":"Mining Lease"}},{"type":"Feature","geometry":{"type":"Polygon","coordinates":[[[120.88333332989633,-30.47750384222694],[120.89897995546872,-30.479924116927087],[120.9024553058843,-30.475434774356206],[120.89673815473908,-30.471283170898776],[120.89135465197266,-30.46737332525057],[120.88779634981789,-30.465373469012132],[120.88670297477547,-30.464758466537102],[120.88462713794395,-30.46359075344449],[120.88333333329497,-30.46259673450935],[120.88333332989633,-30.47750384222694]]]},"properties":{"fmt_tenid":"M 16/580","type":"MINING LEASE","tenstatus":"LIVE","holder1":"EVOLUTION MINING (PHOENIX) PTY LIMITED","holder2":" ","legal_area":198.8719,"unit_of_me":"HA.","_colour":"#f5a520","_label":"Mining Lease"}},{"type":"Feature","geometry":{"type":"Polygon","coordinates":[[[120.98731316415379,-30.312760209075392],[120.98497507850661,-30.312587152305102],[120.98495992133175,-30.314856519968007],[120.98495554710577,-30.31551139898287],[120.98714539523877,-30.315850849125226],[120.98731316415379,-30.312760209075392]]]},"properties":{"fmt_tenid":"M 24/980","type":"MINING LEASE","tenstatus":"LIVE","holder1":"EVOLUTION MINING (PHOENIX) PTY LTD","holder2":" ","legal_area":7.28627,"unit_of_me":"HA.","_colour":"#f5a520","_label":"Mining Lease"}}]}