{"type":"FeatureCollection","_source":"Multi-state Australian tenement registry","_holders":["GASCOYNE RESOURCES (WA) PTY LTD","DALGARANGA EXPLORATION PTY LTD","DALGARANGA RESOURCES PTY LTD"],"_ticker":"GCY.AX","features":[{"type":"Feature","geometry":{"type":"MultiPolygon","coordinates":[[[[116.04999999953841,-25.41212116750926],[116.07899282599249,-25.401047467990278],[116.07380911807213,-25.390517418629493],[116.15711897516657,-25.357162545590555],[116.16666666743929,-25.376512729952502],[116.16666666732112,-25.366666666689028],[116.18333333347846,-25.366666667323393],[116.19999999972006,-25.366666667301416],[116.19999999993992,-25.35000000043299],[116.18333333262161,-25.350000000052866],[116.16666666715109,-25.350000000030377],[116.14999999964103,-25.35000000006533],[116.133333332935,-25.350000000222334],[116.11666666726444,-25.34999999971632],[116.10000000011104,-25.349999999916395],[116.09999999981159,-25.366666666792543],[116.08333333332251,-25.366666667234266],[116.06666666710237,-25.366666666767962],[116.0499999995604,-25.366666667104553],[116.04999999983521,-25.38333333262126],[116.05000000017972,-25.400000000194225],[116.04999999953841,-25.41212116750926]]],[[[116.03333333275498,-25.41666666728139],[116.03333333289699,-25.433333333486182],[116.0499999996406,-25.433333333494396],[116.06666666711924,-25.43333333278882],[116.08333333347869,-25.433333333295042],[116.09999999998898,-25.433333332656463],[116.10000000025157,-25.416666667020664],[116.11666666699554,-25.41666666728489],[116.11666666702148,-25.39999999959052],[116.13333333272857,-25.400000000102654],[116.13333333251627,-25.390126146273914],[116.08364419790048,-25.4100377715936],[116.0884122906712,-25.420136890893136],[116.05548064011667,-25.43329941893789],[116.04772648455048,-25.41666668132806],[116.03333333275498,-25.41666666728139]]],[[[116.15028468599331,-25.383333332687478],[116.16666666702248,-25.383333332656495],[116.16666666721406,-25.37676240557877],[116.15090354286056,-25.383085342329],[116.15028468599331,-25.383333332687478]]]]},"properties":{"fmt_tenid":"E 09/1325","type":"EXPLORATION LICENCE","tenstatus":"LIVE","holder1":"GASCOYNE RESOURCES (WA) PTY LTD","holder2":" ","legal_area":26,"unit_of_me":"BL.","_colour":"#a0c4f0","_label":"Exploration Licence"}},{"type":"Feature","geometry":{"type":"Polygon","coordinates":[[[116.05000000040424,-25.450000000332285],[116.06666666712158,-25.45000000041861],[116.08333333327796,-25.450000000442117],[116.08333333347869,-25.433333333295042],[116.06666666711924,-25.43333333278882],[116.0499999996406,-25.433333333494396],[116.03333333289699,-25.433333333486182],[116.03333333275498,-25.41666666728139],[116.01666666740327,-25.41666666671555],[116.0166666672488,-25.43333333304036],[116.01666666662923,-25.450000000322074],[116.03333333344811,-25.449999999528142],[116.05000000040424,-25.450000000332285]]]},"properties":{"fmt_tenid":"E 09/1764","type":"EXPLORATION LICENCE","tenstatus":"LIVE","holder1":"GASCOYNE RESOURCES (WA) PTY LTD","holder2":" ","legal_area":5,"unit_of_me":"BL.","_colour":"#a0c4f0","_label":"Exploration Licence"}},{"type":"Feature","geometry":{"type":"Polygon","coordinates":[[[116.19999999993992,-25.35000000043299],[116.19999999972006,-25.366666667301416],[116.21666666669138,-25.366666667156178],[116.2166666669956,-25.349999999662757],[116.21666666711246,-25.333333332892035],[116.1999999999716,-25.333333333316904],[116.18333333293259,-25.333333332936917],[116.1666666666463,-25.333333333200475],[116.16666666715109,-25.350000000030377],[116.18333333262161,-25.350000000052866],[116.19999999993992,-25.35000000043299]]]},"properties":{"fmt_tenid":"E 09/1865","type":"EXPLORATION LICENCE","tenstatus":"LIVE","holder1":"GASCOYNE RESOURCES (WA) PTY LTD","holder2":" ","legal_area":4,"unit_of_me":"BL.","_colour":"#a0c4f0","_label":"Exploration Licence"}},{"type":"Feature","geometry":{"type":"Polygon","coordinates":[[[116.16666666702248,-25.383333332656495],[116.18333333297839,-25.383333332849418],[116.18333333347846,-25.366666667323393],[116.16666666732112,-25.366666666689028],[116.16666666743929,-25.376512729952502],[116.16676950735177,-25.376721154684766],[116.16666666721406,-25.37676240557877],[116.16666666702248,-25.383333332656495]]]},"properties":{"fmt_tenid":"E 09/1866","type":"EXPLORATION LICENCE","tenstatus":"LIVE","holder1":"GASCOYNE RESOURCES (WA) PTY LTD","holder2":" ","legal_area":1,"unit_of_me":"BL.","_colour":"#a0c4f0","_label":"Exploration Licence"}},{"type":"Feature","geometry":{"type":"MultiPolygon","coordinates":[[[[116.21666666739425,-25.54999999989977],[116.21666666719223,-25.533333332913433],[116.23333333347388,-25.533333333218295],[116.2500000004528,-25.53333333346104],[116.26666666666618,-25.53333333265473],[116.2666666665531,-25.516666667157665],[116.26666666698091,-25.50000000040617],[116.24999999981374,-25.500000000000846],[116.23333333304791,-25.500000000179377],[116.21666666691664,-25.500000000101597],[116.19999999967366,-25.499999999912323],[116.1833333329227,-25.49999999955092],[116.16666666697097,-25.499999999777113],[116.14999999993448,-25.49999999978546],[116.13333333298495,-25.499999999590944],[116.11666666715348,-25.499999999547704],[116.11666666736106,-25.516666667487975],[116.11666666707153,-25.53333333336702],[116.13333333324205,-25.533333332915838],[116.1333333326532,-25.549999999812872],[116.15000000031894,-25.55000000004853],[116.16666666714103,-25.550000000361777],[116.18333333310662,-25.549999999727472],[116.19999999986814,-25.550000000047703],[116.21666666739425,-25.54999999989977]]],[[[116.29999999994541,-25.416666666935352],[116.29999999958156,-25.399999999794225],[116.3000000001332,-25.383333333006355],[116.29999999959804,-25.366666667126772],[116.2833333332849,-25.36666666663899],[116.26666666664407,-25.366666667111538],[116.25000000002002,-25.366666666739103],[116.249999999662,-25.383333332593335],[116.24999999959448,-25.39999999996949],[116.24999999965932,-25.416666666811963],[116.26666666701068,-25.41666666744067],[116.28333333287647,-25.416666667086506],[116.29999999994541,-25.416666666935352]]],[[[116.31666666679938,-25.48333333263288],[116.3166666673459,-25.466666667073426],[116.31666666677233,-25.45000000040665],[116.3000000001772,-25.449999999922913],[116.28333333345947,-25.449999999823408],[116.28333333318838,-25.46666666744068],[116.28333333324326,-25.48333333280783],[116.30000000023279,-25.483333333160157],[116.31666666679938,-25.48333333263288]]]]},"properties":{"fmt_tenid":"E 09/2025","type":"EXPLORATION LICENCE","tenstatus":"LIVE","holder1":"GASCOYNE RESOURCES (WA) PTY LTD","holder2":" ","legal_area":36,"unit_of_me":"BL.","_colour":"#a0c4f0","_label":"Exploration Licence"}},{"type":"Feature","geometry":{"type":"MultiPolygon","coordinates":[[[[116.28333333333724,-25.28333333279726],[116.26666666710238,-25.28333333323076],[116.24999999999213,-25.28333333320563],[116.2333333329056,-25.28333333285769],[116.21666666685137,-25.283333333219847],[116.21666666688623,-25.30000000042364],[116.20000000011089,-25.300000000381115],[116.19999999975819,-25.316666666811425],[116.1833333329099,-25.31666666667661],[116.16666666667842,-25.316666667375138],[116.15000000041418,-25.31666666650677],[116.15000000017648,-25.33333333337821],[116.13333333326261,-25.333333333047474],[116.116666666787,-25.333333333389735],[116.1000000003964,-25.33333333313235],[116.08333333320053,-25.333333333282038],[116.08333333327501,-25.35000000019909],[116.06666666679115,-25.350000000000804],[116.05000000035564,-25.3499999999559],[116.03333333267447,-25.349999999688396],[116.03333333321909,-25.366666667084537],[116.03333333295882,-25.383333333160014],[116.03333333290963,-25.400000000246795],[116.01666666716896,-25.39999999988083],[116.00000000031858,-25.39999999993454],[115.9999999997474,-25.416666666864838],[115.99999999978813,-25.433333333279652],[116.0000000003538,-25.449999999654295],[116.01666666662923,-25.450000000322074],[116.0166666672488,-25.43333333304036],[116.01666666740327,-25.41666666671555],[116.03333333275498,-25.41666666728139],[116.05000000037784,-25.416666666618237],[116.04999999953841,-25.41212116750926],[116.05000000017972,-25.400000000194225],[116.04999999983521,-25.38333333262126],[116.0499999995604,-25.366666667104553],[116.06666666710237,-25.366666666767962],[116.08333333332251,-25.366666667234266],[116.09999999981159,-25.366666666792543],[116.10000000011104,-25.349999999916395],[116.11666666726444,-25.34999999971632],[116.133333332935,-25.350000000222334],[116.14999999964103,-25.35000000006533],[116.16666666715109,-25.350000000030377],[116.1666666666463,-25.333333333200475],[116.18333333293259,-25.333333332936917],[116.1999999999716,-25.333333333316904],[116.21666666711246,-25.333333332892035],[116.2166666669956,-25.349999999662757],[116.21666666669138,-25.366666667156178],[116.19999999972006,-25.366666667301416],[116.18333333347846,-25.366666667323393],[116.18333333297839,-25.383333332849418],[116.16666666702248,-25.383333332656495],[116.15028468599331,-25.383333332687478],[116.13333333251627,-25.390126146273914],[116.13333333272857,-25.400000000102654],[116.11666666702148,-25.39999999959052],[116.11666666699554,-25.41666666728489],[116.10000000025157,-25.416666667020664],[116.09999999998898,-25.433333332656463],[116.08333333347869,-25.433333333295042],[116.08333333327796,-25.450000000442117],[116.083333333458,-25.46666666704261],[116.08333333315825,-25.483333332820354],[116.08333333252457,-25.499999999564047],[116.10000000002552,-25.499999999746215],[116.100000000308,-25.483333333345076],[116.1000000004175,-25.466666667325306],[116.09999999969287,-25.450000000403268],[116.11666666716017,-25.450000000302175],[116.11666666745329,-25.433333332880057],[116.133333332846,-25.43333333287009],[116.14999999998878,-25.433333332845727],[116.14999999988316,-25.4166666673812],[116.16666666718602,-25.416666666633294],[116.18333333301554,-25.41666666668654],[116.2000000002536,-25.41666666676265],[116.19999999986798,-25.40000000029855],[116.21666666667922,-25.400000000293417],[116.23333333346375,-25.400000000080734],[116.24999999959448,-25.39999999996949],[116.249999999662,-25.383333332593335],[116.25000000002002,-25.366666666739103],[116.26666666664407,-25.366666667111538],[116.2833333332849,-25.36666666663899],[116.29999999959804,-25.366666667126772],[116.31666666744984,-25.366666667087305],[116.31666666663035,-25.349999999720914],[116.3166666666963,-25.333333332502075],[116.33333333287244,-25.333333333302253],[116.33333333330113,-25.31666666716767],[116.35000000008591,-25.31666666730152],[116.36666666736043,-25.316666666718696],[116.38333333308891,-25.31666666657752],[116.40000000021665,-25.316666667343053],[116.40000000004751,-25.333333332825596],[116.40000000048816,-25.35000000023267],[116.41666666722575,-25.34999999961999],[116.43333333347822,-25.350000000265705],[116.44999999960694,-25.350000000094465],[116.46666666723961,-25.349999999817005],[116.46666666716503,-25.33333333256253],[116.46666666706852,-25.316666666618215],[116.46666666673885,-25.300000000260113],[116.44999999958941,-25.30000000049724],[116.43333333341047,-25.30000000040253],[116.4166666674016,-25.300000000163713],[116.3999999995271,-25.300000000154288],[116.38333333321532,-25.30000000001436],[116.36666666732053,-25.300000000121926],[116.350000000171,-25.299999999544372],[116.33333333319057,-25.300000000060432],[116.31666666734728,-25.299999999769433],[116.29999999963297,-25.299999999822997],[116.28333333305434,-25.3000000003386],[116.28333333333724,-25.28333333279726]]],[[[116.26666666698091,-25.50000000040617],[116.28333333340929,-25.4999999999915],[116.30000000020904,-25.50000000041003],[116.3166666673008,-25.500000000253483],[116.33333333290811,-25.499999999830276],[116.35000000021464,-25.499999999985477],[116.34999999992566,-25.48333333257987],[116.34999999982465,-25.466666667357224],[116.35000000006193,-25.449999999592208],[116.33333333309243,-25.450000000032688],[116.31666666677233,-25.45000000040665],[116.3166666673459,-25.466666667073426],[116.31666666679938,-25.48333333263288],[116.30000000023279,-25.483333333160157],[116.28333333324326,-25.48333333280783],[116.26666666676829,-25.483333332724],[116.25000000014865,-25.483333333294876],[116.24999999981374,-25.500000000000846],[116.26666666698091,-25.50000000040617]]]]},"properties":{"fmt_tenid":"E 09/2148","type":"EXPLORATION LICENCE","tenstatus":"LIVE","holder1":"GASCOYNE RESOURCES (WA) PTY LTD","holder2":" ","legal_area":101,"unit_of_me":"BL.","_colour":"#a0c4f0","_label":"Exploration Licence"}},{"type":"Feature","geometry":{"type":"Polygon","coordinates":[[[116.46666666740447,-24.26666666673987],[116.4500000001059,-24.266666666737105],[116.43333333310973,-24.266666666877647],[116.4166666667253,-24.26666666721414],[116.3999999996038,-24.26666666729871],[116.38333333334525,-24.26666666749496],[116.36666666749905,-24.266666666766312],[116.35000000013359,-24.26666666716541],[116.3333333329264,-24.26666666708553],[116.31666666734074,-24.266666666775485],[116.30000000043705,-24.26666666679208],[116.28333333291906,-24.26666666669113],[116.28333333341286,-24.28333333273628],[116.28333333274013,-24.29999999975209],[116.28333333318403,-24.31666666672391],[116.28333333335401,-24.333333332971357],[116.29999999967983,-24.333333332759363],[116.3166666670094,-24.333333332886586],[116.33333333343738,-24.333333333479796],[116.35000000033448,-24.333333332665106],[116.36666666653241,-24.333333333176455],[116.38333333279641,-24.333333332594435],[116.39999999959906,-24.333333333226978],[116.41666666659906,-24.33333333309262],[116.43333333341654,-24.333333333165683],[116.44999999998188,-24.333333333122624],[116.44999999954949,-24.350000000369146],[116.46666666679589,-24.350000000123348],[116.48333333297329,-24.349999999717884],[116.49999999991483,-24.34999999988545],[116.50000000040039,-24.333333333356762],[116.4999999999153,-24.316666667331532],[116.50000000027687,-24.29999999979464],[116.49999999978833,-24.28333333252183],[116.48333333310207,-24.283333332905617],[116.46666666718906,-24.283333333453605],[116.46666666740447,-24.26666666673987]],[[116.4499999999072,-24.300000000151663],[116.46666666745253,-24.299999999877333],[116.4666666668489,-24.31666666698166],[116.45000000011954,-24.31666666734347],[116.4499999999072,-24.300000000151663]]]},"properties":{"fmt_tenid":"E 09/2352","type":"EXPLORATION LICENCE","tenstatus":"LIVE","holder1":"GASCOYNE RESOURCES (WA) PTY LTD","holder2":" ","legal_area":52,"unit_of_me":"BL.","_colour":"#a0c4f0","_label":"Exploration Licence"}},{"type":"Feature","geometry":{"type":"Polygon","coordinates":[[[116.11666666715348,-25.499999999547704],[116.13333333298495,-25.499999999590944],[116.14999999993448,-25.49999999978546],[116.16666666697097,-25.499999999777113],[116.16666666734314,-25.48333333335555],[116.1499999996913,-25.48333333339771],[116.13333333302204,-25.483333333143168],[116.11666666653007,-25.483333333140457],[116.100000000308,-25.483333333345076],[116.10000000002552,-25.499999999746215],[116.11666666715348,-25.499999999547704]]]},"properties":{"fmt_tenid":"E 09/2730","type":"EXPLORATION LICENCE","tenstatus":"LIVE","holder1":"GASCOYNE RESOURCES (WA) PTY LTD","holder2":" ","legal_area":4,"unit_of_me":"BL.","_colour":"#a0c4f0","_label":"Exploration Licence"}},{"type":"Feature","geometry":{"type":"Polygon","coordinates":[[[118.26666666685284,-25.549999999661285],[118.28333333272931,-25.550000000336535],[118.28333333258011,-25.533333333256785],[118.28333333284705,-25.51666666711108],[118.28333333272492,-25.50000000036423],[118.28333333313289,-25.48333333325576],[118.26666666743178,-25.48333333347602],[118.26666666657543,-25.499999999867022],[118.2666666666583,-25.51666666703349],[118.25000000003122,-25.51666666661532],[118.25000000004997,-25.53333333266448],[118.24999999953376,-25.54999999959416],[118.26666666685284,-25.549999999661285]]]},"properties":{"fmt_tenid":"E 52/4517","type":"EXPLORATION LICENCE","tenstatus":"LIVE","holder1":"DALGARANGA RESOURCES PTY LTD","holder2":" ","legal_area":6,"unit_of_me":"BL.","_colour":"#a0c4f0","_label":"Exploration Licence"}},{"type":"Feature","geometry":{"type":"Polygon","coordinates":[[[117.15000000016924,-27.800000000065882],[117.15000000047628,-27.816666667264723],[117.16666666687803,-27.816666666925343],[117.1666666665175,-27.80000000033279],[117.18333333276757,-27.799999999786323],[117.18333333298024,-27.783333332939893],[117.20000000047136,-27.78333333333014],[117.19999999955705,-27.766666667167794],[117.2166666670186,-27.766666666593437],[117.233333333231,-27.766666666913075],[117.23333333322361,-27.783333332701286],[117.2166666670453,-27.783333333466093],[117.21666666694257,-27.799999999841408],[117.23333333336588,-27.80000000037257],[117.25000000006074,-27.79999999962943],[117.25000000001367,-27.783333333129118],[117.26666666680701,-27.783333332835742],[117.28333333255331,-27.78333333346525],[117.29999999988279,-27.783333332956804],[117.31666666745532,-27.783333332692298],[117.31666666744826,-27.766666667495535],[117.30000000022238,-27.76666666692962],[117.28333333326998,-27.766666666809435],[117.26666666688182,-27.766666667372313],[117.26666666697729,-27.74999999992626],[117.26666666684739,-27.73333333288388],[117.26666666701064,-27.716666667445985],[117.2500000003997,-27.71666666704621],[117.23333333297464,-27.71666666747223],[117.23333333343444,-27.73333333340842],[117.21666666742136,-27.73333333333368],[117.19999999960044,-27.733333332718146],[117.18333333290938,-27.733333333407398],[117.18333333315411,-27.75000000037496],[117.16666666693709,-27.75000000026743],[117.16666666713557,-27.766666667173705],[117.14999999976335,-27.766666667260985],[117.14999999957665,-27.78333333303266],[117.15000000016924,-27.800000000065882]]]},"properties":{"fmt_tenid":"E 59/2053","type":"EXPLORATION LICENCE","tenstatus":"LIVE","holder1":"DALGARANGA EXPLORATION PTY LTD","holder2":" ","legal_area":26,"unit_of_me":"BL.","_colour":"#a0c4f0","_label":"Exploration Licence"}},{"type":"Feature","geometry":{"type":"Polygon","coordinates":[[[116.98333333324268,-27.91666666718007],[116.99999999965443,-27.91666666738953],[117.01666666718637,-27.91666666670771],[117.03333333336393,-27.916666667439607],[117.05000000034995,-27.916666667445835],[117.06666666699655,-27.916666666772525],[117.08333333306086,-27.916666666789865],[117.08333333308195,-27.899999999848177],[117.06666666677938,-27.900000000326294],[117.04999999994989,-27.900000000214742],[117.03333333299392,-27.90000000016572],[117.01666666692468,-27.90000000015318],[117.00000000043387,-27.90000000018306],[116.9833333332032,-27.89999999960265],[116.96666666715598,-27.900000000371715],[116.9666666668124,-27.91666666715567],[116.98333333324268,-27.91666666718007]]]},"properties":{"fmt_tenid":"E 59/2289","type":"EXPLORATION LICENCE","tenstatus":"LIVE","holder1":"DALGARANGA EXPLORATION PTY LTD","holder2":" ","legal_area":7,"unit_of_me":"BL.","_colour":"#a0c4f0","_label":"Exploration Licence"}},{"type":"Feature","geometry":{"type":"Polygon","coordinates":[[[116.15711897516657,-25.357162545590555],[116.07380911807213,-25.390517418629493],[116.07899282599249,-25.401047467990278],[116.04999999953841,-25.41212116750926],[116.05000000037784,-25.416666666618237],[116.04772648455048,-25.41666668132806],[116.05548064011667,-25.43329941893789],[116.0884122906712,-25.420136890893136],[116.08364419790048,-25.4100377715936],[116.15090354286056,-25.383085342329],[116.16676950735177,-25.376721154684766],[116.15711897516657,-25.357162545590555]]]},"properties":{"fmt_tenid":"M 09/148","type":"MINING LEASE","tenstatus":"LIVE","holder1":"GASCOYNE RESOURCES (WA) PTY LTD","holder2":" ","legal_area":3021,"unit_of_me":"HA.","_colour":"#f5a520","_label":"Mining Lease"}}]}