{"type":"FeatureCollection","_source":"Multi-state Australian tenement registry","_holders":["GOLD ROAD (NORTH YAMARNA) PTY LTD","GOLD ROAD (GRUYERE) PTY LTD","GOLD ROAD (SOUTH YAMARNA) PTY LTD"],"_ticker":"GOR.AX","features":[{"type":"Feature","geometry":{"type":"Polygon","coordinates":[[[123.65140325054239,-28.03198871537594],[123.6347366879744,-28.031988901563036],[123.63473634488314,-28.015322151614654],[123.61806977639725,-28.01532233991435],[123.61806942784166,-27.998655590241075],[123.60140285245566,-27.998655777143977],[123.58473622173518,-27.998655950148958],[123.58473656270819,-28.01532270282829],[123.58473690423658,-28.03198945568429],[123.58473727262948,-28.05000007812371],[123.60000000047046,-28.050000000131188],[123.61666666693365,-28.049999999724402],[123.61666666749112,-28.06666666660283],[123.63329732120562,-28.066666669092704],[123.6499999954794,-28.066666670195605],[123.64999999616806,-28.065322305434183],[123.65140388537962,-28.06532220984988],[123.65140358787497,-28.048655464665625],[123.65140325054239,-28.03198871537594]]]},"properties":{"fmt_tenid":"E 38/1083","type":"EXPLORATION LICENCE","tenstatus":"LIVE","holder1":"GOLD ROAD (NORTH YAMARNA) PTY LTD","holder2":" ","legal_area":11,"unit_of_me":"BL.","_colour":"#a0c4f0","_label":"Exploration Licence"}},{"type":"Feature","geometry":{"type":"Polygon","coordinates":[[[123.56666666749038,-27.98333333288273],[123.56806918963416,-27.98333324102441],[123.5680695910747,-27.998656122531933],[123.58473622173518,-27.998655950148958],[123.60140285245566,-27.998655778144023],[123.61806942784166,-27.998655590241075],[123.61806894477012,-27.981988825824466],[123.60140236883215,-27.981989013298552],[123.60140188564047,-27.965322248448945],[123.60140140316845,-27.948655483477783],[123.60140099034031,-27.93198874041622],[123.58473442930236,-27.9319889509707],[123.56806786817481,-27.931989161074014],[123.55140130743813,-27.931989370653945],[123.55140134027494,-27.93333333257169],[123.54999999999025,-27.933333333138297],[123.54999999998562,-27.950000000467877],[123.55000000040756,-27.9666666671214],[123.5666870625265,-27.9666486441965],[123.56666666749038,-27.98333333288273]]]},"properties":{"fmt_tenid":"E 38/1388","type":"EXPLORATION LICENCE","tenstatus":"LIVE","holder1":"GOLD ROAD (NORTH YAMARNA) PTY LTD","holder2":" ","legal_area":11,"unit_of_me":"BL.","_colour":"#a0c4f0","_label":"Exploration Licence"}},{"type":"Feature","geometry":{"type":"Polygon","coordinates":[[[123.68333333317078,-28.083333333050213],[123.68333333287796,-28.09999999976496],[123.70000000040608,-28.100000000114342],[123.71666666737684,-28.100000000310224],[123.71666666682678,-28.083333333130735],[123.70000000008011,-28.083333333038187],[123.70000000002487,-28.066666667374335],[123.70000000037034,-28.050000000073055],[123.68333333279206,-28.050000000477283],[123.68333333346476,-28.066666666998902],[123.66666666742249,-28.06666666682858],[123.66666666663806,-28.083333333341763],[123.68333333317078,-28.083333333050213]]]},"properties":{"fmt_tenid":"E 38/1858","type":"EXPLORATION LICENCE","tenstatus":"LIVE","holder1":"GOLD ROAD (NORTH YAMARNA) PTY LTD","holder2":" ","legal_area":5,"unit_of_me":"BL.","_colour":"#a0c4f0","_label":"Exploration Licence"}},{"type":"Feature","geometry":{"type":"Polygon","coordinates":[[[123.71666666665574,-28.266666667096306],[123.71666666656924,-28.250000000061608],[123.7166666667242,-28.233333332516498],[123.716666666626,-28.2166666666532],[123.70000000044064,-28.216666666779172],[123.68333333329085,-28.21666666710738],[123.66666666676862,-28.216666667395565],[123.66666666740481,-28.233333333478974],[123.68333333293099,-28.233333332540784],[123.68333333286778,-28.249999999959297],[123.68333333289496,-28.266666666898423],[123.69999999982808,-28.266666666754602],[123.71666666665574,-28.266666667096306]]]},"properties":{"fmt_tenid":"E 38/1931","type":"EXPLORATION LICENCE","tenstatus":"LIVE","holder1":"GOLD ROAD (NORTH YAMARNA) PTY LTD","holder2":" ","legal_area":7,"unit_of_me":"BL.","_colour":"#a0c4f0","_label":"Exploration Licence"}},{"type":"Feature","geometry":{"type":"Polygon","coordinates":[[[123.61666666693365,-28.049999999724402],[123.60000000047046,-28.050000000131188],[123.59999999951428,-28.06532278820795],[123.6014040747884,-28.065322772003807],[123.60140415895135,-28.07412078975268],[123.59999999996053,-28.074120870159334],[123.60000000006782,-28.083333333467703],[123.60647546138446,-28.083333333219716],[123.6034452656368,-28.075911871421773],[123.61735014634037,-28.071267584661925],[123.62814711875276,-28.067779433234975],[123.63333333339497,-28.080427557066606],[123.63333333319657,-28.066666667119232],[123.61666666749112,-28.06666666660283],[123.61666666693365,-28.049999999724402]]]},"properties":{"fmt_tenid":"E 38/1964","type":"EXPLORATION LICENCE","tenstatus":"LIVE","holder1":"GOLD ROAD (GRUYERE) PTY LTD","holder2":"GRUYERE MINING COMPANY PTY LTD","legal_area":3,"unit_of_me":"BL.","_colour":"#a0c4f0","_label":"Exploration Licence"}},{"type":"Feature","geometry":{"type":"Polygon","coordinates":[[[123.73333333305825,-28.133333332716372],[123.71813681922505,-28.133333332597157],[123.71812248847581,-28.145904451297476],[123.71810194934348,-28.163957529574734],[123.71809887741138,-28.16666666720147],[123.73333333295248,-28.1666666673892],[123.75000000013453,-28.166666666956555],[123.74999999977132,-28.149999999868864],[123.7333333328275,-28.14999999963243],[123.73333333305825,-28.133333332716372]]]},"properties":{"fmt_tenid":"E 38/2178","type":"EXPLORATION LICENCE","tenstatus":"LIVE","holder1":"GOLD ROAD (NORTH YAMARNA) PTY LTD","holder2":" ","legal_area":3,"unit_of_me":"BL.","_colour":"#a0c4f0","_label":"Exploration Licence"}},{"type":"Feature","geometry":{"type":"Polygon","coordinates":[[[123.68929351862492,-28.18333334948377],[123.68949103407897,-28.185485213779433],[123.68761892793495,-28.185942406250554],[123.687760229539,-28.200000000424314],[123.7000000056841,-28.19999998947332],[123.69999999744903,-28.18333332699221],[123.68929351862492,-28.18333334948377]]]},"properties":{"fmt_tenid":"E 38/2235","type":"EXPLORATION LICENCE","tenstatus":"LIVE","holder1":"GOLD ROAD (NORTH YAMARNA) PTY LTD","holder2":" ","legal_area":1,"unit_of_me":"BL.","_colour":"#a0c4f0","_label":"Exploration Licence"}},{"type":"Feature","geometry":{"type":"Polygon","coordinates":[[[123.83333333283622,-28.350000000474758],[123.83333333304057,-28.33333333294189],[123.83333333254666,-28.316666666933877],[123.81666666675058,-28.3166666673712],[123.81666666678507,-28.30000000032775],[123.79999999979131,-28.300000000126083],[123.79999999995998,-28.283333332588892],[123.8000000003819,-28.26666666680747],[123.8166666668685,-28.266666667260775],[123.83333333304942,-28.266666666838905],[123.83333333255409,-28.249999999546716],[123.81666666742815,-28.249999999874184],[123.79999999978735,-28.250000000444235],[123.78333333326454,-28.250000000471967],[123.78333333263086,-28.266666666981052],[123.76666666676253,-28.266666667185614],[123.75000000025418,-28.266666666908204],[123.73333333320174,-28.26666666701241],[123.73333333267222,-28.283333333409857],[123.73333333306404,-28.299999999693217],[123.73333333288004,-28.316666667410757],[123.75000000005713,-28.31666666713805],[123.74999999986467,-28.333333333089506],[123.7666666665225,-28.3333333334649],[123.76666666714374,-28.349999999934827],[123.78333333346073,-28.350000000093942],[123.80000000032055,-28.350000000284616],[123.81666666744727,-28.350000000412454],[123.83333333283622,-28.350000000474758]]]},"properties":{"fmt_tenid":"E 38/2249","type":"EXPLORATION LICENCE","tenstatus":"LIVE","holder1":"GOLD ROAD (NORTH YAMARNA) PTY LTD","holder2":" ","legal_area":25,"unit_of_me":"BL.","_colour":"#a0c4f0","_label":"Exploration Licence"}},{"type":"Feature","geometry":{"type":"Polygon","coordinates":[[[123.71666666665574,-28.266666667096306],[123.73333333320174,-28.26666666701241],[123.73333333269193,-28.249999999934268],[123.73333333320782,-28.233333332505993],[123.7166666667242,-28.233333332516498],[123.71666666656924,-28.250000000061608],[123.71666666670389,-28.265322298865268],[123.71666666665574,-28.266666667096306]]]},"properties":{"fmt_tenid":"E 38/2250","type":"EXPLORATION LICENCE","tenstatus":"LIVE","holder1":"GOLD ROAD (NORTH YAMARNA) PTY LTD","holder2":" ","legal_area":2,"unit_of_me":"BL.","_colour":"#a0c4f0","_label":"Exploration Licence"}},{"type":"Feature","geometry":{"type":"MultiPolygon","coordinates":[[[[124.04999999995849,-28.449999999860413],[124.05000000045919,-28.433333333461448],[124.06666666725657,-28.433333332867818],[124.06666666670962,-28.41666666739022],[124.08333333320515,-28.41666666739468],[124.08333333319008,-28.400000000316396],[124.09999999984872,-28.400000000014614],[124.09999999998931,-28.383333333026346],[124.08333333325983,-28.383333333431636],[124.06666666657036,-28.38333333255957],[124.05000000015296,-28.38333333259196],[124.03333333277753,-28.383333332833338],[124.01666666704072,-28.383333333230016],[124.01666666652187,-28.36666666692095],[124.00000000034983,-28.36666666675955],[124.00000000004758,-28.383333332758863],[123.99999999986544,-28.400000000150968],[123.98333333312442,-28.40000000009501],[123.98333333255933,-28.41666666656412],[123.9666666665967,-28.41666666694623],[123.9666666670519,-28.43333333258757],[123.96666666743374,-28.450000000002937],[123.98333333327284,-28.450000000470094],[123.99999999977278,-28.449999999937155],[124.01666666717075,-28.450000000223525],[124.0333333332531,-28.45000000001196],[124.04999999995849,-28.449999999860413]]],[[[123.91666666725169,-28.466666667301105],[123.91666666709969,-28.4500000000371],[123.9333333332525,-28.450000000068915],[123.93333333290822,-28.433333333055774],[123.91666666741382,-28.433333332645855],[123.9166666665073,-28.416666667273958],[123.9333333326285,-28.416666666653356],[123.93333333283009,-28.40000000027754],[123.93333333259474,-28.383333333316777],[123.93333333253328,-28.366666667086964],[123.9166666674623,-28.36666666672674],[123.91666666704343,-28.383333332603318],[123.89999999971474,-28.38333333280065],[123.88333333326842,-28.383333332698662],[123.86666666726066,-28.383333333284092],[123.85000000016186,-28.383333332667107],[123.85000000009575,-28.39999999953014],[123.86666666723762,-28.40000000049035],[123.86666666683604,-28.416666667436694],[123.86666666728314,-28.43333333329936],[123.8833333332462,-28.43333333289051],[123.88333333280862,-28.450000000196784],[123.8833333326052,-28.46666666723062],[123.89999999999142,-28.466666666748466],[123.91666666725169,-28.466666667301105]]]]},"properties":{"fmt_tenid":"E 38/2291","type":"EXPLORATION LICENCE","tenstatus":"LIVE","holder1":"GOLD ROAD (SOUTH YAMARNA) PTY LTD","holder2":" ","legal_area":42,"unit_of_me":"BL.","_colour":"#a0c4f0","_label":"Exploration Licence"}},{"type":"Feature","geometry":{"type":"MultiPolygon","coordinates":[[[[123.91666666704343,-28.383333332603318],[123.9166666674623,-28.36666666672674],[123.93333333253328,-28.366666667086964],[123.95000000023721,-28.36666666703747],[123.96666666717199,-28.36666666664623],[123.9833333326444,-28.366666667412254],[124.00000000034983,-28.36666666675955],[124.01666666652187,-28.36666666692095],[124.01666666662449,-28.349999999729675],[124.01666666686594,-28.33333333256636],[124.0000000004602,-28.333333333414217],[123.98333333314335,-28.333333332727783],[123.96666666689117,-28.333333332773602],[123.96666666696798,-28.316666666739764],[123.95000000012837,-28.316666666575202],[123.94999999975843,-28.30000000009466],[123.93333333254475,-28.30000000036704],[123.93333333293744,-28.2833333328622],[123.91666666670558,-28.283333333459446],[123.90000000012236,-28.28333333319845],[123.88333333299873,-28.283333333165764],[123.86666666716118,-28.283333333455367],[123.86666666661176,-28.30000000028239],[123.86666666675609,-28.31666666678954],[123.86666666699303,-28.333333332870193],[123.86666666683438,-28.35000000029969],[123.8500000004165,-28.350000000426736],[123.85000000009768,-28.366666666509968],[123.85000000016186,-28.383333332667107],[123.86666666726066,-28.383333333284092],[123.88333333326842,-28.383333332698662],[123.89999999971474,-28.38333333280065],[123.91666666704343,-28.383333332603318]]],[[[124.09999999998931,-28.383333333026346],[124.09999999958634,-28.366666666962598],[124.09999999954229,-28.350000000114253],[124.08333333268553,-28.35000000029378],[124.06666666748121,-28.349999999991148],[124.06666666667306,-28.366666667101466],[124.06666666657036,-28.38333333255957],[124.08333333325983,-28.383333333431636],[124.09999999998931,-28.383333333026346]]]]},"properties":{"fmt_tenid":"E 38/2292","type":"EXPLORATION LICENCE","tenstatus":"LIVE","holder1":"GOLD ROAD (SOUTH YAMARNA) PTY LTD","holder2":" ","legal_area":42,"unit_of_me":"BL.","_colour":"#a0c4f0","_label":"Exploration Licence"}},{"type":"Feature","geometry":{"type":"Polygon","coordinates":[[[124.03333333285987,-28.550000000186973],[124.03333333304893,-28.533333333224117],[124.03333333273387,-28.516666666558418],[124.01666666710284,-28.51666666735387],[124.01666666664008,-28.500000000025544],[124.01666666676272,-28.48333333294584],[124.01666666673702,-28.466666666847768],[124.03333333286888,-28.466666667250273],[124.0333333332531,-28.45000000001196],[124.01666666717075,-28.450000000223525],[123.99999999977278,-28.449999999937155],[123.98333333327284,-28.450000000470094],[123.96666666743374,-28.450000000002937],[123.95000000039119,-28.449999999921275],[123.9333333332525,-28.450000000068915],[123.91666666709969,-28.4500000000371],[123.91666666725169,-28.466666667301105],[123.89999999999142,-28.466666666748466],[123.90000000007458,-28.48333333335075],[123.90000000036538,-28.4999999998763],[123.90000000046922,-28.51666666737807],[123.91666666717859,-28.516666667354702],[123.91666666738347,-28.533333333148104],[123.91666666747382,-28.550000000298624],[123.9333333333051,-28.54999999967269],[123.9499999996368,-28.54999999983534],[123.96666666707348,-28.54999999993737],[123.98333333266667,-28.549999999950238],[124.00000000046589,-28.549999999845856],[124.01666666651688,-28.54999999959911],[124.03333333285987,-28.550000000186973]]]},"properties":{"fmt_tenid":"E 38/2293","type":"EXPLORATION LICENCE","tenstatus":"LIVE","holder1":"GOLD ROAD (SOUTH YAMARNA) PTY LTD","holder2":" ","legal_area":42,"unit_of_me":"BL.","_colour":"#a0c4f0","_label":"Exploration Licence"}},{"type":"Feature","geometry":{"type":"Polygon","coordinates":[[[124.03333333260973,-28.683333333168868],[124.04999999979333,-28.683333332976417],[124.06666666743041,-28.683333332527802],[124.06666666720815,-28.666666666562318],[124.05000000038423,-28.66666666711641],[124.04999999960772,-28.650000000463457],[124.05000000047316,-28.63333333301127],[124.03333333258723,-28.633333332601232],[124.0333333328629,-28.616666667481443],[124.01666666704809,-28.61666666703117],[124.01666666671102,-28.60000000025705],[123.99999999987409,-28.59999999981853],[123.99999999991547,-28.58333333339494],[123.98333333296397,-28.583333333020498],[123.98333333339083,-28.56666666694265],[123.96666666723758,-28.566666666681677],[123.96666666707348,-28.54999999993737],[123.9499999996368,-28.54999999983534],[123.9333333333051,-28.54999999967269],[123.93333333335792,-28.56666666691556],[123.93333333320547,-28.5833333332744],[123.94999999966622,-28.58333333292874],[123.9499999998197,-28.599999999678083],[123.9499999996264,-28.6166666666222],[123.96666666741693,-28.616666666653437],[123.96666666745888,-28.633333333028496],[123.96666666704385,-28.649999999661034],[123.96666666705843,-28.66666666661467],[123.98333333312004,-28.666666667056305],[124.0000000004253,-28.66666666736029],[124.00000000043458,-28.683333332880046],[124.01666666683974,-28.68333333312759],[124.03333333260973,-28.683333333168868]]]},"properties":{"fmt_tenid":"E 38/2294","type":"EXPLORATION LICENCE","tenstatus":"LIVE","holder1":"GOLD ROAD (SOUTH YAMARNA) PTY LTD","holder2":" ","legal_area":30,"unit_of_me":"BL.","_colour":"#a0c4f0","_label":"Exploration Licence"}},{"type":"Feature","geometry":{"type":"Polygon","coordinates":[[[123.73333333286165,-28.33333333306277],[123.73333333286261,-28.349999999566823],[123.75000000015562,-28.350000000259882],[123.76666666714374,-28.349999999934827],[123.7666666665225,-28.3333333334649],[123.74999999986467,-28.333333333089506],[123.75000000005713,-28.31666666713805],[123.73333333288004,-28.316666667410757],[123.73333333306404,-28.299999999693217],[123.73333333267222,-28.283333333409857],[123.73333333320174,-28.26666666701241],[123.71666666665574,-28.266666667096306],[123.69999999982808,-28.266666666754602],[123.70000000016634,-28.283333333269788],[123.70000000031241,-28.300000000187786],[123.71666666702741,-28.299999999547694],[123.71666666658298,-28.31666666702833],[123.71666666703642,-28.33333333349109],[123.73333333286165,-28.33333333306277]]]},"properties":{"fmt_tenid":"E 38/2319","type":"EXPLORATION LICENCE","tenstatus":"LIVE","holder1":"GOLD ROAD (NORTH YAMARNA) PTY LTD","holder2":" ","legal_area":9,"unit_of_me":"BL.","_colour":"#a0c4f0","_label":"Exploration Licence"}},{"type":"Feature","geometry":{"type":"MultiPolygon","coordinates":[[[[123.69999999957675,-28.033333332932347],[123.70000000037034,-28.050000000073055],[123.70000000002487,-28.066666667374335],[123.70000000008011,-28.083333333038187],[123.71666666682678,-28.083333333130735],[123.71666666737684,-28.100000000310224],[123.7333333328573,-28.10000000019767],[123.7333333325896,-28.116666666575245],[123.73333333305825,-28.133333332716372],[123.7333333328275,-28.14999999963243],[123.74999999977132,-28.149999999868864],[123.75000000013453,-28.166666666956555],[123.7499999998855,-28.182102627572004],[123.75083868441506,-28.182102616109006],[123.75083868406409,-28.183907304533488],[123.74999999953074,-28.183907317996002],[123.74999999980948,-28.199999999572835],[123.73333333287749,-28.19999999999989],[123.73333333320652,-28.1833333328184],[123.73333333295248,-28.1666666673892],[123.71809887741152,-28.16666674620136],[123.71808147377729,-28.182010551688613],[123.71666666699133,-28.182010032060024],[123.71666666727207,-28.183333332895568],[123.70000000044904,-28.183333332992206],[123.69999999968425,-28.200000000473295],[123.70000000044064,-28.216666666779172],[123.72499999957229,-28.21666590542606],[123.75000000034568,-28.216666667011662],[123.76666666651181,-28.21666666674138],[123.7666666674091,-28.199999999660054],[123.7833333325678,-28.199999999988457],[123.78333333294833,-28.183333333035453],[123.78333333300772,-28.16666666718357],[123.7833333334693,-28.150000000343336],[123.78333333307849,-28.13333333321915],[123.76666666740968,-28.133333332531326],[123.76666666708313,-28.116666666987697],[123.76666666708115,-28.100000000066167],[123.75000000021056,-28.09999999982739],[123.74999999980001,-28.08333333285057],[123.74999999951079,-28.06666666707191],[123.76666666676928,-28.066666667488263],[123.76666666739233,-28.04999999966335],[123.76666666675844,-28.033333333278193],[123.75000000022837,-28.033333332826526],[123.73333333339632,-28.033333332850646],[123.71666666668297,-28.033333332503954],[123.69999999957675,-28.033333332932347]]],[[[123.64999999963601,-28.033333333259012],[123.64999999983915,-28.050000000300127],[123.65000000047937,-28.066666667195584],[123.64999999981752,-28.08333333303849],[123.66666666663806,-28.083333333341763],[123.66666666742249,-28.06666666682858],[123.68333333346476,-28.066666666998902],[123.68333333279206,-28.050000000477283],[123.66666666687676,-28.050000000007895],[123.66666666651072,-28.033333332656838],[123.64999999963601,-28.033333333259012]]]]},"properties":{"fmt_tenid":"E 38/2325","type":"EXPLORATION LICENCE","tenstatus":"LIVE","holder1":"GOLD ROAD (NORTH YAMARNA) PTY LTD","holder2":" ","legal_area":37,"unit_of_me":"BL.","_colour":"#a0c4f0","_label":"Exploration Licence"}},{"type":"Feature","geometry":{"type":"Polygon","coordinates":[[[123.66666666663806,-28.083333333341763],[123.66666667544968,-28.099999976699635],[123.66666668315952,-28.11666662150313],[123.65139761636577,-28.116666666681997],[123.65140419263336,-28.12446980011235],[123.65140419663568,-28.124473923109935],[123.65448925699336,-28.131989121799958],[123.66807124501881,-28.13198893764325],[123.66807138959426,-28.148655673822734],[123.66807148995888,-28.16507291827295],[123.66818244508502,-28.165320819192935],[123.67232678176383,-28.16532046499098],[123.6758980504648,-28.165351164377213],[123.6833333325955,-28.16541686618852],[123.68333334046908,-28.15000000008086],[123.68333333301194,-28.133333333347732],[123.68470945369705,-28.13333333269504],[123.68470851618225,-28.131942537575643],[123.69999999998561,-28.131937272046446],[123.6999999999774,-28.1166666665492],[123.70000000040608,-28.100000000114342],[123.68333333287796,-28.09999999976496],[123.68333333317078,-28.083333333050213],[123.66666666663806,-28.083333333341763]]]},"properties":{"fmt_tenid":"E 38/2326","type":"EXPLORATION LICENCE","tenstatus":"LIVE","holder1":"GOLD ROAD (GRUYERE) PTY LTD","holder2":"GRUYERE MINING COMPANY PTY LTD","legal_area":8,"unit_of_me":"BL.","_colour":"#a0c4f0","_label":"Exploration Licence"}},{"type":"Feature","geometry":{"type":"Polygon","coordinates":[[[123.91666666747382,-28.550000000298624],[123.91666666738347,-28.533333333148104],[123.91666666717859,-28.516666667354702],[123.90000000046922,-28.51666666737807],[123.90000000036538,-28.4999999998763],[123.90000000007458,-28.48333333335075],[123.89999999999142,-28.466666666748466],[123.8833333326052,-28.46666666723062],[123.88333333280862,-28.450000000196784],[123.8833333332462,-28.43333333289051],[123.86666666728314,-28.43333333329936],[123.86666666683604,-28.416666667436694],[123.86666666723762,-28.40000000049035],[123.85000000009575,-28.39999999953014],[123.85000000016186,-28.383333332667107],[123.85000000009768,-28.366666666509968],[123.8500000004165,-28.350000000426736],[123.83333333283622,-28.350000000474758],[123.81666666744727,-28.350000000412454],[123.81666666698607,-28.366666667078306],[123.83333333268719,-28.36666666717794],[123.83333333321308,-28.383333332754876],[123.83333333258916,-28.400000000132383],[123.83333333343465,-28.416666666988352],[123.83333333284543,-28.43333333275763],[123.81666666663459,-28.433333332703523],[123.81666666731111,-28.450000000280856],[123.81666666684542,-28.46666666674828],[123.8333333334379,-28.466666666939464],[123.8333333328078,-28.483333332664106],[123.83333333332457,-28.500000000387658],[123.8500000003377,-28.4999999995769],[123.84999999959038,-28.516666667182317],[123.86666666731787,-28.516666667081452],[123.86666666705003,-28.533333332622025],[123.86666666725506,-28.549999999516565],[123.88333333329827,-28.549999999877418],[123.9000000000831,-28.550000000151133],[123.91666666747382,-28.550000000298624]]]},"properties":{"fmt_tenid":"E 38/2355","type":"EXPLORATION LICENCE","tenstatus":"LIVE","holder1":"GOLD ROAD (SOUTH YAMARNA) PTY LTD","holder2":" ","legal_area":33,"unit_of_me":"BL.","_colour":"#a0c4f0","_label":"Exploration Licence"}},{"type":"Feature","geometry":{"type":"Polygon","coordinates":[[[123.58333333267075,-27.683333333082867],[123.58333333308607,-27.66666666703443],[123.58333333320626,-27.65000000040606],[123.5666666672463,-27.649999999727697],[123.56666666690533,-27.63333333343976],[123.54999999978367,-27.63333333303165],[123.55000000007523,-27.616666667294947],[123.5333333328622,-27.616666667263853],[123.53333333286156,-27.60000000027038],[123.53333333276983,-27.58333333332972],[123.5166666674684,-27.58333333274282],[123.51666666713766,-27.56666666680965],[123.49999999991944,-27.566666666879208],[123.48333333285532,-27.566666666624915],[123.46666666695442,-27.566666667083656],[123.45000000031966,-27.566666667377667],[123.44999999965563,-27.58333333288123],[123.46666666735882,-27.583333332838556],[123.46666666666403,-27.59999999965121],[123.4666666669924,-27.616666666528992],[123.46666666727897,-27.63333333327925],[123.48333333297133,-27.633333333258143],[123.48333333310516,-27.649999999870683],[123.4833333334487,-27.66666666700557],[123.48333333251196,-27.683333332575124],[123.50000000044275,-27.68333333341427],[123.5166666668428,-27.683333333310653],[123.53333333327717,-27.6833333325215],[123.54999999973384,-27.68333333304758],[123.56666666720187,-27.683333332896666],[123.58333333267075,-27.683333333082867]]]},"properties":{"fmt_tenid":"E 38/2356","type":"EXPLORATION LICENCE","tenstatus":"LIVE","holder1":"GOLD ROAD (NORTH YAMARNA) PTY LTD","holder2":" ","legal_area":34,"unit_of_me":"BL.","_colour":"#a0c4f0","_label":"Exploration Licence"}},{"type":"Feature","geometry":{"type":"MultiPolygon","coordinates":[[[[123.9166666670917,-27.96666666731432],[123.89999999963658,-27.96666666658389],[123.88333333298685,-27.966666666882585],[123.88333333286215,-27.96667504991139],[123.88335771654107,-27.9666750430006],[123.88335582324498,-27.984578786922587],[123.88335426893453,-28.000000001329735],[123.89999999980618,-28.000000000252992],[123.89999999995196,-28.016666666863838],[123.91666666707414,-28.01666666676821],[123.93333333271892,-28.016666666770316],[123.9500000001276,-28.016666667494487],[123.9499999995797,-27.999999999570417],[123.95000000004936,-27.98333333301503],[123.93333333291385,-27.983333333210716],[123.91666666722787,-27.983333332609675],[123.9166666670917,-27.96666666731432]]],[[[123.8500000002243,-27.949999999946904],[123.84999999986731,-27.966666666895964],[123.8666666669993,-27.966666667418227],[123.86666666684833,-27.949999999812746],[123.8500000002243,-27.949999999946904]]],[[[123.80000000032383,-27.999999999972196],[123.81663603887107,-28.000000002122345],[123.81664131601264,-27.98547559983095],[123.81664210175269,-27.983333335402367],[123.79999999967356,-27.983333333107772],[123.80000000032383,-27.999999999972196]]]]},"properties":{"fmt_tenid":"E 38/2362","type":"EXPLORATION LICENCE","tenstatus":"LIVE","holder1":"GOLD ROAD (NORTH YAMARNA) PTY LTD","holder2":" ","legal_area":11,"unit_of_me":"BL.","_colour":"#a0c4f0","_label":"Exploration Licence"}},{"type":"Feature","geometry":{"type":"MultiPolygon","coordinates":[[[[123.8833333334482,-28.71666666724964],[123.88333333292853,-28.73333333309134],[123.90000000011116,-28.733333333236533],[123.8999999996612,-28.716666667216046],[123.91666666666106,-28.716666667048514],[123.91666666742402,-28.700000000419994],[123.91666666739255,-28.683333333319812],[123.91666666653235,-28.666666667379925],[123.93333333339648,-28.666666667457307],[123.9333333328645,-28.649999999806067],[123.949999999901,-28.650000000264416],[123.95000000001127,-28.63333333280474],[123.9499999996264,-28.6166666666222],[123.9499999998197,-28.599999999678083],[123.94999999966622,-28.58333333292874],[123.93333333320547,-28.5833333332744],[123.93333333335792,-28.56666666691556],[123.9333333333051,-28.54999999967269],[123.91666666747382,-28.550000000298624],[123.9000000000831,-28.550000000151133],[123.88333333329827,-28.549999999877418],[123.86666666725506,-28.549999999516565],[123.8666666665056,-28.56666666733728],[123.88333333282019,-28.566666667280124],[123.88333333271036,-28.583333333369463],[123.88333333344052,-28.600000000204016],[123.88333333259268,-28.61666666674937],[123.8833333330184,-28.633333332811773],[123.88333333272953,-28.649999999901077],[123.88333333264818,-28.666666667435802],[123.88333333277386,-28.68333333346796],[123.88333333305432,-28.700000000055915],[123.8833333334482,-28.71666666724964]]],[[[123.98333333301053,-28.716666667253374],[123.98333333340523,-28.733333332680132],[124.00000000015805,-28.733333333298326],[123.99999999982748,-28.71666666683447],[123.99999999991208,-28.699999999699127],[124.00000000043458,-28.683333332880046],[124.0000000004253,-28.66666666736029],[123.98333333312004,-28.666666667056305],[123.96666666705843,-28.66666666661467],[123.96666666749152,-28.683333332894343],[123.96666666729868,-28.699999999526327],[123.96666666744451,-28.71666666653002],[123.98333333301053,-28.716666667253374]]]]},"properties":{"fmt_tenid":"E 38/2363","type":"EXPLORATION LICENCE","tenstatus":"LIVE","holder1":"GOLD ROAD (SOUTH YAMARNA) PTY LTD","holder2":" ","legal_area":40,"unit_of_me":"BL.","_colour":"#a0c4f0","_label":"Exploration Licence"}},{"type":"Feature","geometry":{"type":"Polygon","coordinates":[[[123.63473729984379,-28.066666681152547],[123.6347373018438,-28.066666745152435],[123.63333333319657,-28.066666667119232],[123.63333333339497,-28.080427557066606],[123.63385531273785,-28.08170056033306],[123.6408142110226,-28.09866653655731],[123.6513824376543,-28.09865933160539],[123.6513976143658,-28.11666667968196],[123.6666666671596,-28.116666666503114],[123.66666666744975,-28.099999999699588],[123.66666666663806,-28.083333333341763],[123.64999999981752,-28.08333333303849],[123.65000000047937,-28.066666667195584],[123.63473729984379,-28.066666681152547]]]},"properties":{"fmt_tenid":"E 38/2415","type":"EXPLORATION LICENCE","tenstatus":"LIVE","holder1":"GOLD ROAD (GRUYERE) PTY LTD","holder2":"GRUYERE MINING COMPANY PTY LTD","legal_area":4,"unit_of_me":"BL.","_colour":"#a0c4f0","_label":"Exploration Licence"}},{"type":"Feature","geometry":{"type":"Polygon","coordinates":[[[123.7666666667748,-27.999999999912852],[123.76666666676005,-28.016666667115846],[123.76666666675844,-28.033333333278193],[123.76666666739233,-28.04999999966335],[123.76666666676928,-28.066666667488263],[123.74999999951079,-28.06666666707191],[123.74999999980001,-28.08333333285057],[123.75000000021056,-28.09999999982739],[123.76666666708115,-28.100000000066167],[123.76666666708313,-28.116666666987697],[123.76666666740968,-28.133333332531326],[123.78333333307849,-28.13333333321915],[123.8000000002065,-28.133333333096367],[123.81666666666568,-28.133333333062076],[123.81666666658793,-28.150000000301315],[123.83333333257926,-28.150000000446198],[123.83333333259208,-28.13333333284442],[123.83333333263926,-28.116666667262113],[123.83333333271271,-28.09999999961577],[123.83333333279289,-28.083333333433398],[123.83333333313168,-28.081345138152187],[123.83332105120736,-28.081345141133703],[123.83332061649142,-28.065432460100382],[123.83332019708013,-28.047404452523878],[123.83331990905955,-28.03203849587379],[123.8333197848509,-28.024074488961386],[123.83331966945943,-28.01634446441318],[123.8333194949154,-28.000005985822554],[123.81663603377869,-28.000013233128023],[123.81663603887107,-28.000000002122345],[123.80000000032383,-27.999999999972196],[123.78333333345921,-27.99999999961333],[123.7666666667748,-27.999999999912852]]]},"properties":{"fmt_tenid":"E 38/2446","type":"EXPLORATION LICENCE","tenstatus":"LIVE","holder1":"GOLD ROAD (NORTH YAMARNA) PTY LTD","holder2":" ","legal_area":35,"unit_of_me":"BL.","_colour":"#a0c4f0","_label":"Exploration Licence"}},{"type":"Feature","geometry":{"type":"Polygon","coordinates":[[[123.89999999980618,-28.000000000252992],[123.88335426893453,-28.000000001329735],[123.88335398843176,-28.002780943869716],[123.88335226059303,-28.02078868140736],[123.8833506098489,-28.03897555115896],[123.88334952319207,-28.05140511810303],[123.88334815905962,-28.067889497991153],[123.88334709348264,-28.081322147373786],[123.88333333258826,-28.081322156351735],[123.8833333327407,-28.083333332799242],[123.90000000015854,-28.083333332521327],[123.91666666747832,-28.08333333293489],[123.93333333261717,-28.083333332694558],[123.93333333283302,-28.0666666672167],[123.91666666674887,-28.066666667131706],[123.91666666728716,-28.04999999996668],[123.91666666706377,-28.033333332898415],[123.91666666707414,-28.01666666676821],[123.89999999995196,-28.016666666863838],[123.89999999980618,-28.000000000252992]]]},"properties":{"fmt_tenid":"E 38/2447","type":"EXPLORATION LICENCE","tenstatus":"LIVE","holder1":"GOLD ROAD (NORTH YAMARNA) PTY LTD","holder2":" ","legal_area":10,"unit_of_me":"BL.","_colour":"#a0c4f0","_label":"Exploration Licence"}},{"type":"Feature","geometry":{"type":"Polygon","coordinates":[[[124.14999999975628,-28.350000000255992],[124.1500000004151,-28.333333332947042],[124.14999999952536,-28.316666666788496],[124.13333333304111,-28.316666666855266],[124.11666666703344,-28.316666667162256],[124.0999999998577,-28.316666666534715],[124.08333333337349,-28.316666667116092],[124.08333333337248,-28.333333332526013],[124.08333333268553,-28.35000000029378],[124.09999999954229,-28.350000000114253],[124.09999999958634,-28.366666666962598],[124.09999999998931,-28.383333333026346],[124.09999999984872,-28.400000000014614],[124.11666666728722,-28.399999999991635],[124.13333333254054,-28.40000000031593],[124.13333333286421,-28.38333333293108],[124.15000000007268,-28.38333333335808],[124.14999999991815,-28.36666666709983],[124.14999999975628,-28.350000000255992]]]},"properties":{"fmt_tenid":"E 38/2531","type":"EXPLORATION LICENCE","tenstatus":"LIVE","holder1":"GOLD ROAD (SOUTH YAMARNA) PTY LTD","holder2":" ","legal_area":16,"unit_of_me":"BL.","_colour":"#a0c4f0","_label":"Exploration Licence"}},{"type":"Feature","geometry":{"type":"MultiPolygon","coordinates":[[[[123.93333333269517,-28.149999999706495],[123.93333333278538,-28.133333333263568],[123.93333333295227,-28.11666666710453],[123.91666666718477,-28.116666666775192],[123.9166666670029,-28.099999999695555],[123.89999999991693,-28.0999999995866],[123.90000000015854,-28.083333332521327],[123.8833333327407,-28.083333332799242],[123.86666666708672,-28.083333332908428],[123.85000000037228,-28.083333332823386],[123.83333333279289,-28.083333333433398],[123.83333333271271,-28.09999999961577],[123.83333333263926,-28.116666667262113],[123.83333333259208,-28.13333333284442],[123.8499999999037,-28.133333333487432],[123.86666666741095,-28.133333332757186],[123.86666666729452,-28.15000000035916],[123.8833333334595,-28.149999999694497],[123.89999999977573,-28.150000000339876],[123.91666666692704,-28.149999999598023],[123.93333333269517,-28.149999999706495]]],[[[123.90000000012236,-28.28333333319845],[123.8999999995378,-28.26666666704995],[123.91666666665067,-28.266666667392904],[123.9333333329285,-28.26666666673217],[123.94999999961433,-28.26666666697827],[123.96666666745769,-28.266666667266204],[123.96666666747822,-28.24999999991032],[123.94999999957271,-28.249999999693205],[123.93333333252174,-28.2499999996286],[123.91666666748833,-28.250000000308376],[123.9000000001848,-28.24999999983299],[123.88333333332625,-28.250000000312273],[123.86666666663497,-28.249999999865178],[123.86666666687583,-28.266666666754336],[123.86666666716118,-28.283333333455367],[123.88333333299873,-28.283333333165764],[123.90000000012236,-28.28333333319845]]]]},"properties":{"fmt_tenid":"E 38/2735","type":"EXPLORATION LICENCE","tenstatus":"LIVE","holder1":"GOLD ROAD (NORTH YAMARNA) PTY LTD","holder2":" ","legal_area":27,"unit_of_me":"BL.","_colour":"#a0c4f0","_label":"Exploration Licence"}},{"type":"Feature","geometry":{"type":"Polygon","coordinates":[[[123.70000000040608,-28.100000000114342],[123.6999999999774,-28.1166666665492],[123.69999999998561,-28.131937272046446],[123.70142163462046,-28.131936781642395],[123.70143797607014,-28.133310831023717],[123.71813686112279,-28.133296849636512],[123.71813681922505,-28.133333332597157],[123.73333333305825,-28.133333332716372],[123.7333333325896,-28.116666666575245],[123.7333333328573,-28.10000000019767],[123.71666666737684,-28.100000000310224],[123.70000000040608,-28.100000000114342]]]},"properties":{"fmt_tenid":"E 38/2932","type":"EXPLORATION LICENCE","tenstatus":"LIVE","holder1":"GOLD ROAD (NORTH YAMARNA) PTY LTD","holder2":" ","legal_area":4,"unit_of_me":"BL.","_colour":"#a0c4f0","_label":"Exploration Licence"}},{"type":"Feature","geometry":{"type":"Polygon","coordinates":[[[123.89999999963658,-27.96666666658389],[123.90000000032383,-27.949999999705252],[123.89999999974582,-27.933333332815],[123.88333333346846,-27.93333333313302],[123.88333333330877,-27.949999999502168],[123.86666666684833,-27.949999999812746],[123.8666666669993,-27.966666667418227],[123.88333333298685,-27.966666666882585],[123.89999999963658,-27.96666666658389]]]},"properties":{"fmt_tenid":"E 38/2964","type":"EXPLORATION LICENCE","tenstatus":"LIVE","holder1":"GOLD ROAD (NORTH YAMARNA) PTY LTD","holder2":" ","legal_area":3,"unit_of_me":"BL.","_colour":"#a0c4f0","_label":"Exploration Licence"}},{"type":"Feature","geometry":{"type":"Polygon","coordinates":[[[123.4833333328393,-27.466666666794676],[123.46666666732554,-27.466666667287008],[123.46666666721212,-27.483333332982966],[123.4666666671536,-27.499999999513125],[123.48333333250272,-27.50000000037706],[123.5000000004432,-27.500000000292623],[123.50000000022195,-27.48333333342387],[123.48333333277958,-27.483333333400783],[123.4833333328393,-27.466666666794676]]]},"properties":{"fmt_tenid":"E 38/2965","type":"EXPLORATION LICENCE","tenstatus":"LIVE","holder1":"GOLD ROAD (NORTH YAMARNA) PTY LTD","holder2":" ","legal_area":3,"unit_of_me":"BL.","_colour":"#a0c4f0","_label":"Exploration Licence"}},{"type":"Feature","geometry":{"type":"Polygon","coordinates":[[[123.54999999999025,-27.933333333138297],[123.55140134027494,-27.93333333257169],[123.55140130743813,-27.931989370653945],[123.56806786817481,-27.931989161074014],[123.58473442930236,-27.9319889509707],[123.59999999994228,-27.931988835920436],[123.6000000000785,-27.916666666620728],[123.60000000024623,-27.89999999953943],[123.58333333269118,-27.899999999799945],[123.56666666674532,-27.900000000414934],[123.55000000003422,-27.900000000059173],[123.54999999982412,-27.916666667408915],[123.55000000023007,-27.93198937129253],[123.54999999999025,-27.933333333138297]]]},"properties":{"fmt_tenid":"E 38/3041","type":"EXPLORATION LICENCE","tenstatus":"LIVE","holder1":"GOLD ROAD (NORTH YAMARNA) PTY LTD","holder2":" ","legal_area":6,"unit_of_me":"BL.","_colour":"#a0c4f0","_label":"Exploration Licence"}},{"type":"Feature","geometry":{"type":"Polygon","coordinates":[[[123.88333333292853,-28.73333333309134],[123.8833333334482,-28.71666666724964],[123.88333333305432,-28.700000000055915],[123.88333333277386,-28.68333333346796],[123.88333333264818,-28.666666667435802],[123.88333333272953,-28.649999999901077],[123.8833333330184,-28.633333332811773],[123.88333333259268,-28.61666666674937],[123.88333333344052,-28.600000000204016],[123.88333333271036,-28.583333333369463],[123.88333333282019,-28.566666667280124],[123.8666666665056,-28.56666666733728],[123.86666666691647,-28.583333332785944],[123.86666666685845,-28.599999999683916],[123.86666666711554,-28.616666666941047],[123.86666666673455,-28.633333333273587],[123.86666666667858,-28.649999999981354],[123.86666666679288,-28.666666667186096],[123.86666666707514,-28.683333332919698],[123.86666666747054,-28.700000000243957],[123.86666666693557,-28.71666666721297],[123.86666666744276,-28.733333332871393],[123.88333333292853,-28.73333333309134]]]},"properties":{"fmt_tenid":"E 38/3104","type":"EXPLORATION LICENCE","tenstatus":"LIVE","holder1":"GOLD ROAD (SOUTH YAMARNA) PTY LTD","holder2":" ","legal_area":10,"unit_of_me":"BL.","_colour":"#a0c4f0","_label":"Exploration Licence"}},{"type":"Feature","geometry":{"type":"Polygon","coordinates":[[[123.9666666665765,-28.7666666665336],[123.96666666667156,-28.78333333328524],[123.98333333263055,-28.783333332559742],[123.9833333330414,-28.766666667297308],[123.98333333279031,-28.75000000030639],[123.98333333340523,-28.733333332680132],[123.98333333301053,-28.716666667253374],[123.96666666744451,-28.71666666653002],[123.96666666729868,-28.699999999526327],[123.96666666749152,-28.683333332894343],[123.96666666705843,-28.66666666661467],[123.96666666704385,-28.649999999661034],[123.96666666745888,-28.633333333028496],[123.96666666741693,-28.616666666653437],[123.9499999996264,-28.6166666666222],[123.95000000001127,-28.63333333280474],[123.949999999901,-28.650000000264416],[123.9333333328645,-28.649999999806067],[123.93333333339648,-28.666666667457307],[123.91666666653235,-28.666666667379925],[123.91666666739255,-28.683333333319812],[123.91666666742402,-28.700000000419994],[123.91666666666106,-28.716666667048514],[123.8999999996612,-28.716666667216046],[123.90000000011116,-28.733333333236533],[123.91666666707727,-28.733333333241916],[123.91666666666067,-28.75000000002798],[123.93333333250905,-28.749999999955453],[123.95000000029492,-28.74999999954652],[123.96666666695961,-28.75000000003144],[123.9666666665765,-28.7666666665336]]]},"properties":{"fmt_tenid":"E 38/3106","type":"EXPLORATION LICENCE","tenstatus":"LIVE","holder1":"GOLD ROAD (SOUTH YAMARNA) PTY LTD","holder2":" ","legal_area":24,"unit_of_me":"BL.","_colour":"#a0c4f0","_label":"Exploration Licence"}},{"type":"Feature","geometry":{"type":"MultiPolygon","coordinates":[[[[123.95000000012935,-28.399999999908268],[123.93333333283009,-28.40000000027754],[123.9333333326285,-28.416666666653356],[123.9166666665073,-28.416666667273958],[123.91666666741382,-28.433333332645855],[123.93333333290822,-28.433333333055774],[123.9333333332525,-28.450000000068915],[123.95000000039119,-28.449999999921275],[123.96666666743374,-28.450000000002937],[123.9666666670519,-28.43333333258757],[123.9666666665967,-28.41666666694623],[123.95000000002855,-28.4166666667094],[123.95000000012935,-28.399999999908268]]],[[[123.98333333312442,-28.40000000009501],[123.99999999986544,-28.400000000150968],[124.00000000004758,-28.383333332758863],[124.00000000034983,-28.36666666675955],[123.9833333326444,-28.366666667412254],[123.96666666717199,-28.36666666664623],[123.96666666662681,-28.38333333283426],[123.96666666742881,-28.399999999882414],[123.98333333312442,-28.40000000009501]]]]},"properties":{"fmt_tenid":"E 38/3221","type":"EXPLORATION LICENCE","tenstatus":"LIVE","holder1":"GOLD ROAD (SOUTH YAMARNA) PTY LTD","holder2":" ","legal_area":10,"unit_of_me":"BL.","_colour":"#a0c4f0","_label":"Exploration Licence"}},{"type":"Feature","geometry":{"type":"MultiPolygon","coordinates":[[[[123.96666666745769,-28.266666667266204],[123.94999999961433,-28.26666666697827],[123.9333333329285,-28.26666666673217],[123.91666666665067,-28.266666667392904],[123.8999999995378,-28.26666666704995],[123.90000000012236,-28.28333333319845],[123.91666666670558,-28.283333333459446],[123.93333333293744,-28.2833333328622],[123.93333333254475,-28.30000000036704],[123.94999999975843,-28.30000000009466],[123.96666666671568,-28.300000000028515],[123.96666666696798,-28.316666666739764],[123.98333333278077,-28.316666666605556],[124.00000000024528,-28.316666666991054],[124.0000000004602,-28.333333333414217],[124.01666666686594,-28.33333333256636],[124.03333333261028,-28.333333333285843],[124.05000000005737,-28.333333332899542],[124.06666666745674,-28.33333333259552],[124.06666666748121,-28.349999999991148],[124.08333333268553,-28.35000000029378],[124.08333333337248,-28.333333332526013],[124.08333333337349,-28.316666667116092],[124.06666666749615,-28.3166666666002],[124.0499999996398,-28.316666667173816],[124.03333333328533,-28.316666666673246],[124.03333333345046,-28.300000000420173],[124.01666666714439,-28.30000000036642],[124.00000000024973,-28.299999999804932],[123.98333333275065,-28.299999999694958],[123.98333333336824,-28.283333332792548],[123.96666666672486,-28.283333332716136],[123.96666666745769,-28.266666667266204]]],[[[124.03333333277753,-28.383333332833338],[124.05000000015296,-28.38333333259196],[124.04999999956617,-28.366666666971927],[124.03333333279735,-28.366666667450534],[124.01666666652187,-28.36666666692095],[124.01666666704072,-28.383333333230016],[124.03333333277753,-28.383333332833338]]]]},"properties":{"fmt_tenid":"E 38/3223","type":"EXPLORATION LICENCE","tenstatus":"LIVE","holder1":"GOLD ROAD (SOUTH YAMARNA) PTY LTD","holder2":" ","legal_area":19,"unit_of_me":"BL.","_colour":"#a0c4f0","_label":"Exploration Licence"}},{"type":"Feature","geometry":{"type":"MultiPolygon","coordinates":[[[[123.81666666744727,-28.350000000412454],[123.80000000032055,-28.350000000284616],[123.78333333346073,-28.350000000093942],[123.76666666714374,-28.349999999934827],[123.75000000015562,-28.350000000259882],[123.75000000015349,-28.366666667035542],[123.7666666668167,-28.36666666749569],[123.7666666665202,-28.383333333120714],[123.78333333257878,-28.38333333295076],[123.78333333303586,-28.399999999622302],[123.79999999986698,-28.399999999750438],[123.8000000001972,-28.416666667445526],[123.79999999992596,-28.43333333304885],[123.81666666663459,-28.433333332703523],[123.83333333284543,-28.43333333275763],[123.83333333343465,-28.416666666988352],[123.83333333258916,-28.400000000132383],[123.83333333321308,-28.383333332754876],[123.83333333268719,-28.36666666717794],[123.81666666698607,-28.366666667078306],[123.81666666744727,-28.350000000412454]]],[[[123.86666666705003,-28.533333332622025],[123.86666666731787,-28.516666667081452],[123.84999999959038,-28.516666667182317],[123.84999999980319,-28.53333333328836],[123.86666666705003,-28.533333332622025]]]]},"properties":{"fmt_tenid":"E 38/3267","type":"EXPLORATION LICENCE","tenstatus":"LIVE","holder1":"GOLD ROAD (NORTH YAMARNA) PTY LTD","holder2":" ","legal_area":16,"unit_of_me":"BL.","_colour":"#a0c4f0","_label":"Exploration Licence"}},{"type":"Feature","geometry":{"type":"Polygon","coordinates":[[[123.9500000000074,-28.066666667257437],[123.95000000002206,-28.049999999996615],[123.950000000464,-28.033333333219375],[123.9500000001276,-28.016666667494487],[123.93333333271892,-28.016666666770316],[123.91666666707414,-28.01666666676821],[123.91666666706377,-28.033333332898415],[123.91666666728716,-28.04999999996668],[123.91666666674887,-28.066666667131706],[123.93333333283302,-28.0666666672167],[123.93333333261717,-28.083333332694558],[123.95000000037082,-28.083333333498807],[123.9500000000074,-28.066666667257437]]]},"properties":{"fmt_tenid":"E 38/3275","type":"EXPLORATION LICENCE","tenstatus":"LIVE","holder1":"GOLD ROAD (NORTH YAMARNA) PTY LTD","holder2":" ","legal_area":7,"unit_of_me":"BL.","_colour":"#a0c4f0","_label":"Exploration Licence"}},{"type":"Feature","geometry":{"type":"MultiPolygon","coordinates":[[[[123.9666666668061,-28.08333333269014],[123.95000000037082,-28.083333333498807],[123.93333333261717,-28.083333332694558],[123.91666666747832,-28.08333333293489],[123.90000000015854,-28.083333332521327],[123.89999999991693,-28.0999999995866],[123.9166666670029,-28.099999999695555],[123.91666666718477,-28.116666666775192],[123.93333333295227,-28.11666666710453],[123.93333333278538,-28.133333333263568],[123.93333333269517,-28.149999999706495],[123.94999999959171,-28.149999999872236],[123.94999999973199,-28.16666666739577],[123.96666666749576,-28.16666666706392],[123.98333333268624,-28.166666666812883],[123.98333333285314,-28.150000000186687],[123.99999999985499,-28.149999999648575],[123.99999999965512,-28.133333332726654],[124.00000000024838,-28.11666666676162],[123.99999999987415,-28.099999999876207],[123.98333333302587,-28.099999999533097],[123.96666666702274,-28.099999999644467],[123.9666666668061,-28.08333333269014]]],[[[123.96666666723404,-28.01666666703657],[123.96666666698411,-27.99999999983743],[123.9499999995797,-27.999999999570417],[123.9500000001276,-28.016666667494487],[123.96666666723404,-28.01666666703657]]]]},"properties":{"fmt_tenid":"E 38/3276","type":"EXPLORATION LICENCE","tenstatus":"LIVE","holder1":"GOLD ROAD (NORTH YAMARNA) PTY LTD","holder2":" ","legal_area":20,"unit_of_me":"BL.","_colour":"#a0c4f0","_label":"Exploration Licence"}},{"type":"Feature","geometry":{"type":"Polygon","coordinates":[[[123.79999999995438,-28.233333333370094],[123.79999999952753,-28.21666666664701],[123.80000000020698,-28.200000000285783],[123.79999999982488,-28.18333333234943],[123.79999999953536,-28.16666666730067],[123.8000000000615,-28.15000000004598],[123.81666666658793,-28.150000000301315],[123.81666666666568,-28.133333333062076],[123.8000000002065,-28.133333333096367],[123.78333333307849,-28.13333333321915],[123.7833333334693,-28.150000000343336],[123.78333333300772,-28.16666666718357],[123.78333333294833,-28.18333333203546],[123.7833333325678,-28.199999999988457],[123.7666666674091,-28.199999999660054],[123.76666666651181,-28.21666666674138],[123.75000000034568,-28.216666667011662],[123.73333333277542,-28.216666667275067],[123.716666666626,-28.2166666666532],[123.7166666667242,-28.233333332516498],[123.73333333320782,-28.233333332505993],[123.73333333269193,-28.249999999934268],[123.73333333320174,-28.26666666701241],[123.75000000025418,-28.266666666908204],[123.76666666676253,-28.266666667185614],[123.78333333263086,-28.266666666981052],[123.78333333326454,-28.250000000471967],[123.79999999978735,-28.250000000444235],[123.79999999995438,-28.233333333370094]]]},"properties":{"fmt_tenid":"E 38/3285","type":"EXPLORATION LICENCE","tenstatus":"LIVE","holder1":"GOLD ROAD (NORTH YAMARNA) PTY LTD","holder2":" ","legal_area":19,"unit_of_me":"BL.","_colour":"#a0c4f0","_label":"Exploration Licence"}},{"type":"Feature","geometry":{"type":"Polygon","coordinates":[[[123.69999999968425,-28.200000000473295],[123.687760229539,-28.200000000424314],[123.68783868970887,-28.2078055654701],[123.68577073589191,-28.208100849313208],[123.68856022195129,-28.214916155377168],[123.68333333292516,-28.214915029400593],[123.68333333306877,-28.215322522870796],[123.68333333329085,-28.21666666710738],[123.70000000044064,-28.216666666779172],[123.69999975191449,-28.21532218414635],[123.69999999968425,-28.200000000473295]]]},"properties":{"fmt_tenid":"E 38/3334","type":"EXPLORATION LICENCE","tenstatus":"LIVE","holder1":"GOLD ROAD (NORTH YAMARNA) PTY LTD","holder2":" ","legal_area":1,"unit_of_me":"BL.","_colour":"#a0c4f0","_label":"Exploration Licence"}},{"type":"Feature","geometry":{"type":"Polygon","coordinates":[[[123.9333333329658,-27.949999999550602],[123.93333333341403,-27.933333333398448],[123.91666666708623,-27.933333333075687],[123.89999999974582,-27.933333332815],[123.90000000032383,-27.949999999705252],[123.89999999963658,-27.96666666658389],[123.9166666670917,-27.96666666731432],[123.91666666722787,-27.983333332609675],[123.93333333291385,-27.983333333210716],[123.95000000004936,-27.98333333301503],[123.9499999996079,-27.966666667350466],[123.93333333342483,-27.966666667187358],[123.9333333329658,-27.949999999550602]]]},"properties":{"fmt_tenid":"E 38/3410","type":"EXPLORATION LICENCE","tenstatus":"LIVE","holder1":"GOLD ROAD (NORTH YAMARNA) PTY LTD","holder2":" ","legal_area":6,"unit_of_me":"BL.","_colour":"#a0c4f0","_label":"Exploration Licence"}},{"type":"Feature","geometry":{"type":"Polygon","coordinates":[[[123.83333333278414,-28.28333333286496],[123.83333333304942,-28.266666666838905],[123.8166666668685,-28.266666667260775],[123.8000000003819,-28.26666666680747],[123.79999999995998,-28.283333332588892],[123.79999999979131,-28.300000000126083],[123.81666666678507,-28.30000000032775],[123.81666666675058,-28.3166666673712],[123.83333333254666,-28.316666666933877],[123.83333333304057,-28.33333333294189],[123.83333333283622,-28.350000000474758],[123.8500000004165,-28.350000000426736],[123.86666666683438,-28.35000000029969],[123.86666666699303,-28.333333332870193],[123.86666666675609,-28.31666666678954],[123.84999999985729,-28.316666667025473],[123.85000000022823,-28.299999999900457],[123.83333333337211,-28.300000000306554],[123.83333333278414,-28.28333333286496]]]},"properties":{"fmt_tenid":"E 38/3411","type":"EXPLORATION LICENCE","tenstatus":"LIVE","holder1":"GOLD ROAD (NORTH YAMARNA) PTY LTD","holder2":" ","legal_area":10,"unit_of_me":"BL.","_colour":"#a0c4f0","_label":"Exploration Licence"}},{"type":"Feature","geometry":{"type":"Polygon","coordinates":[[[123.6034452656368,-28.075911871421773],[123.60694593779685,-28.084485610212717],[123.61263479676066,-28.098415383708794],[123.61956917419994,-28.11538955634297],[123.62650577124549,-28.132363310310275],[123.64049901861742,-28.127721375555975],[123.63353923666145,-28.110755208998185],[123.62658169403781,-28.09378862093703],[123.62022491712217,-28.07828189817695],[123.61735014634037,-28.071267584661925],[123.6034452656368,-28.075911871421773]]]},"properties":{"fmt_tenid":"M 38/1178","type":"MINING LEASE","tenstatus":"LIVE","holder1":"GOLD ROAD (GRUYERE) PTY LTD","holder2":"GRUYERE MINING COMPANY PTY LTD","legal_area":974.5,"unit_of_me":"HA.","_colour":"#f5a520","_label":"Mining Lease"}},{"type":"Feature","geometry":{"type":"Polygon","coordinates":[[[123.62650577124549,-28.132363310310275],[123.63347382120956,-28.149204989422238],[123.63999714445895,-28.164966523238444],[123.64701414797604,-28.181915142985698],[123.65357903284414,-28.18942050182867],[123.66340007455803,-28.200645877557225],[123.67588663969518,-28.214913424057453],[123.66670288164406,-28.198797373435077],[123.65760180056225,-28.18282088199992],[123.65173190254824,-28.16803289158805],[123.64636695305914,-28.154513114651877],[123.6437232394646,-28.147849545945306],[123.64817645015137,-28.146430145653685],[123.64049901861742,-28.127721375555975],[123.62650577124549,-28.132363310310275]]]},"properties":{"fmt_tenid":"M 38/1179","type":"MINING LEASE","tenstatus":"LIVE","holder1":"GOLD ROAD (GRUYERE) PTY LTD","holder2":"GRUYERE MINING COMPANY PTY LTD","legal_area":874.95,"unit_of_me":"HA.","_colour":"#f5a520","_label":"Mining Lease"}},{"type":"Feature","geometry":{"type":"Polygon","coordinates":[[[123.68470851618225,-28.131942537575643],[123.68472068680059,-28.14999575460911],[123.68473115395388,-28.16542921773712],[123.68473221597716,-28.17700595278715],[123.68473279031993,-28.181891029309863],[123.6891227328212,-28.18152486995875],[123.68912787702632,-28.181999901485884],[123.71808147377729,-28.182010551688613],[123.71810194934348,-28.163957529574734],[123.71812248847581,-28.145904451297476],[123.71813686112279,-28.133296849636512],[123.70143797607014,-28.133310831023717],[123.70142163462046,-28.131936781642395],[123.68470851618225,-28.131942537575643]]]},"properties":{"fmt_tenid":"M 38/1255","type":"MINING LEASE","tenstatus":"LIVE","holder1":"GOLD ROAD (GRUYERE) PTY LTD","holder2":"GRUYERE MINING COMPANY PTY LTD","legal_area":1793.5,"unit_of_me":"HA.","_colour":"#f5a520","_label":"Mining Lease"}},{"type":"Feature","geometry":{"type":"Polygon","coordinates":[[[123.82008945328354,-27.966678800285667],[123.81664752126956,-27.968565278041023],[123.81664131601264,-27.98547559983095],[123.81663603377869,-28.000013233128023],[123.8333194949154,-28.000005985822554],[123.83331966945943,-28.01634446441318],[123.8333197848509,-28.024074488961386],[123.83331990905955,-28.03203849587379],[123.83332019708013,-28.047404452523878],[123.83332061649142,-28.065432460100382],[123.83332105120736,-28.081345141133703],[123.84263766174625,-28.081342238136852],[123.86299242698786,-28.08133370184457],[123.88334709348264,-28.081322147373786],[123.88334815905962,-28.067889497991153],[123.88334952319207,-28.05140511810303],[123.8833506098489,-28.03897555115896],[123.88335226059303,-28.02078868140736],[123.88335398843176,-28.002780943869716],[123.88335582324498,-27.984578786922587],[123.88335771654107,-27.9666750430006],[123.88108908141196,-27.966675678701968],[123.86075595970317,-27.96667972709019],[123.8404227427844,-27.966680762267075],[123.82008945328354,-27.966678800285667]]]},"properties":{"fmt_tenid":"M 38/1267","type":"MINING LEASE","tenstatus":"LIVE","holder1":"GOLD ROAD (GRUYERE) PTY LTD","holder2":"GRUYERE MINING COMPANY PTY LTD","legal_area":6855,"unit_of_me":"HA.","_colour":"#f5a520","_label":"Mining Lease"}},{"type":"Feature","geometry":{"type":"Polygon","coordinates":[[[123.6437232394646,-28.147849545945306],[123.64636695305914,-28.154513114651877],[123.65173190254824,-28.16803289158805],[123.65760180056225,-28.18282088199992],[123.66779878675062,-28.179401101888274],[123.6733183958257,-28.1930201187676],[123.68020656229908,-28.210010593363464],[123.68577073589191,-28.208100849313208],[123.67286878449232,-28.176721303308497],[123.66434426278808,-28.177265484870407],[123.66405875921068,-28.159042593927687],[123.66542707205099,-28.159164616806013],[123.66307862927094,-28.15290128850437],[123.65900121033502,-28.142979143003608],[123.64817645015137,-28.146430145653685],[123.6437232394646,-28.147849545945306]]]},"properties":{"fmt_tenid":"M 38/435","type":"MINING LEASE","tenstatus":"LIVE","holder1":"GOLD ROAD (GRUYERE) PTY LTD","holder2":"GRUYERE MINING COMPANY PTY LTD","legal_area":770.2,"unit_of_me":"HA.","_colour":"#f5a520","_label":"Mining Lease"}},{"type":"Feature","geometry":{"type":"Polygon","coordinates":[[[123.66434426278808,-28.177265484870407],[123.67286878449232,-28.176721303308497],[123.66818244508502,-28.165320819192935],[123.66542707205099,-28.159164616806013],[123.66405875921068,-28.159042593927687],[123.66434426278808,-28.177265484870407]]]},"properties":{"fmt_tenid":"M 38/436","type":"MINING LEASE","tenstatus":"LIVE","holder1":"GOLD ROAD (GRUYERE) PTY LTD","holder2":"GRUYERE MINING COMPANY PTY LTD","legal_area":98.59,"unit_of_me":"HA.","_colour":"#f5a520","_label":"Mining Lease"}},{"type":"Feature","geometry":{"type":"Polygon","coordinates":[[[123.6758980504648,-28.165351164377213],[123.67232678176383,-28.16532046499098],[123.66818244508502,-28.165320819192935],[123.67286878449232,-28.176721303308497],[123.68473221597716,-28.17700595278715],[123.68473115395388,-28.16542921773712],[123.6758980504648,-28.165351164377213]],[[123.67279067940724,-28.17003806581353],[123.67286505532002,-28.166233547683458],[123.67728756732221,-28.166223395584943],[123.67732710028585,-28.170177182207972],[123.67279067940724,-28.17003806581353]]]},"properties":{"fmt_tenid":"M 38/437","type":"MINING LEASE","tenstatus":"LIVE","holder1":"GOLD ROAD (GRUYERE) PTY LTD","holder2":"GRUYERE MINING COMPANY PTY LTD","legal_area":158.5,"unit_of_me":"HA.","_colour":"#f5a520","_label":"Mining Lease"}},{"type":"Feature","geometry":{"type":"Polygon","coordinates":[[[123.67889070923177,-28.182377184414406],[123.68473279031993,-28.181891029309863],[123.68473221597716,-28.17700595278715],[123.67286878449232,-28.176721303308497],[123.68577073589191,-28.208100849313208],[123.68783868970887,-28.2078055654701],[123.6876189259349,-28.18594240625055],[123.68111224042458,-28.187604583312286],[123.67889070923177,-28.182377184414406]]]},"properties":{"fmt_tenid":"M 38/438","type":"MINING LEASE","tenstatus":"LIVE","holder1":"GOLD ROAD (GRUYERE) PTY LTD","holder2":"GRUYERE MINING COMPANY PTY LTD","legal_area":227.15,"unit_of_me":"HA.","_colour":"#f5a520","_label":"Mining Lease"}},{"type":"Feature","geometry":{"type":"Polygon","coordinates":[[[123.67279067940724,-28.17003806581353],[123.67732710028585,-28.170177182207972],[123.67728756732221,-28.166223395584943],[123.67286505532002,-28.166233547683458],[123.67279067940724,-28.17003806581353]]]},"properties":{"fmt_tenid":"M 38/439","type":"MINING LEASE","tenstatus":"LIVE","holder1":"GOLD ROAD (GRUYERE) PTY LTD","holder2":"GRUYERE MINING COMPANY PTY LTD","legal_area":18.915,"unit_of_me":"HA.","_colour":"#f5a520","_label":"Mining Lease"}},{"type":"Feature","geometry":{"type":"Polygon","coordinates":[[[123.6513824376543,-28.09865933160539],[123.64081687702203,-28.098666534559165],[123.6408142110226,-28.09866653655731],[123.64711371851595,-28.114019829073328],[123.65140419663568,-28.124473923109935],[123.65140419263336,-28.12446980011235],[123.6513824376543,-28.09865933160539]]]},"properties":{"fmt_tenid":"M 38/788","type":"MINING LEASE","tenstatus":"LIVE","holder1":"GOLD ROAD (GRUYERE) PTY LTD","holder2":"GRUYERE MINING COMPANY PTY LTD","legal_area":148.55,"unit_of_me":"HA.","_colour":"#f5a520","_label":"Mining Lease"}},{"type":"Feature","geometry":{"type":"Polygon","coordinates":[[[123.61735014634037,-28.071267584661925],[123.62022491712217,-28.07828189817695],[123.62658169403781,-28.09378862093703],[123.63353923666145,-28.110755208998185],[123.64049901861742,-28.127721375555975],[123.64817645015137,-28.146430145653685],[123.65900121033502,-28.142979143003608],[123.65666812409414,-28.137296835624603],[123.65140419663568,-28.124473923109935],[123.64711371851595,-28.114019829073328],[123.6408142110226,-28.09866653655731],[123.63385531273785,-28.08170056033306],[123.62814711875276,-28.067779433234975],[123.61735014634037,-28.071267584661925]]]},"properties":{"fmt_tenid":"M 38/814","type":"MINING LEASE","tenstatus":"LIVE","holder1":"GOLD ROAD (GRUYERE) PTY LTD","holder2":"GRUYERE MINING COMPANY PTY LTD","legal_area":1000,"unit_of_me":"HA.","_colour":"#f5a520","_label":"Mining Lease"}},{"type":"Feature","geometry":{"type":"Polygon","coordinates":[[[123.65760180056225,-28.18282088199992],[123.66670288164406,-28.198797373435077],[123.67588663969518,-28.214913424057453],[123.68856022195129,-28.214916155377168],[123.68577073589191,-28.208100849313208],[123.68020656229908,-28.210010593363464],[123.6733183958257,-28.1930201187676],[123.66779878675062,-28.179401101888274],[123.65760180056225,-28.18282088199992]]]},"properties":{"fmt_tenid":"M 38/841","type":"MINING LEASE","tenstatus":"LIVE","holder1":"GOLD ROAD (GRUYERE) PTY LTD","holder2":"GRUYERE MINING COMPANY PTY LTD","legal_area":374.5,"unit_of_me":"HA.","_colour":"#f5a520","_label":"Mining Lease"}}]}