{"type":"FeatureCollection","_source":"WA DMIRS via SLIP public API","_holders":["WESTERN AREAS NICKEL PTY LTD","IGO NOVA PTY LTD"],"_ticker":"IGO.AX","features":[{"type":"Feature","geometry":{"type":"MultiPolygon","coordinates":[[[[119.66813916554008,-32.55000000025114],[119.66813943345791,-32.56541051593004],[119.66813982103518,-32.58207719705745],[119.68494240630976,-32.58207699505126],[119.70147311100139,-32.58207680907662],[119.70147349308552,-32.598743568533905],[119.71814012825985,-32.59874329078202],[119.71814048213571,-32.615410122017224],[119.71666666678775,-32.61541014541067],[119.71666666710135,-32.61666666725915],[119.71666666686963,-32.633333332818644],[119.7166666668799,-32.64999999953239],[119.71666666537352,-32.66541011235873],[119.7166666668557,-32.66666666700991],[119.73333333334725,-32.66666666655346],[119.73333333162776,-32.68207694384672],[119.73333333295298,-32.68333333339729],[119.73333333316226,-32.70000000026527],[119.75000000020803,-32.70000000024704],[119.74999999974429,-32.68333333283126],[119.75000000006347,-32.67586561147317],[119.74430944921419,-32.66735873640003],[119.74999999834476,-32.664635400230516],[119.75000000020587,-32.66115888439458],[119.74937995573545,-32.66023198129542],[119.74382535718948,-32.65192711903121],[119.74253662227484,-32.650000000078734],[119.73333333291431,-32.64999999958775],[119.73333333284948,-32.6363275693388],[119.72777222691593,-32.62820898281116],[119.72628354246079,-32.62603534221079],[119.7317739760153,-32.62356939659597],[119.72479930498804,-32.6124458302967],[119.7266117112182,-32.611489759153706],[119.7320886716078,-32.60860029869817],[119.73279798548856,-32.60822605804498],[119.73333333313191,-32.607943593307404],[119.73333333309749,-32.60688014643979],[119.73216605617239,-32.605020093168854],[119.72814713891073,-32.5986152221748],[119.72413341161442,-32.59221757447599],[119.72183629918057,-32.58855563741263],[119.72011554249826,-32.58581227041172],[119.71856083074067,-32.58333333346303],[119.7166666667366,-32.58333333272926],[119.71666666664869,-32.580313147556474],[119.71609962845919,-32.57940902152944],[119.71559921451046,-32.57861105348723],[119.71208117179883,-32.573000622511096],[119.70906931209436,-32.56819677797724],[119.70811006488111,-32.566666671212054],[119.69999999962414,-32.56666666687275],[119.68333333277157,-32.566666666720735],[119.68333333314695,-32.549999999840274],[119.68217110522868,-32.54999999962572],[119.68203473235937,-32.5532206485138],[119.68095239192935,-32.57877877571884],[119.67967817709857,-32.57935099302436],[119.67566023704997,-32.57293816997159],[119.67164778900374,-32.566533071316925],[119.67507353518545,-32.56499417660614],[119.67071467598767,-32.5572343205818],[119.67555057252656,-32.555286148749616],[119.67258090808069,-32.55000000016842],[119.66813916554008,-32.55000000025114]]],[[[119.65000000034229,-32.59999999961002],[119.64999999955494,-32.61666666695038],[119.66666666731844,-32.61666666691103],[119.66666666693204,-32.63333333330188],[119.68333333306705,-32.633333333014704],[119.68333333326733,-32.616666667365465],[119.68333333269254,-32.60000000049411],[119.66666666745739,-32.59999999957855],[119.65000000034229,-32.59999999961002]]],[[[119.68478799644468,-32.48819537070717],[119.68369562945585,-32.51399698799546],[119.68333333303727,-32.52255274149757],[119.68333332776224,-32.533333328700145],[119.6978198082059,-32.53333333251964],[119.69796639799355,-32.53116150392812],[119.69967797026337,-32.50861580991867],[119.70000000023033,-32.50417766896357],[119.70000000023242,-32.499999999916035],[119.70000000024044,-32.48825973949802],[119.68478799644468,-32.48819537070717]]]]},"properties":{"fmt_tenid":"E 77/1416","type":"EXPLORATION LICENCE","tenstatus":"LIVE","holder1":"WESTERN AREAS NICKEL PTY LTD","holder2":" ","legal_area":19,"unit_of_me":"BL.","_colour":"#a0c4f0","_label":"Exploration Licence"}},{"type":"Feature","geometry":{"type":"MultiPolygon","coordinates":[[[[119.78333333285097,-32.166666666677926],[119.78333333283345,-32.181834687929765],[119.78913018340994,-32.18167234549384],[119.78892664582163,-32.17645940511582],[119.7886592537392,-32.169614818238486],[119.78821914597047,-32.15834440571358],[119.78333333285364,-32.15848191323273],[119.78333333285097,-32.166666666677926]]],[[[119.8000000000738,-32.16666666740386],[119.8000000004163,-32.1499999999574],[119.79673348422853,-32.14999999995085],[119.79810821731077,-32.158065725724825],[119.79782349372626,-32.169357237885045],[119.8000000003773,-32.169295927519165],[119.8000000000738,-32.16666666740386]]]]},"properties":{"fmt_tenid":"E 77/1436","type":"EXPLORATION LICENCE","tenstatus":"LIVE","holder1":"WESTERN AREAS NICKEL PTY LTD","holder2":" ","legal_area":2,"unit_of_me":"BL.","_colour":"#a0c4f0","_label":"Exploration Licence"}},{"type":"Feature","geometry":{"type":"Polygon","coordinates":[[[123.21666666895946,-31.78333333167481],[123.20000000413026,-31.78333333318142],[123.18333333099837,-31.783333336076648],[123.18333333198893,-31.800000004479887],[123.16666666239017,-31.799999996905893],[123.14999999633383,-31.80000000137736],[123.14999999730854,-31.81666666488804],[123.15000000029258,-31.83333332983834],[123.14999999513621,-31.849999997152267],[123.1666666617886,-31.850000002199153],[123.18333333439186,-31.849999998424746],[123.1999999980923,-31.8500000026609],[123.1999999980789,-31.833333338149657],[123.21666667147149,-31.83333333111715],[123.23333333594903,-31.833333334987948],[123.23333333413262,-31.816666668756056],[123.23333333064778,-31.79999999710475],[123.23333333709601,-31.78333333350857],[123.21666666895946,-31.78333333167481]]]},"properties":{"fmt_tenid":"M 28/376","type":"MINING LEASE","tenstatus":"LIVE","holder1":"IGO NOVA PTY LTD","holder2":" ","legal_area":4666.5,"unit_of_me":"HA.","_colour":"#f5a520","_label":"Mining Lease"}},{"type":"Feature","geometry":{"type":"Polygon","coordinates":[[[119.60950135111054,-32.098684701845876],[119.59687381427936,-32.10315378827309],[119.59872332361226,-32.106647592356644],[119.59099985542765,-32.1092467990285],[119.59407129487407,-32.11600500417168],[119.59514233266341,-32.118277447647664],[119.59725691720449,-32.12276365159824],[119.60043839119692,-32.1295124209757],[119.60106382974925,-32.13083902068757],[119.60357233088037,-32.136259876586344],[119.6066970873445,-32.14301149117961],[119.62156135907702,-32.13798594635889],[119.62470297037645,-32.14472789379864],[119.62787499675518,-32.15147980254118],[119.63228888144836,-32.14997591591453],[119.62571509604635,-32.134584482473336],[119.60950135111054,-32.098684701845876]]]},"properties":{"fmt_tenid":"M 77/324","type":"MINING LEASE","tenstatus":"LIVE","holder1":"WESTERN AREAS NICKEL PTY LTD","holder2":" ","legal_area":949.5,"unit_of_me":"HA.","_colour":"#f5a520","_label":"Mining Lease"}},{"type":"Feature","geometry":{"type":"Polygon","coordinates":[[[119.7453650815052,-32.40095669521595],[119.74536337161027,-32.404475546866166],[119.73864141238982,-32.40432981019036],[119.7359849412586,-32.40427211673763],[119.73620377039721,-32.4072974124204],[119.73635783496557,-32.40918736085624],[119.73678922417929,-32.41447885707615],[119.73690703759947,-32.415889573647796],[119.74165895259137,-32.41590035317397],[119.7463705906443,-32.415908250676566],[119.74640542505263,-32.422935283151716],[119.74090352002594,-32.42292323268489],[119.74081613965808,-32.423737115984096],[119.74126338995374,-32.42912392839048],[119.7412823748498,-32.42935276949141],[119.74183066800461,-32.435961369382234],[119.74874885323159,-32.43576480587433],[119.7570615495786,-32.43552075570798],[119.7574878079955,-32.435499428851266],[119.75738598268211,-32.43448193474961],[119.75617181273213,-32.4223475073101],[119.75553469764075,-32.415978847535825],[119.77006651717284,-32.41139457392691],[119.77028549402417,-32.401121063445686],[119.76240959940813,-32.40100010057297],[119.75402766684277,-32.400870645953134],[119.7538536941039,-32.40086795289914],[119.75361981143448,-32.400899521835136],[119.7453650815052,-32.40095669521595]]]},"properties":{"fmt_tenid":"M 77/467","type":"MINING LEASE","tenstatus":"LIVE","holder1":"WESTERN AREAS NICKEL PTY LTD","holder2":" ","legal_area":738,"unit_of_me":"HA.","_colour":"#f5a520","_label":"Mining Lease"}},{"type":"Feature","geometry":{"type":"Polygon","coordinates":[[[119.74874885323159,-32.43576480587433],[119.74893315263787,-32.4550513841247],[119.74342218800918,-32.45537721193387],[119.74349632922647,-32.45627976870031],[119.74404344380733,-32.4629395155258],[119.7420536402065,-32.46303328368618],[119.73791860081641,-32.47805730898355],[119.73247321140614,-32.47818635413488],[119.72824398800003,-32.47828641487888],[119.72980230230364,-32.47994534988143],[119.73342138487867,-32.483798883908],[119.73389478915759,-32.48536185618419],[119.73477394127295,-32.48826425463775],[119.73558460930805,-32.4909403188254],[119.73636631186557,-32.492574644895065],[119.738799589052,-32.49766153611062],[119.73881822100638,-32.499526878058234],[119.74446105081904,-32.49933640390929],[119.74614438315808,-32.49927947216321],[119.74582158410327,-32.49234722332384],[119.74646578207636,-32.4923317644212],[119.7458706769569,-32.485120103374925],[119.74527354192091,-32.47788263423303],[119.75931538243813,-32.477585387092006],[119.7617014940513,-32.477506248106266],[119.76169271887612,-32.47740706410698],[119.76086294269395,-32.469173177098426],[119.760599796802,-32.466561656310255],[119.75933503039379,-32.453944100561216],[119.75929863610367,-32.45358096860105],[119.75842592747111,-32.44487249778367],[119.7574878079955,-32.435499428851266],[119.7570615495786,-32.43552075570798],[119.74874885323159,-32.43576480587433]]]},"properties":{"fmt_tenid":"M 77/468","type":"MINING LEASE","tenstatus":"LIVE","holder1":"WESTERN AREAS NICKEL PTY LTD","holder2":" ","legal_area":900.5,"unit_of_me":"HA.","_colour":"#f5a520","_label":"Mining Lease"}},{"type":"Feature","geometry":{"type":"Polygon","coordinates":[[[119.66969173900827,-32.34038387721838],[119.68229142695566,-32.36890342759606],[119.69593519304864,-32.367677963951074],[119.69379730853443,-32.362702263021504],[119.68975993944623,-32.35330451632494],[119.68843073336348,-32.35021010074541],[119.6863204021845,-32.345296759843606],[119.6830445820192,-32.33772577050431],[119.67502936179643,-32.34064422510294],[119.67419440039227,-32.33899035476415],[119.66969173900827,-32.34038387721838]]]},"properties":{"fmt_tenid":"M 77/544","type":"MINING LEASE","tenstatus":"LIVE","holder1":"WESTERN AREAS NICKEL PTY LTD","holder2":" ","legal_area":433.35,"unit_of_me":"HA.","_colour":"#f5a520","_label":"Mining Lease"}},{"type":"Feature","geometry":{"type":"Polygon","coordinates":[[[119.6821392761273,-32.37114132465251],[119.68433562072845,-32.37791462077272],[119.68650261652637,-32.38459628990805],[119.6886451230136,-32.3912014030816],[119.69085265406302,-32.39805251328747],[119.69493615655396,-32.397050240564226],[119.70605699519298,-32.39431838213694],[119.70472990560529,-32.387465325042726],[119.7025788678023,-32.380840886873656],[119.7004101429611,-32.37416095773088],[119.69758772953706,-32.36754034143701],[119.6821392761273,-32.37114132465251]]]},"properties":{"fmt_tenid":"M 77/99","type":"MINING LEASE","tenstatus":"LIVE","holder1":"WESTERN AREAS NICKEL PTY LTD","holder2":" ","legal_area":478.8,"unit_of_me":"HA.","_colour":"#f5a520","_label":"Mining Lease"}}]}