{"type":"FeatureCollection","_source":"Multi-state Australian tenement registry","_holders":["ILUKA RESOURCES LIMITED","ILUKA MIDWEST LIMITED","ILUKA FINANCE LIMITED"],"_ticker":"ILU.AX","features":[{"type":"Feature","geometry":{"type":"Polygon","coordinates":[[[115.61666665984953,-30.733333328474476],[115.61666665962717,-30.716666672630733],[115.61666665983468,-30.700000001670578],[115.63333333132823,-30.7000000015694],[115.63333333109792,-30.683333330225942],[115.63333333085313,-30.666666658948348],[115.63333333072268,-30.65000000434049],[115.63333333095382,-30.63333333317957],[115.6333333308702,-30.616666661432514],[115.616666659879,-30.61666666123933],[115.60000000354854,-30.61666666097519],[115.58333333309642,-30.616666660604473],[115.58333333287226,-30.633333333009542],[115.58333333337207,-30.65000000445183],[115.56666666179036,-30.65000000377172],[115.56666666152215,-30.666666659151904],[115.56666666161321,-30.683333330299273],[115.55000000716606,-30.68333332987643],[115.55000000695341,-30.700000001934978],[115.550000006663,-30.716666672738338],[115.55000000701514,-30.733333328458556],[115.55000000015275,-30.739433578188436],[115.55265780808783,-30.742482065654162],[115.55265786808752,-30.74248202665417],[115.56208329163742,-30.753291155760255],[115.55877430339382,-30.75544046998387],[115.55874835734276,-30.75660271470105],[115.55870181703845,-30.758688939812036],[115.55978664166442,-30.76055338504419],[115.56345062629956,-30.76684987980019],[115.56698260163951,-30.770898483865704],[115.56710922922349,-30.771116055836952],[115.56749818571609,-30.771116152112455],[115.56767824713555,-30.771388330755435],[115.56785832253846,-30.7716605254118],[115.57223449797084,-30.778275016887235],[115.57458776103502,-30.782896848463874],[115.57630951318765,-30.78627804884988],[115.57963933874292,-30.790083006838756],[115.58062611777102,-30.791210535073116],[115.58062476854332,-30.795526626005994],[115.5829052876703,-30.795526722237195],[115.5883698901627,-30.795526771187316],[115.5965170764224,-30.795526432840642],[115.59651804036956,-30.80125850550192],[115.59651924452803,-30.808475397747305],[115.5965204500627,-30.815693239156086],[115.61220151475614,-30.815690877385393],[115.61189169459776,-30.82290309490181],[115.61181470959343,-30.824695181073785],[115.6116522262099,-30.825712501133655],[115.61562224730223,-30.83333333290525],[115.61666665973992,-30.833333340486153],[115.61666666673884,-30.835338195647843],[115.61684016520906,-30.835671260650194],[115.62198270452124,-30.845540585088656],[115.62669771256404,-30.854593293236665],[115.63302562628898,-30.866666666131458],[115.63333333050737,-30.866666665806996],[115.65000000181954,-30.86666666601353],[115.65000000169027,-30.84999999492496],[115.65000000159165,-30.833333339805254],[115.65000000215248,-30.8166666679841],[115.63333333073774,-30.81666666823377],[115.63333333036925,-30.799999997017032],[115.63333333069583,-30.78333332621772],[115.63333333102061,-30.76666667077711],[115.63333333088329,-30.749999999300222],[115.61666666018895,-30.74999999888591],[115.61666665984953,-30.733333328474476]]]},"properties":{"fmt_tenid":"E 70/5635","type":"EXPLORATION LICENCE","tenstatus":"LIVE","holder1":"ILUKA MIDWEST LIMITED","holder2":" ","legal_area":55,"unit_of_me":"BL.","_colour":"#a0c4f0","_label":"Exploration Licence"}},{"type":"Feature","geometry":{"type":"Polygon","coordinates":[[[115.54999999995334,-30.69999999993495],[115.55000000016601,-30.683333332876458],[115.56666666661317,-30.68333333329929],[115.56666666652208,-30.66666666715194],[115.56666666679033,-30.64999999977171],[115.58333333337207,-30.65000000045181],[115.58333333287226,-30.633333333009542],[115.58333333309645,-30.616666666604456],[115.5666666667014,-30.616666667289838],[115.55000000026112,-30.61666666683357],[115.53333333293268,-30.616666666978556],[115.53333333322352,-30.633333333398255],[115.5166666673589,-30.633333332984954],[115.50000000010128,-30.633333333171368],[115.48333333277822,-30.633333333210793],[115.46666666746079,-30.633333332590166],[115.46666666674086,-30.64999999972902],[115.46666666671582,-30.66666666733243],[115.46666666734416,-30.66874499542118],[115.46774105864766,-30.669945343736632],[115.46828999327516,-30.67055861591421],[115.47251958497588,-30.675283600093202],[115.47287692216261,-30.67568276290064],[115.47414102183484,-30.677094784907574],[115.47430418092291,-30.6772770323128],[115.47690026358845,-30.68017671267042],[115.48390610817584,-30.68800072396952],[115.48834990524497,-30.69470500384818],[115.48939452386831,-30.696280844242995],[115.49023651390723,-30.69755096892539],[115.49666118992607,-30.70343470484827],[115.49666095218765,-30.70250622158065],[115.50000000013308,-30.705534982746133],[115.5000000003423,-30.700000000318557],[115.51666666716658,-30.699999999805023],[115.51666666607609,-30.709617342457488],[115.51666666653216,-30.711617503752375],[115.52777714580111,-30.720396636902954],[115.54608693020472,-30.73461118954605],[115.54584561307583,-30.73466854776678],[115.55000000015275,-30.739433578188436],[115.5500000000151,-30.733333333458557],[115.54999999966303,-30.71666666673828],[115.54999999995334,-30.69999999993495]]]},"properties":{"fmt_tenid":"E 70/5636","type":"EXPLORATION LICENCE","tenstatus":"LIVE","holder1":"ILUKA MIDWEST LIMITED","holder2":" ","legal_area":33,"unit_of_me":"BL.","_colour":"#a0c4f0","_label":"Exploration Licence"}},{"type":"Feature","geometry":{"type":"MultiPolygon","coordinates":[[[[115.56057000198675,-33.678516154746056],[115.56316727230755,-33.67639823573319],[115.56324490851922,-33.67633492476375],[115.56660683829742,-33.67359324327962],[115.56666666719771,-33.67354443230961],[115.56666666706374,-33.66666666732392],[115.55000000039682,-33.66666666664509],[115.53439031633111,-33.66666666712614],[115.5333333333782,-33.66749565984507],[115.53333333195819,-33.6833333326804],[115.53333333340765,-33.699999999865945],[115.53759339263986,-33.70000000047536],[115.5377319132165,-33.6999028844906],[115.53829710154342,-33.69950660654272],[115.54763480159717,-33.69295900705381],[115.55019718946888,-33.6911617659742],[115.55355909594813,-33.68893379821234],[115.55345580154342,-33.68885522429636],[115.5536161721192,-33.68873523733154],[115.55436813308135,-33.68930718071775],[115.55661280494002,-33.68753261230274],[115.56057454399843,-33.68440029245819],[115.56190892516238,-33.68334369988385],[115.56057372946275,-33.683354082220596],[115.56057000198675,-33.678516154746056]]],[[[115.56666666734269,-33.69200334595678],[115.56223163886247,-33.69550576503007],[115.559961663016,-33.693767759662855],[115.55577590973486,-33.69671850360095],[115.55209966796264,-33.69929677167602],[115.55109679970424,-33.699999999716425],[115.56666666715664,-33.70000000002406],[115.56666666734269,-33.69200334595678]]]]},"properties":{"fmt_tenid":"E 70/6471","type":"EXPLORATION LICENCE","tenstatus":"LIVE","holder1":"ILUKA MIDWEST LIMITED","holder2":" ","legal_area":4,"unit_of_me":"BL.","_colour":"#a0c4f0","_label":"Exploration Licence"}},{"type":"Feature","geometry":{"type":"Polygon","coordinates":[[[115.25610409960993,-29.950936809562783],[115.25611624283246,-29.959774955964196],[115.25715857955107,-29.959773539545232],[115.25715031952784,-29.971638458174315],[115.27162282387211,-29.963138721460922],[115.28277342048014,-29.96313872111783],[115.28277342143336,-29.94946339147644],[115.27177734976051,-29.949888130040748],[115.27187704986665,-29.950450360486425],[115.26881737033573,-29.95053705002689],[115.2605341604767,-29.950771389568455],[115.26056995992042,-29.951736100040257],[115.26077983984628,-29.95739063989755],[115.26041565016644,-29.951736069796823],[115.26037419973171,-29.950937400384372],[115.25610409960993,-29.950936809562783]]]},"properties":{"fmt_tenid":"E 70/953","type":"EXPLORATION LICENCE","tenstatus":"LIVE","holder1":"ILUKA MIDWEST LIMITED","holder2":" ","legal_area":4.27,"unit_of_me":"KM2","_colour":"#a0c4f0","_label":"Exploration Licence"}},{"type":"Feature","geometry":{"type":"Polygon","coordinates":[[[115.62641718977615,-30.87273089049205],[115.62788919645062,-30.874249816917736],[115.6293879787343,-30.876425942270398],[115.63007716825557,-30.87893752258357],[115.6305164853279,-30.88525850346091],[115.63085935821479,-30.890692904041003],[115.63191271954335,-30.89069169098571],[115.64273771627157,-30.89068672535838],[115.64378496900322,-30.891643274810903],[115.64561077102118,-30.891642167871055],[115.64601732517804,-30.891442124952373],[115.63620617454603,-30.872735004355597],[115.62669770756416,-30.854593297236683],[115.6234980354067,-30.854594359071495],[115.62035620706148,-30.854594242274572],[115.61258504584625,-30.85459363988357],[115.61224454520793,-30.85459360447214],[115.61108969725994,-30.85459347607664],[115.61073885454154,-30.854593435652724],[115.61101991905811,-30.855137436643666],[115.61296439828966,-30.85884640581758],[115.62641718977615,-30.87273089049205]]]},"properties":{"fmt_tenid":"M 70/1017","type":"MINING LEASE","tenstatus":"LIVE","holder1":"ILUKA MIDWEST LIMITED","holder2":" ","legal_area":474.4,"unit_of_me":"HA.","_colour":"#f5a520","_label":"Mining Lease"}},{"type":"Feature","geometry":{"type":"Polygon","coordinates":[[[115.54813145087849,-30.749284843329697],[115.55540627538517,-30.757627751035916],[115.5587742963938,-30.75544047498389],[115.56208328963729,-30.753291155760255],[115.5526578650876,-30.74248202765416],[115.54598444146896,-30.746822423269432],[115.54813145087849,-30.749284843329697]]]},"properties":{"fmt_tenid":"M 70/1018","type":"MINING LEASE","tenstatus":"LIVE","holder1":"ILUKA MIDWEST LIMITED","holder2":" ","legal_area":120,"unit_of_me":"HA.","_colour":"#f5a520","_label":"Mining Lease"}},{"type":"Feature","geometry":{"type":"Polygon","coordinates":[[[115.23315905534562,-29.959866314520635],[115.23608107805744,-29.959866175794687],[115.2360810602076,-29.95806197231094],[115.23815300484854,-29.958061947703822],[115.23815288188916,-29.962798764557707],[115.24132753928893,-29.962895603995804],[115.24262011577265,-29.96293501099223],[115.24263128603889,-29.958421570661777],[115.24783227354104,-29.95846466519657],[115.24780352990489,-29.959785931129307],[115.25611624283246,-29.959774955964196],[115.25610410060989,-29.950936805562765],[115.25609787180262,-29.946399999094492],[115.2560978037721,-29.9463506370676],[115.25272825794693,-29.946354283299318],[115.24444282803088,-29.946362881616533],[115.23615573933901,-29.9463709591006],[115.2329818646581,-29.946373914074517],[115.23315905534562,-29.959866314520635]]]},"properties":{"fmt_tenid":"M 70/1039","type":"MINING LEASE","tenstatus":"LIVE","holder1":"ILUKA MIDWEST LIMITED","holder2":" ","legal_area":334.55,"unit_of_me":"HA.","_colour":"#f5a520","_label":"Mining Lease"}},{"type":"Feature","geometry":{"type":"Polygon","coordinates":[[[115.64884662201578,-33.58806593782036],[115.64314792306048,-33.58806174870546],[115.64017237299603,-33.588059211122605],[115.64016586517738,-33.59494836723727],[115.64016149464048,-33.59957626734592],[115.64016117474742,-33.59991487064661],[115.64883274661294,-33.59991986722858],[115.64888413867726,-33.599919894226105],[115.65600911995368,-33.59992351515197],[115.6575002438567,-33.59992421800225],[115.65750073519085,-33.599207754626015],[115.65750583627485,-33.59176366571787],[115.65750611190063,-33.59136075750638],[115.65750836084598,-33.588071800780256],[115.64884662201578,-33.58806593782036]]]},"properties":{"fmt_tenid":"M 70/105","type":"MINING LEASE","tenstatus":"LIVE","holder1":"ILUKA RESOURCES LIMITED","holder2":" ","legal_area":211.65,"unit_of_me":"HA.","_colour":"#f5a520","_label":"Mining Lease"}},{"type":"Feature","geometry":{"type":"Polygon","coordinates":[[[115.60150838915317,-33.64879830123676],[115.60519944289624,-33.648798429679864],[115.60668441015677,-33.64736447434431],[115.61463707357343,-33.63968388762652],[115.61817513895706,-33.6362663238221],[115.61817508629312,-33.63213128088848],[115.6086509079979,-33.632131668884675],[115.60150843460009,-33.632131484548694],[115.60150841715607,-33.63854108251664],[115.60150838915317,-33.64879830123676]]]},"properties":{"fmt_tenid":"M 70/1052","type":"MINING LEASE","tenstatus":"LIVE","holder1":"ILUKA RESOURCES LIMITED","holder2":" ","legal_area":202.2,"unit_of_me":"HA.","_colour":"#f5a520","_label":"Mining Lease"}},{"type":"Feature","geometry":{"type":"Polygon","coordinates":[[[115.68933317670387,-33.55632205613618],[115.68430014621637,-33.55631644387842],[115.68023876338678,-33.556311795309114],[115.68023846939721,-33.556493190287455],[115.68429986325899,-33.55649782784219],[115.68933129474159,-33.556503557114574],[115.68930047317711,-33.56851450767382],[115.68929323008507,-33.57502791933378],[115.68950991492339,-33.57502821937445],[115.68951003591553,-33.57496697436443],[115.68951021090436,-33.57487849234995],[115.68952782747597,-33.56596066001788],[115.6895465567211,-33.557149561032176],[115.68954736864501,-33.55676732507601],[115.68954754362875,-33.55668517108545],[115.6897645574438,-33.556504040097835],[115.68991037534352,-33.5565042010922],[115.69043616298212,-33.55650478207189],[115.69320620007804,-33.556507797965104],[115.69320602005216,-33.55632623497171],[115.69320420426196,-33.55449837698535],[115.69320385753899,-33.554150517961546],[115.6929872357186,-33.55415065597751],[115.69298925520057,-33.55632600298085],[115.68933317670387,-33.55632205613618]]]},"properties":{"fmt_tenid":"M 70/1073","type":"MINING LEASE","tenstatus":"LIVE","holder1":"ILUKA RESOURCES LIMITED","holder2":" ","legal_area":7.0405,"unit_of_me":"HA.","_colour":"#f5a520","_label":"Mining Lease"}},{"type":"Feature","geometry":{"type":"Polygon","coordinates":[[[115.59864176697673,-33.49901179860047],[115.59772677831786,-33.49922652545687],[115.5975108154043,-33.499277204956734],[115.59220307271045,-33.5005226290748],[115.59220516246332,-33.50071074375679],[115.59406644882515,-33.50027396836381],[115.5942203858367,-33.5063424371981],[115.59426050799868,-33.50792410345725],[115.5948269211871,-33.5079219918672],[115.59802916363203,-33.50791000999931],[115.60024364660478,-33.50790167312605],[115.60022390824324,-33.50427319427658],[115.60018653950131,-33.49919406923427],[115.60018545183182,-33.49901268659005],[115.59864176697673,-33.49901179860047]]]},"properties":{"fmt_tenid":"M 70/1082","type":"MINING LEASE","tenstatus":"LIVE","holder1":"ILUKA RESOURCES LIMITED","holder2":" ","legal_area":53.495,"unit_of_me":"HA.","_colour":"#f5a520","_label":"Mining Lease"}},{"type":"Feature","geometry":{"type":"Polygon","coordinates":[[[115.58945791713514,-33.51701410276624],[115.58925072409667,-33.517014862621885],[115.58760165578899,-33.517020900473206],[115.58463231822499,-33.51703171640743],[115.5846569462353,-33.521550629805965],[115.58466300291686,-33.52266196537786],[115.58582820136895,-33.52265751385506],[115.58563108761949,-33.52231554930724],[115.58593757792762,-33.521627496512814],[115.58577601229162,-33.52084314037424],[115.58573980639147,-33.52019290447336],[115.58593734789129,-33.51981991807754],[115.58785690866209,-33.518856350946066],[115.58949182222977,-33.51800927395125],[115.59076848737664,-33.51700928867995],[115.58945791713514,-33.51701410276624]]]},"properties":{"fmt_tenid":"M 70/1083","type":"MINING LEASE","tenstatus":"LIVE","holder1":"ILUKA RESOURCES LIMITED","holder2":" ","legal_area":14.67,"unit_of_me":"HA.","_colour":"#f5a520","_label":"Mining Lease"}},{"type":"Feature","geometry":{"type":"Polygon","coordinates":[[[115.58356674318188,-33.501212086082596],[115.58356757965939,-33.50139343950049],[115.58678820217968,-33.501382874626074],[115.5868434544919,-33.50120153410235],[115.58356674318188,-33.501212086082596]]]},"properties":{"fmt_tenid":"M 70/1084","type":"MINING LEASE","tenstatus":"LIVE","holder1":"ILUKA RESOURCES LIMITED","holder2":" ","legal_area":0.608,"unit_of_me":"HA.","_colour":"#f5a520","_label":"Mining Lease"}},{"type":"Feature","geometry":{"type":"Polygon","coordinates":[[[115.5575561040928,-30.76009216639011],[115.56345062529955,-30.766849877800226],[115.55978658066435,-30.760553429044315],[115.55870170303824,-30.758688894812053],[115.55874827834273,-30.756602657701],[115.5587742963938,-30.75544047498389],[115.55540627538517,-30.757627751035916],[115.5575561040928,-30.76009216639011]]]},"properties":{"fmt_tenid":"M 70/1086","type":"MINING LEASE","tenstatus":"LIVE","holder1":"ILUKA RESOURCES LIMITED","holder2":" ","legal_area":17.325,"unit_of_me":"HA.","_colour":"#f5a520","_label":"Mining Lease"}},{"type":"Feature","geometry":{"type":"Polygon","coordinates":[[[115.5582497677664,-33.69247540485352],[115.55839077339704,-33.69236614986317],[115.55436813308135,-33.68930718071775],[115.5536161721192,-33.68873523733154],[115.55345580154342,-33.68885522429636],[115.55355909594813,-33.68893379821234],[115.5582497677664,-33.69247540485352]]]},"properties":{"fmt_tenid":"M 70/1092","type":"MINING LEASE","tenstatus":"LIVE","holder1":"ILUKA RESOURCES LIMITED","holder2":" ","legal_area":1.1275,"unit_of_me":"HA.","_colour":"#f5a520","_label":"Mining Lease"}},{"type":"Feature","geometry":{"type":"Polygon","coordinates":[[[115.55837383964793,-33.632417333817905],[115.52875117619641,-33.65290658503468],[115.53110412901687,-33.65362420918771],[115.53616643423827,-33.65524584085281],[115.54516778583003,-33.658213879281085],[115.57489155039106,-33.637095357336854],[115.57489061028721,-33.633679359797185],[115.57803592820511,-33.632483951878136],[115.58138307557282,-33.632482671825706],[115.58116432342997,-33.63184358751947],[115.58112558816177,-33.631681453691144],[115.5834232407967,-33.63163618371939],[115.58339064054262,-33.63045033668603],[115.59972670964822,-33.624231093471046],[115.59954061422829,-33.618658912911926],[115.59930189105106,-33.61151050552184],[115.5808278628682,-33.620949061764534],[115.58053123434391,-33.62110058876942],[115.55837383964793,-33.632417333817905]]]},"properties":{"fmt_tenid":"M 70/1107","type":"MINING LEASE","tenstatus":"LIVE","holder1":"ILUKA RESOURCES LIMITED","holder2":" ","legal_area":906.05,"unit_of_me":"HA.","_colour":"#f5a520","_label":"Mining Lease"}},{"type":"Feature","geometry":{"type":"Polygon","coordinates":[[[115.51482049023033,-33.58121946449395],[115.51482094860508,-33.58136309885294],[115.51482120581517,-33.581443612054144],[115.51482183632942,-33.581640733546756],[115.51482341932405,-33.58163967754482],[115.51755549378284,-33.57981639804258],[115.52290879514779,-33.57624341605894],[115.52352239168383,-33.57594978335402],[115.52372211577209,-33.575816443065094],[115.52387586807099,-33.57571379284913],[115.5238846680308,-33.575707918837],[115.52389058700389,-33.57570396682876],[115.5248051288465,-33.575093384664875],[115.52480112842395,-33.57391973060886],[115.52480002247735,-33.57359513003991],[115.52464894916524,-33.57369841418205],[115.52329462139943,-33.57565322778791],[115.52292921222873,-33.57595107744438],[115.515832059143,-33.58068827957663],[115.51482049023033,-33.58121946449395]]]},"properties":{"fmt_tenid":"M 70/1120","type":"MINING LEASE","tenstatus":"LIVE","holder1":"ILUKA RESOURCES LIMITED","holder2":" ","legal_area":4.119,"unit_of_me":"HA.","_colour":"#f5a520","_label":"Mining Lease"}},{"type":"Feature","geometry":{"type":"MultiPolygon","coordinates":[[[[115.59117453645102,-33.51700779396311],[115.5910049157029,-33.51724617410402],[115.58958008705758,-33.51835893241513],[115.58828720173486,-33.51902750541773],[115.58621900012284,-33.520047964538925],[115.58606906885294,-33.52023719671056],[115.58630975942286,-33.521649034715296],[115.58603514616277,-33.52232881849973],[115.58628203393394,-33.52265577804105],[115.58641860692664,-33.52283664333697],[115.58646734819482,-33.52332176399721],[115.5860089183848,-33.523731186372544],[115.58440235978946,-33.524875007423425],[115.58332380730505,-33.52521396157632],[115.58306428637601,-33.52593358244817],[115.58260007935516,-33.52661870609739],[115.58562764089143,-33.52660550678829],[115.58564232869905,-33.529297713538426],[115.58525566311418,-33.52963346671641],[115.5849772086847,-33.5299213398938],[115.58481781343131,-33.53011075502326],[115.58481646081296,-33.532143661322266],[115.5922152947496,-33.532146853340244],[115.59222471128963,-33.526151245209704],[115.59363288299278,-33.525241582082224],[115.59513338642115,-33.52442671556587],[115.59671000231148,-33.52382763196773],[115.59800937333699,-33.523584318975296],[115.60150557780157,-33.52249424051738],[115.60150559666143,-33.521347885295256],[115.59642985292344,-33.52293170143809],[115.59601404480425,-33.52306808153517],[115.59559971478821,-33.52321748664456],[115.59519155285709,-33.52337836477614],[115.59479001413344,-33.52355053837551],[115.59439554367493,-33.523733815397996],[115.59400858026562,-33.523927995440644],[115.59362955290324,-33.52413286350383],[115.59325888458574,-33.52434819458788],[115.59292294825764,-33.52455709568471],[115.59167684740767,-33.525357496745066],[115.59167186963958,-33.52444964217267],[115.5916619256129,-33.52263587025267],[115.59163105853423,-33.51700611228164],[115.59117453645102,-33.51700779396311]]],[[[115.58582820136895,-33.52265751385506],[115.58466300291686,-33.52266196537786],[115.58466399068126,-33.52284335863435],[115.58219510551417,-33.52285277264772],[115.58221451494728,-33.526523713766146],[115.58274120999987,-33.52581100314563],[115.5829015326838,-33.52511053830136],[115.58319285185569,-33.52489938809388],[115.58372925541013,-33.524813062129496],[115.58424994839679,-33.52459969498289],[115.58594943757494,-33.523343867829574],[115.58608592769453,-33.52310463156093],[115.58582820136895,-33.52265751385506]]]]},"properties":{"fmt_tenid":"M 70/1128","type":"MINING LEASE","tenstatus":"LIVE","holder1":"ILUKA RESOURCES LIMITED","holder2":" ","legal_area":109.75,"unit_of_me":"HA.","_colour":"#f5a520","_label":"Mining Lease"}},{"type":"Feature","geometry":{"type":"Polygon","coordinates":[[[115.58072240387547,-33.63875639690659],[115.60150841715607,-33.63854108251664],[115.60150843460009,-33.632131484548694],[115.6086509079979,-33.632131668884675],[115.6088158614757,-33.62762081591238],[115.60045758674235,-33.6313043970245],[115.58072240387547,-33.63875639690659]]]},"properties":{"fmt_tenid":"M 70/1151","type":"MINING LEASE","tenstatus":"LIVE","holder1":"ILUKA RESOURCES LIMITED","holder2":" ","legal_area":103.1,"unit_of_me":"HA.","_colour":"#f5a520","_label":"Mining Lease"}},{"type":"Feature","geometry":{"type":"Polygon","coordinates":[[[115.6076559406715,-33.59454808390294],[115.60369203206236,-33.5975961240297],[115.60369194531746,-33.59776761192101],[115.60348147028947,-33.597758030747876],[115.57633470718821,-33.6186245272598],[115.57768267267734,-33.618956805370935],[115.57921995781138,-33.619742214334],[115.57975641970609,-33.62098522681584],[115.57932090779154,-33.62085417937742],[115.57942447515657,-33.62045912688981],[115.57823353394706,-33.61963236627423],[115.57801613737665,-33.61922041646172],[115.57782780424525,-33.61935928409339],[115.57714123835889,-33.6192918243749],[115.5769994816301,-33.61905568548658],[115.57662143464007,-33.619074489035356],[115.57652465192606,-33.61883268621708],[115.57619069307493,-33.61873519696507],[115.57599221491452,-33.61888772155452],[115.57593419669668,-33.619074095255314],[115.5756855856568,-33.61912332391009],[115.55837383964793,-33.632417333817905],[115.58053123434391,-33.62110058876942],[115.58002016268449,-33.62106458805002],[115.57982237704256,-33.62060571325287],[115.5801177071397,-33.62068467534908],[115.58037236728687,-33.62091286001796],[115.5808278628682,-33.620949061764534],[115.59930189105106,-33.61151050552184],[115.59954061422829,-33.618658912911926],[115.61582689016173,-33.60545058497999],[115.6076559406715,-33.59454808390294]]]},"properties":{"fmt_tenid":"M 70/1167","type":"MINING LEASE","tenstatus":"LIVE","holder1":"ILUKA RESOURCES LIMITED","holder2":" ","legal_area":445.35,"unit_of_me":"HA.","_colour":"#f5a520","_label":"Mining Lease"}},{"type":"Feature","geometry":{"type":"Polygon","coordinates":[[[115.9090248145441,-32.92234114433974],[115.9090246919992,-32.9269747559435],[115.90383287504443,-32.92697985493338],[115.9041941566378,-32.927706439371256],[115.90432640462609,-32.92909606208959],[115.9044455034041,-32.93025623112028],[115.90456073140285,-32.931808619507535],[115.9048871218084,-32.932769540264935],[115.9068883299284,-32.93794637857008],[115.90848377947924,-32.93794681344527],[115.91235204970036,-32.93794724979231],[115.91656571610282,-32.93794543193304],[115.91656908672236,-32.951394484346714],[115.92466314878268,-32.95140627554837],[115.92653038079372,-32.93001291084973],[115.92010993873535,-32.930013930833525],[115.92010385966687,-32.926029393105125],[115.91988865873319,-32.9258482471471],[115.9209018236923,-32.92584726422311],[115.92089634276275,-32.92124133267401],[115.91895449456035,-32.92127918998686],[115.9189451053248,-32.92232439614807],[115.9090248145441,-32.92234114433974]]]},"properties":{"fmt_tenid":"M 70/1180","type":"MINING LEASE","tenstatus":"LIVE","holder1":"ILUKA RESOURCES LIMITED","holder2":" ","legal_area":400.15,"unit_of_me":"HA.","_colour":"#f5a520","_label":"Mining Lease"}},{"type":"Feature","geometry":{"type":"Polygon","coordinates":[[[115.5746762663901,-33.66701586757445],[115.56823499056439,-33.672264939066345],[115.56660683829742,-33.67359324327962],[115.56324490851922,-33.67633492476375],[115.56316727230755,-33.67639823573319],[115.56057000198675,-33.678516154746056],[115.56057372946275,-33.683354082220596],[115.56190892516238,-33.68334369988385],[115.56291770823215,-33.682544863217466],[115.56922027317704,-33.67755318999375],[115.57552142743887,-33.672561548883934],[115.58182180048736,-33.6675695345153],[115.58301711332106,-33.66862182562938],[115.58489860382593,-33.667127591554646],[115.5848985782281,-33.66641926352537],[115.58138977760771,-33.666924284193456],[115.57876965640082,-33.66711499275424],[115.57624967735399,-33.667182022603505],[115.57624015734204,-33.66718101660332],[115.5746762663901,-33.66701586757445]]]},"properties":{"fmt_tenid":"M 70/1243","type":"MINING LEASE","tenstatus":"LIVE","holder1":"ILUKA RESOURCES LIMITED","holder2":" ","legal_area":115.7,"unit_of_me":"HA.","_colour":"#f5a520","_label":"Mining Lease"}},{"type":"Feature","geometry":{"type":"Polygon","coordinates":[[[115.63009828951796,-33.52202853016783],[115.62950644346549,-33.522027943555294],[115.6197101023675,-33.52201396833182],[115.61970081842304,-33.5280085378869],[115.62561977786497,-33.52801495670191],[115.62560729122946,-33.53564350495762],[115.64014420767731,-33.535626121446306],[115.64016149976672,-33.52507838783844],[115.63009828951796,-33.52202853016783]],[[115.63643983804596,-33.52711140337098],[115.63748669799533,-33.527343781564134],[115.63693173212145,-33.529097539025294],[115.63588503205588,-33.52886539992917],[115.63638438175307,-33.52728672932183],[115.63219321424043,-33.52635596930695],[115.63219302459035,-33.52616829024727],[115.63643983804596,-33.52711140337098]]]},"properties":{"fmt_tenid":"M 70/1244","type":"MINING LEASE","tenstatus":"LIVE","holder1":"ILUKA RESOURCES LIMITED","holder2":" ","legal_area":221.7,"unit_of_me":"HA.","_colour":"#f5a520","_label":"Mining Lease"}},{"type":"Feature","geometry":{"type":"Polygon","coordinates":[[[115.5015291900719,-33.72234955034435],[115.50610589812639,-33.72829471115313],[115.5124763989467,-33.728423039328426],[115.51112675387813,-33.726717082666326],[115.50877590794023,-33.72339093888543],[115.50763834801519,-33.72178179883244],[115.50632305463358,-33.72018955773591],[115.50558038412098,-33.71928253738044],[115.5044986650287,-33.718074000988665],[115.5035430673311,-33.71700633322301],[115.50325955726936,-33.71627552456055],[115.50217098149604,-33.7152944817902],[115.50202443330684,-33.71542932465106],[115.49476451142309,-33.72210786748071],[115.49359726429428,-33.72318150093974],[115.49340000193159,-33.72336306766848],[115.49194043322534,-33.72470586656481],[115.48475884569643,-33.73131059200079],[115.48961466705997,-33.728675255584285],[115.5015291900719,-33.72234955034435]]]},"properties":{"fmt_tenid":"M 70/1261","type":"MINING LEASE","tenstatus":"LIVE","holder1":"ILUKA RESOURCES LIMITED","holder2":" ","legal_area":120.7,"unit_of_me":"HA.","_colour":"#f5a520","_label":"Mining Lease"}},{"type":"Feature","geometry":{"type":"Polygon","coordinates":[[[115.51875981117502,-30.75143543531927],[115.52818650292619,-30.762246865665123],[115.52881523223057,-30.762967585571943],[115.5300722898079,-30.76440934511279],[115.5325858001256,-30.767292007486514],[115.53591261032835,-30.7711062762331],[115.53678878181582,-30.77211176879214],[115.53761387827802,-30.773057870013243],[115.54428462197048,-30.76872029780893],[115.53485921294286,-30.757912869810482],[115.54153945334008,-30.75357118097087],[115.55096413353394,-30.764378588678486],[115.56039110942869,-30.775185648579225],[115.56698274963914,-30.77089866686465],[115.56345062529955,-30.766849877800226],[115.5575561040928,-30.76009216639011],[115.55540627538517,-30.757627751035916],[115.54813145087849,-30.749284843329697],[115.54598444646895,-30.74682242226944],[115.5526578650876,-30.74248202765416],[115.54584560907576,-30.734668542766766],[115.54358092151178,-30.735206820787702],[115.54163797638736,-30.735668542441626],[115.54010266747672,-30.736033368787265],[115.53718335155344,-30.7367266614398],[115.53426937232463,-30.737418861401565],[115.53293103446643,-30.737979785638572],[115.52597947371241,-30.739338562342596],[115.52002244106464,-30.740896981670048],[115.51161357893885,-30.74309647022279],[115.51151373375528,-30.743122588184587],[115.51875981117502,-30.75143543531927]]]},"properties":{"fmt_tenid":"M 70/194","type":"MINING LEASE","tenstatus":"LIVE","holder1":"ILUKA MIDWEST LIMITED","holder2":" ","legal_area":983,"unit_of_me":"HA.","_colour":"#f5a520","_label":"Mining Lease"}},{"type":"Feature","geometry":{"type":"Polygon","coordinates":[[[115.62198270452122,-30.845540577088688],[115.616840172209,-30.83567125565019],[115.6116522262099,-30.825712494133672],[115.61181470459347,-30.82469517807383],[115.61189169559775,-30.8229030899018],[115.6122015197561,-30.81569087438536],[115.59652045306282,-30.815693236156125],[115.596519246528,-30.80847539474728],[115.5965180393696,-30.80125850350195],[115.5831400771105,-30.8012589019599],[115.58850186329673,-30.807401472290586],[115.58685248611303,-30.808474363357444],[115.58354767550853,-30.810623955468817],[115.58181358222076,-30.811751814499793],[115.57514831527624,-30.81608645985467],[115.58418888521952,-30.81608139946655],[115.58447746467428,-30.81802446508442],[115.59535730387228,-30.828757899911444],[115.59652157963878,-30.83103080583498],[115.59965608873121,-30.837149608620475],[115.60268128467715,-30.841161483695327],[115.60332017318935,-30.842008696108785],[115.60802278620956,-30.850955945545103],[115.6095103010042,-30.853785729921587],[115.60993484918033,-30.85459333980681],[115.61073885454154,-30.854593435652724],[115.61108969725994,-30.85459347607664],[115.61224454520793,-30.85459360447214],[115.61258504584625,-30.85459363988357],[115.62035620706148,-30.854594242274572],[115.6234980354067,-30.854594359071495],[115.62669770756416,-30.854593297236683],[115.62198270452122,-30.845540577088688]]]},"properties":{"fmt_tenid":"M 70/195","type":"MINING LEASE","tenstatus":"LIVE","holder1":"ILUKA MIDWEST LIMITED","holder2":" ","legal_area":994.2,"unit_of_me":"HA.","_colour":"#f5a520","_label":"Mining Lease"}},{"type":"Feature","geometry":{"type":"Polygon","coordinates":[[[115.55096413353394,-30.764378588678486],[115.54428462197048,-30.76872029780893],[115.53761387827802,-30.773057870013243],[115.54703942380613,-30.78386747022208],[115.55646793237335,-30.79467769378128],[115.56589965389452,-30.80548850808662],[115.57514831527624,-30.81608645985467],[115.58181358222076,-30.811751814499793],[115.58354767550853,-30.810623955468817],[115.58685248611303,-30.808474363357444],[115.58850186329673,-30.807401472290586],[115.5831400771105,-30.8012589019599],[115.5965180393696,-30.80125850350195],[115.59651707742239,-30.795526426840652],[115.58836989716276,-30.795526771187323],[115.58290501066986,-30.795526710237063],[115.58062477154328,-30.795526620006004],[115.58062611777108,-30.791210527073158],[115.57963895274622,-30.790082726840893],[115.57630911019095,-30.786277693851996],[115.57458776803503,-30.78289684746387],[115.56982134549125,-30.785996180615196],[115.56313996602499,-30.790340076126245],[115.55371410432254,-30.779527691311472],[115.56039110942869,-30.775185648579225],[115.55096413353394,-30.764378588678486]]]},"properties":{"fmt_tenid":"M 70/196","type":"MINING LEASE","tenstatus":"LIVE","holder1":"ILUKA MIDWEST LIMITED","holder2":" ","legal_area":997,"unit_of_me":"HA.","_colour":"#f5a520","_label":"Mining Lease"}},{"type":"Feature","geometry":{"type":"Polygon","coordinates":[[[115.58937762215766,-33.501374216915],[115.58678820217968,-33.501382874626074],[115.58356757965939,-33.50139343950049],[115.58045056292028,-33.51105024575593],[115.58379160880655,-33.51103575808837],[115.58942687351251,-33.51101112272004],[115.58941118393267,-33.507942066932124],[115.58940309776935,-33.506359993863306],[115.5898711979992,-33.50635825009116],[115.59146063485599,-33.50088545164418],[115.58937762215766,-33.501374216915]]]},"properties":{"fmt_tenid":"M 70/257","type":"MINING LEASE","tenstatus":"LIVE","holder1":"ILUKA RESOURCES LIMITED","holder2":" ","legal_area":80.02,"unit_of_me":"HA.","_colour":"#f5a520","_label":"Mining Lease"}},{"type":"Feature","geometry":{"type":"Polygon","coordinates":[[[115.58260007935516,-33.52661870609739],[115.58221502590736,-33.52662036088136],[115.58215420483663,-33.52662062184724],[115.57608343562927,-33.5266465610324],[115.57206322277892,-33.52665824033022],[115.57163507453211,-33.52829455324717],[115.57156079170008,-33.52847213632069],[115.57128452835458,-33.52913148359281],[115.57080176104282,-33.52991714377318],[115.57025676565468,-33.530628106834186],[115.56933209743191,-33.53155042970769],[115.56778515604687,-33.53299112240649],[115.56744806370381,-33.53341638542788],[115.56715830974704,-33.53399923661791],[115.56703777519455,-33.53424169669679],[115.56702999622367,-33.534257344701864],[115.56679415757418,-33.534945646025015],[115.56588352752442,-33.53909202144172],[115.56583950030944,-33.539438291673264],[115.56574204957471,-33.54020469329951],[115.56565607621884,-33.5408808331271],[115.57220057582504,-33.540853727393944],[115.57606035542139,-33.540837562087546],[115.57614550039044,-33.540837205169026],[115.57812273238372,-33.53845811555246],[115.57812098420597,-33.53814794229772],[115.57809873592956,-33.5341999990556],[115.58045963912754,-33.534190148674625],[115.58043941158196,-33.53087507967634],[115.58418687762587,-33.530860505436976],[115.58481781343131,-33.53011075502326],[115.5849772086847,-33.5299213398938],[115.58525566311418,-33.52963346671641],[115.58564232869905,-33.529297713538426],[115.58562764089143,-33.52660550678829],[115.58260007935516,-33.52661870609739]]]},"properties":{"fmt_tenid":"M 70/278","type":"MINING LEASE","tenstatus":"LIVE","holder1":"ILUKA RESOURCES LIMITED","holder2":" ","legal_area":181.65,"unit_of_me":"HA.","_colour":"#f5a520","_label":"Mining Lease"}},{"type":"Feature","geometry":{"type":"Polygon","coordinates":[[[115.58058689684259,-33.502083293557654],[115.58079673016285,-33.50282675792311],[115.58074785899869,-33.50292114110198],[115.58086086269317,-33.50304059132464],[115.58163667557356,-33.50360884245898],[115.58226213627307,-33.50397784828423],[115.58224901432978,-33.504107138554446],[115.58234759526424,-33.50437296313276],[115.5824834899042,-33.50460972266571],[115.58238869587954,-33.50470975085635],[115.58233392239276,-33.504761389952215],[115.58206952633375,-33.50481883900432],[115.5818529534678,-33.505038372395866],[115.58158396823055,-33.50520075864114],[115.58139795664938,-33.50533936885481],[115.58078882977377,-33.505603951143456],[115.58054748470977,-33.50567137417525],[115.58034244625688,-33.50556731090611],[115.58014466054024,-33.5055598968182],[115.58005562231808,-33.50564128192849],[115.57988495625588,-33.50602983159745],[115.57923142940953,-33.507061228389055],[115.57990379997705,-33.50755515026708],[115.58025383567568,-33.50767924266903],[115.58011002269815,-33.507915734988075],[115.57984626132668,-33.508391467724245],[115.57950726860832,-33.508607962053865],[115.57881794810967,-33.509033034662714],[115.57858801956596,-33.51007971634005],[115.57765781997777,-33.51051856177815],[115.57756206845488,-33.51100782450515],[115.57748354353275,-33.511059166560585],[115.57455419828115,-33.511072632697356],[115.57449275377719,-33.51125425193386],[115.57290396629254,-33.515949947703554],[115.57282250041881,-33.51799707338382],[115.5728047008148,-33.518792298429936],[115.57277901914796,-33.5195710394476],[115.57298833900053,-33.51974992882889],[115.57629204379802,-33.51972913206676],[115.57635616571841,-33.519674525029565],[115.57634658088041,-33.518788216705744],[115.57677832948862,-33.51878483497868],[115.5773863493406,-33.51877876436092],[115.57831061064603,-33.51877282294643],[115.57862069408237,-33.5187703901421],[115.57988139831855,-33.51769742819005],[115.58063778829802,-33.51671332209549],[115.58091620214742,-33.51637324875018],[115.58148690167785,-33.515676148072444],[115.5822787051652,-33.51368784163376],[115.58307417262917,-33.51235700233959],[115.58373023994903,-33.51155318278173],[115.58372850081491,-33.51127153036902],[115.58351324500661,-33.51127246515676],[115.58344834684917,-33.51121866101307],[115.58039192159262,-33.5112319009929],[115.58045056292028,-33.51105024575593],[115.58356757965939,-33.50139343950049],[115.58204905518231,-33.501398359909],[115.5818291092614,-33.50134464585701],[115.58190290056342,-33.501404140959046],[115.58181067371015,-33.50152229822372],[115.58147700107918,-33.50134560895391],[115.58118542899128,-33.501504118340115],[115.58058689684259,-33.502083293557654]]]},"properties":{"fmt_tenid":"M 70/279","type":"MINING LEASE","tenstatus":"LIVE","holder1":"ILUKA RESOURCES LIMITED","holder2":" ","legal_area":86.98,"unit_of_me":"HA.","_colour":"#f5a520","_label":"Mining Lease"}},{"type":"Feature","geometry":{"type":"Polygon","coordinates":[[[115.58490540109956,-33.49258748373811],[115.58505573222882,-33.49280042602647],[115.58306656401287,-33.49339896280691],[115.58237280166372,-33.49425434257582],[115.58382535879205,-33.49461599558396],[115.58352178739413,-33.495459317872616],[115.58451884244546,-33.49596026693213],[115.5843142217961,-33.49701695271343],[115.58321382797183,-33.49750892284791],[115.58309221979685,-33.49880413384403],[115.58365400852598,-33.50017729665782],[115.5833065853642,-33.501160238040605],[115.58260945634436,-33.501080304075856],[115.5824270015996,-33.501183889353165],[115.58188276242565,-33.50112859340017],[115.5818291092614,-33.50134464585701],[115.58204905518231,-33.501398359909],[115.58356757965939,-33.50139343950049],[115.58356674318188,-33.501212086082596],[115.5868434544919,-33.50120153410235],[115.58692125130924,-33.50120128307893],[115.59016656890493,-33.49834693066376],[115.59015728671858,-33.497440899666344],[115.59217089186882,-33.49742631786529],[115.59212845498422,-33.49334234451678],[115.5921200619885,-33.492534535769174],[115.59181442896745,-33.49253678714906],[115.58490540109956,-33.49258748373811]]]},"properties":{"fmt_tenid":"M 70/295","type":"MINING LEASE","tenstatus":"LIVE","holder1":"ILUKA RESOURCES LIMITED","holder2":" ","legal_area":64.25,"unit_of_me":"HA.","_colour":"#f5a520","_label":"Mining Lease"}},{"type":"Feature","geometry":{"type":"Polygon","coordinates":[[[115.47327776937767,-33.62612697959964],[115.47327776936551,-33.62614056661431],[115.47327776935478,-33.62615256062732],[115.47327778291735,-33.62887313857217],[115.47327780600085,-33.63286328883879],[115.47796564862132,-33.632796484694275],[115.47796240656473,-33.624213563474896],[115.4773638150755,-33.62421620606227],[115.47735900790555,-33.62340315350353],[115.47327776937767,-33.62612697959964]]]},"properties":{"fmt_tenid":"M 70/359","type":"MINING LEASE","tenstatus":"LIVE","holder1":"ILUKA MIDWEST LIMITED","holder2":" ","legal_area":39.24,"unit_of_me":"HA.","_colour":"#f5a520","_label":"Mining Lease"}},{"type":"Feature","geometry":{"type":"Polygon","coordinates":[[[115.57206322277892,-33.52665824033022],[115.57608343562927,-33.5266465610324],[115.58215420483663,-33.52662062184724],[115.58221502590736,-33.52662036088136],[115.58221451494728,-33.526523713766146],[115.58219510551417,-33.52285277264772],[115.58466399068126,-33.52284335863435],[115.58466300291686,-33.52266196537786],[115.5846569462353,-33.521550629805965],[115.58463231822499,-33.51703171640743],[115.5829493626361,-33.51877149883639],[115.57862069408237,-33.5187703901421],[115.57831061064603,-33.51877282294643],[115.57832460885766,-33.520056465975976],[115.57679226862082,-33.520068310920685],[115.57657459996072,-33.51996288861033],[115.57650936569259,-33.51990915048469],[115.57359529544027,-33.519927494487945],[115.57358313544522,-33.519934947489624],[115.57284809172997,-33.5203854495785],[115.5728748328428,-33.522706575689924],[115.5728804064042,-33.52288786593605],[115.5727491077494,-33.524056452377884],[115.57206322277892,-33.52665824033022]]]},"properties":{"fmt_tenid":"M 70/386","type":"MINING LEASE","tenstatus":"LIVE","holder1":"ILUKA RESOURCES LIMITED","holder2":" ","legal_area":81.89,"unit_of_me":"HA.","_colour":"#f5a520","_label":"Mining Lease"}},{"type":"Feature","geometry":{"type":"Polygon","coordinates":[[[115.63124807347843,-33.623642495622974],[115.62491327965148,-33.62974910687344],[115.62172357833357,-33.63282049548618],[115.62124130928271,-33.633292752688],[115.62031496318434,-33.63419984717817],[115.61817513895706,-33.6362663238221],[115.61463707357343,-33.63968388762652],[115.60668441015677,-33.64736447434431],[115.60519944289624,-33.648798429679864],[115.60100518757058,-33.65284821154724],[115.59529674710058,-33.658358969537666],[115.59229504147295,-33.66125627589557],[115.58931056477634,-33.66362289376255],[115.58773442936914,-33.66487549782709],[115.5861633488137,-33.66612318066162],[115.58489860382593,-33.667127591554646],[115.58301711332106,-33.66862182562938],[115.58182180048736,-33.6675695345153],[115.57552142743887,-33.672561548883934],[115.56922027317704,-33.67755318999375],[115.56291770823215,-33.682544863217466],[115.56190892516238,-33.68334369988385],[115.56057454399843,-33.68440029245819],[115.55661280494002,-33.68753261230274],[115.55436813308135,-33.68930718071775],[115.55839077339704,-33.69236614986317],[115.56033880318284,-33.690824462031685],[115.5607961892574,-33.69046246707655],[115.56664414845096,-33.68583364920003],[115.57294887622365,-33.68084233357106],[115.57925175574253,-33.67585147490325],[115.58555387613751,-33.67086026248794],[115.58659547551366,-33.6717790228565],[115.58674815024007,-33.67191368606661],[115.58990171747192,-33.66940544716504],[115.59304062024027,-33.666912297320025],[115.59482897595696,-33.66548906513134],[115.5975524275609,-33.6633341852178],[115.59758838052308,-33.66174959332773],[115.59912062752537,-33.66175726418441],[115.5995305445259,-33.66175931241349],[115.60477386634554,-33.65758905055429],[115.60374359046662,-33.65969650527217],[115.60365831847643,-33.65982544111662],[115.60463950248129,-33.65982975770002],[115.630118368569,-33.64130960739952],[115.6267071068811,-33.638839982878935],[115.6376142239963,-33.62826537825067],[115.64293904674942,-33.62313279015581],[115.64193235581311,-33.622697607842156],[115.64107007786673,-33.62232484656778],[115.64055885289815,-33.62210384240262],[115.64049949590185,-33.62207818138333],[115.64018260292114,-33.62194118527983],[115.63604810923086,-33.62015369213075],[115.63599335023514,-33.62013001613229],[115.63577651225219,-33.62003626213893],[115.63534047128968,-33.619700849162925],[115.63124807347843,-33.623642495622974]]]},"properties":{"fmt_tenid":"M 70/401","type":"MINING LEASE","tenstatus":"LIVE","holder1":"ILUKA RESOURCES LIMITED","holder2":" ","legal_area":759,"unit_of_me":"HA.","_colour":"#f5a520","_label":"Mining Lease"}},{"type":"Feature","geometry":{"type":"Polygon","coordinates":[[[115.64316671570465,-33.581773563671575],[115.64314792306048,-33.58806174870546],[115.64884662201578,-33.58806593782036],[115.65750836084598,-33.588071800780256],[115.65751231274166,-33.58223726718055],[115.6575126560296,-33.5817823058532],[115.64316671570465,-33.581773563671575]]]},"properties":{"fmt_tenid":"M 70/410","type":"MINING LEASE","tenstatus":"LIVE","holder1":"ILUKA RESOURCES LIMITED","holder2":" ","legal_area":92.88,"unit_of_me":"HA.","_colour":"#f5a520","_label":"Mining Lease"}},{"type":"Feature","geometry":{"type":"Polygon","coordinates":[[[115.57718912484057,-33.540863970213984],[115.57608338268281,-33.54225430120832],[115.57609101853788,-33.54814497094219],[115.5801315086461,-33.54814377138451],[115.58033468258864,-33.544317361068686],[115.5831463897382,-33.54423769714635],[115.583163772818,-33.53774319341028],[115.57978041389948,-33.53774062453712],[115.57828863795804,-33.53954199659462],[115.57835255755127,-33.54101506456298],[115.57718912484057,-33.540863970213984]]]},"properties":{"fmt_tenid":"M 70/453","type":"MINING LEASE","tenstatus":"LIVE","holder1":"ILUKA RESOURCES LIMITED","holder2":" ","legal_area":54.72,"unit_of_me":"HA.","_colour":"#f5a520","_label":"Mining Lease"}},{"type":"Feature","geometry":{"type":"Polygon","coordinates":[[[115.60025377367967,-33.62403054299649],[115.60032688640794,-33.62664002345232],[115.60045758674235,-33.6313043970245],[115.6088158614757,-33.62762081591238],[115.61044673257946,-33.626901969805864],[115.61044612268819,-33.6258313817851],[115.6104460187067,-33.625649993951015],[115.61066279970814,-33.62564995416613],[115.61328466472641,-33.62564893876851],[115.6215065239751,-33.622016126679874],[115.62150435716677,-33.61839228342767],[115.61354833536602,-33.618393638790394],[115.60025377367967,-33.62403054299649]]]},"properties":{"fmt_tenid":"M 70/467","type":"MINING LEASE","tenstatus":"LIVE","holder1":"ILUKA RESOURCES LIMITED","holder2":" ","legal_area":140.7,"unit_of_me":"HA.","_colour":"#f5a520","_label":"Mining Lease"}},{"type":"Feature","geometry":{"type":"Polygon","coordinates":[[[115.65774084947107,-33.566651497903514],[115.65773177771253,-33.56987922238876],[115.6577174554885,-33.57498006794942],[115.65770727221197,-33.57860801853337],[115.65772938525004,-33.58178141678627],[115.65772919507724,-33.582057755982916],[115.65772907096385,-33.58223915811194],[115.66783130436741,-33.58225267085758],[115.66804800059063,-33.58225295178763],[115.66805603273781,-33.577978390372486],[115.66876725067841,-33.57668383886096],[115.6688843659909,-33.5757822945768],[115.66906527631814,-33.57499820733159],[115.66884469814644,-33.574997865343725],[115.66527354136619,-33.57499226253977],[115.66529376308448,-33.56666433001376],[115.65774084947107,-33.566651497903514]]]},"properties":{"fmt_tenid":"M 70/478","type":"MINING LEASE","tenstatus":"LIVE","holder1":"ILUKA RESOURCES LIMITED","holder2":" ","legal_area":143.95,"unit_of_me":"HA.","_colour":"#f5a520","_label":"Mining Lease"}},{"type":"Feature","geometry":{"type":"Polygon","coordinates":[[[115.24262011577265,-29.96293501099223],[115.24792893546592,-29.963095784107583],[115.25612114591137,-29.963343449107875],[115.25613764177929,-29.975343835025072],[115.24802900840226,-29.975098228495835],[115.24799607724462,-29.97509723047263],[115.24809498915347,-29.987163463761362],[115.24811290301791,-29.989347746943245],[115.24821902082898,-30.00275235713539],[115.266421847449,-30.003664255280835],[115.26640127754034,-29.995358764428317],[115.25713376926103,-29.99534444155363],[115.25714582169519,-29.978100139029575],[115.25715858255104,-29.959773542545264],[115.25611624283246,-29.959774955964196],[115.24780352990489,-29.959785931129307],[115.24783227354104,-29.95846466519657],[115.24263128603889,-29.958421570661777],[115.24262011577265,-29.96293501099223]]]},"properties":{"fmt_tenid":"M 70/492","type":"MINING LEASE","tenstatus":"LIVE","holder1":"ILUKA MIDWEST LIMITED","holder2":" ","legal_area":421.2,"unit_of_me":"HA.","_colour":"#f5a520","_label":"Mining Lease"}},{"type":"Feature","geometry":{"type":"Polygon","coordinates":[[[115.9240536922927,-32.88789023846603],[115.92405593272682,-32.88882793498362],[115.91997689412455,-32.88883444116765],[115.91998208769628,-32.89111191145751],[115.91710993229661,-32.89110999331071],[115.91710603278436,-32.8955658088698],[115.92385857374705,-32.895567123767826],[115.92385503771692,-32.89408595595108],[115.93295602916265,-32.89407165890533],[115.93295682184619,-32.8888094753492],[115.9304790399443,-32.888817205085246],[115.92774364094822,-32.88882186589613],[115.92774175861805,-32.88788415540215],[115.9240536922927,-32.88789023846603]]]},"properties":{"fmt_tenid":"M 70/50","type":"MINING LEASE","tenstatus":"LIVE","holder1":"ILUKA RESOURCES LIMITED","holder2":" ","legal_area":93.635,"unit_of_me":"HA.","_colour":"#f5a520","_label":"Mining Lease"}},{"type":"Feature","geometry":{"type":"Polygon","coordinates":[[[115.53485921294286,-30.757912869810482],[115.54428462197048,-30.76872029780893],[115.55096413353394,-30.764378588678486],[115.54153945334008,-30.75357118097087],[115.53485921294286,-30.757912869810482]]]},"properties":{"fmt_tenid":"M 70/517","type":"MINING LEASE","tenstatus":"LIVE","holder1":"ILUKA MIDWEST LIMITED","holder2":" ","legal_area":120.05,"unit_of_me":"HA.","_colour":"#f5a520","_label":"Mining Lease"}},{"type":"Feature","geometry":{"type":"Polygon","coordinates":[[[115.55371410432254,-30.779527691311472],[115.56313996602499,-30.790340076126245],[115.56982134549125,-30.785996180615196],[115.57458776803503,-30.78289684746387],[115.57223413097188,-30.7782749658886],[115.567858480538,-30.77166073641067],[115.56767842313498,-30.771388537754266],[115.5674983667156,-30.771116340111263],[115.56710939922294,-30.771116260835807],[115.56698274963914,-30.77089866686465],[115.56039110942869,-30.775185648579225],[115.55371410432254,-30.779527691311472]]]},"properties":{"fmt_tenid":"M 70/518","type":"MINING LEASE","tenstatus":"LIVE","holder1":"ILUKA MIDWEST LIMITED","holder2":" ","legal_area":227.25,"unit_of_me":"HA.","_colour":"#f5a520","_label":"Mining Lease"}},{"type":"Feature","geometry":{"type":"Polygon","coordinates":[[[115.61888191063711,-33.507525898846886],[115.61430384529172,-33.50752133249139],[115.61390050746776,-33.50752092140276],[115.61389987572579,-33.50798012749071],[115.61389207209508,-33.51366080608951],[115.61388898862965,-33.51590318842625],[115.61388874307703,-33.516084457615186],[115.61898658219971,-33.516088671804695],[115.61913859544201,-33.516088804138285],[115.62082930964868,-33.51554884952833],[115.62083375856956,-33.507518480094625],[115.61888191063711,-33.507525898846886]]]},"properties":{"fmt_tenid":"M 70/535","type":"MINING LEASE","tenstatus":"LIVE","holder1":"ILUKA RESOURCES LIMITED","holder2":" ","legal_area":60.7,"unit_of_me":"HA.","_colour":"#f5a520","_label":"Mining Lease"}},{"type":"Feature","geometry":{"type":"Polygon","coordinates":[[[115.60309904982232,-33.52199737188536],[115.60150557780157,-33.52249424051738],[115.59800937333699,-33.523584318975296],[115.59671000231148,-33.52382763196773],[115.59513338642115,-33.52442671556587],[115.59363288299278,-33.525241582082224],[115.59222471128963,-33.526151245209704],[115.5922152947496,-33.532146853340244],[115.59220950894235,-33.53582451783867],[115.62560729122946,-33.53564350495762],[115.62561977786497,-33.52801495670191],[115.61970081842304,-33.5280085378869],[115.61312284719826,-33.52800107377739],[115.61314377736073,-33.522013289466564],[115.60309904982232,-33.52199737188536]]]},"properties":{"fmt_tenid":"M 70/536","type":"MINING LEASE","tenstatus":"LIVE","holder1":"ILUKA RESOURCES LIMITED","holder2":" ","legal_area":375.6,"unit_of_me":"HA.","_colour":"#f5a520","_label":"Mining Lease"}},{"type":"Feature","geometry":{"type":"Polygon","coordinates":[[[115.58379160880655,-33.51103575808837],[115.58045056292028,-33.51105024575593],[115.58039192159262,-33.5112319009929],[115.58344834684917,-33.51121866101307],[115.58351324500661,-33.51127246515676],[115.58372850081491,-33.51127153036902],[115.58379273153905,-33.511217165353635],[115.58914668569238,-33.511193708654496],[115.58921131063364,-33.51119342471855],[115.58942798243653,-33.51119249193339],[115.58942687351251,-33.51101112272004],[115.58379160880655,-33.51103575808837]]]},"properties":{"fmt_tenid":"M 70/651","type":"MINING LEASE","tenstatus":"LIVE","holder1":"ILUKA RESOURCES LIMITED","holder2":" ","legal_area":1.6975,"unit_of_me":"HA.","_colour":"#f5a520","_label":"Mining Lease"}},{"type":"Feature","geometry":{"type":"Polygon","coordinates":[[[115.55250876659416,-33.55623721571276],[115.55191856591445,-33.555562806868636],[115.55182757495602,-33.55555096074982],[115.55163084107845,-33.55567104374274],[115.55153887703968,-33.5556714186431],[115.55066317922528,-33.55620616055606],[115.55025794450793,-33.55645361148735],[115.55013604999723,-33.55652804446311],[115.54787350526433,-33.557931201694764],[115.54541430252573,-33.559432908009725],[115.54299978318257,-33.56070589742037],[115.54261890299809,-33.560909201169174],[115.5400764981441,-33.56226621550305],[115.53935596718664,-33.56281203651838],[115.53951697481892,-33.56281170636045],[115.54165811493331,-33.562807296260765],[115.54405859046392,-33.56280230590856],[115.54874909080827,-33.562791301316125],[115.5491701678534,-33.56279033190433],[115.54938486436656,-33.562789835694396],[115.55117431398061,-33.561904242647465],[115.55137148651679,-33.561806659808106],[115.55097682137695,-33.561247943238065],[115.55086719743731,-33.561092750808946],[115.55047254121261,-33.560534039289415],[115.55007948639876,-33.56005694193999],[115.54995716742317,-33.55990846662117],[115.54949964446057,-33.55935309706332],[115.5493536437119,-33.55917586887626],[115.55068704595516,-33.558405727157954],[115.55079003234032,-33.55834624719829],[115.55102213811135,-33.5582280803115],[115.55116951260517,-33.55815305038082],[115.55325583495365,-33.55709085414934],[115.55250876659416,-33.55623721571276]]]},"properties":{"fmt_tenid":"M 70/659","type":"MINING LEASE","tenstatus":"LIVE","holder1":"ILUKA MIDWEST LIMITED","holder2":" ","legal_area":40.81,"unit_of_me":"HA.","_colour":"#f5a520","_label":"Mining Lease"}},{"type":"Feature","geometry":{"type":"Polygon","coordinates":[[[115.6325450806152,-33.58804835639814],[115.63242638547787,-33.59754934204703],[115.64284104338444,-33.60538732525963],[115.64888413867726,-33.599919894226105],[115.64883274661294,-33.59991986722858],[115.64016117474742,-33.59991487064661],[115.64016149464048,-33.59957626734592],[115.64016586517738,-33.59494836723727],[115.64017237299603,-33.588059211122605],[115.6325450806152,-33.58804835639814]]]},"properties":{"fmt_tenid":"M 70/670","type":"MINING LEASE","tenstatus":"LIVE","holder1":"ILUKA RESOURCES LIMITED","holder2":" ","legal_area":127.6,"unit_of_me":"HA.","_colour":"#f5a520","_label":"Mining Lease"}},{"type":"Feature","geometry":{"type":"Polygon","coordinates":[[[115.59972670964822,-33.624231093471046],[115.58339064054262,-33.63045033668603],[115.5834232407967,-33.63163618371939],[115.58112558816177,-33.631681453691144],[115.58116432342997,-33.63184358751947],[115.58138307557282,-33.632482671825706],[115.57803592820511,-33.632483951878136],[115.57489061028721,-33.633679359797185],[115.57489155039106,-33.637095357336854],[115.5748920083621,-33.63875814062578],[115.5758937835482,-33.638757861655435],[115.58072240387547,-33.63875639690659],[115.60045758674235,-33.6313043970245],[115.60032688640794,-33.62664002345232],[115.60025377367967,-33.62403054299649],[115.59972670964822,-33.624231093471046]]]},"properties":{"fmt_tenid":"M 70/672","type":"MINING LEASE","tenstatus":"LIVE","holder1":"ILUKA RESOURCES LIMITED","holder2":" ","legal_area":181.2,"unit_of_me":"HA.","_colour":"#f5a520","_label":"Mining Lease"}},{"type":"Feature","geometry":{"type":"Polygon","coordinates":[[[115.48939452386831,-30.696280844242995],[115.47026947237953,-30.705740558088277],[115.46629123612172,-30.70770771100983],[115.47547256166753,-30.714800155596222],[115.49161864602661,-30.727268531845525],[115.5096593289775,-30.715735255394147],[115.50292420016001,-30.708187446506383],[115.49666095218765,-30.70250622158065],[115.49666118992607,-30.70343470484827],[115.49023651390723,-30.69755096892539],[115.48939452386831,-30.696280844242995]]]},"properties":{"fmt_tenid":"M 70/696","type":"MINING LEASE","tenstatus":"LIVE","holder1":"ILUKA FINANCE LIMITED","holder2":" ","legal_area":711.65,"unit_of_me":"HA.","_colour":"#f5a520","_label":"Mining Lease"}},{"type":"Feature","geometry":{"type":"Polygon","coordinates":[[[115.58674815024007,-33.67191368606661],[115.58659547551366,-33.6717790228565],[115.58555387613751,-33.67086026248794],[115.57925175574253,-33.67585147490325],[115.57294887622365,-33.68084233357106],[115.56664414845096,-33.68583364920003],[115.5607961892574,-33.69046246707655],[115.56033880318284,-33.690824462031685],[115.55839077339704,-33.69236614986317],[115.5582497677664,-33.69247540485352],[115.559961663016,-33.693767759662855],[115.56223163886247,-33.69550576503007],[115.57459970145217,-33.685738491271735],[115.58931273920852,-33.67411449794191],[115.58674815024007,-33.67191368606661]]]},"properties":{"fmt_tenid":"M 70/726","type":"MINING LEASE","tenstatus":"LIVE","holder1":"ILUKA RESOURCES LIMITED","holder2":" ","legal_area":173.4,"unit_of_me":"HA.","_colour":"#f5a520","_label":"Mining Lease"}},{"type":"Feature","geometry":{"type":"Polygon","coordinates":[[[115.93716554865682,-32.81521735688257],[115.93596455612898,-32.815216621387165],[115.93504590648995,-32.815216050008345],[115.93503961345988,-32.821957219042496],[115.92859581352961,-32.82195812429843],[115.92859449553332,-32.82377303643765],[115.92644503117317,-32.823772846812204],[115.92623016143716,-32.82377282564971],[115.92622989130865,-32.82492569634397],[115.92035073076592,-32.8249339628676],[115.92028062072008,-32.82493405990483],[115.92028081498225,-32.82511732003222],[115.9202837088883,-32.827847416930375],[115.92028390114784,-32.82802879905646],[115.92028543422146,-32.82947799806388],[115.92157462728521,-32.82947710324722],[115.92344751483029,-32.829475780060875],[115.92346540240108,-32.82983463127336],[115.9228653323559,-32.830789905266926],[115.92286628767137,-32.83165091381497],[115.92394047864477,-32.83164987508147],[115.92501462058824,-32.83164882837035],[115.92608884437807,-32.831647772274465],[115.92662602677287,-32.83164724172657],[115.92716318316765,-32.83164670917867],[115.92732174298902,-32.83164655131214],[115.92823741295743,-32.831645632082726],[115.92915222692669,-32.831644702852614],[115.93014138881213,-32.83164369068507],[115.93076250511221,-32.83164305220775],[115.93097729487025,-32.83164283038852],[115.93097841367847,-32.8321231267037],[115.93668132128217,-32.83211400853006],[115.93719075371077,-32.832113182961116],[115.93797272783358,-32.83211191162281],[115.93832452943887,-32.83211133792046],[115.93854401519265,-32.832110981106155],[115.93902188465661,-32.832110199510495],[115.93957100404054,-32.83210929997506],[115.94172111504653,-32.83210575253468],[115.94191226832307,-32.83210543677881],[115.94189705061312,-32.82576265048061],[115.94183607593494,-32.81522010877632],[115.93716554865682,-32.81521735688257]]]},"properties":{"fmt_tenid":"M 70/735","type":"MINING LEASE","tenstatus":"LIVE","holder1":"ILUKA RESOURCES LIMITED","holder2":" ","legal_area":241.4,"unit_of_me":"HA.","_colour":"#f5a520","_label":"Mining Lease"}},{"type":"Feature","geometry":{"type":"Polygon","coordinates":[[[115.92385503771692,-32.89408595595108],[115.92385857374705,-32.895567123767826],[115.91710603278436,-32.8955658088698],[115.91710624681147,-32.89745196891203],[115.91710633850325,-32.89824431234983],[115.91710639247103,-32.898697589600246],[115.91710640470937,-32.89880921766194],[115.91723030503009,-32.89887900066179],[115.91834342178687,-32.89950572265997],[115.9191201988884,-32.900114714753116],[115.91975994794339,-32.90087289897119],[115.9202028058018,-32.90171992129966],[115.92034532471025,-32.902200735520154],[115.92042145018655,-32.9024575556379],[115.92054434875952,-32.90402106646147],[115.92077216916545,-32.90420130048926],[115.92551047220203,-32.904199304101326],[115.92712586634012,-32.903899415737314],[115.9276375071493,-32.903904440678566],[115.92763747007494,-32.90379516561122],[115.92763728670671,-32.903253691277556],[115.92763693098938,-32.90219894862758],[115.93295487060465,-32.90219736675587],[115.9329551579594,-32.90009593317937],[115.9329553734878,-32.89855995302709],[115.932955675843,-32.89645971945142],[115.93295602916265,-32.89407165890533],[115.92385503771692,-32.89408595595108]]]},"properties":{"fmt_tenid":"M 70/737","type":"MINING LEASE","tenstatus":"LIVE","holder1":"ILUKA RESOURCES LIMITED","holder2":" ","legal_area":130.1,"unit_of_me":"HA.","_colour":"#f5a520","_label":"Mining Lease"}},{"type":"Feature","geometry":{"type":"Polygon","coordinates":[[[115.5096593289775,-30.715735255394147],[115.49161864602661,-30.727268531845525],[115.50213329620338,-30.735592632932885],[115.51161357893885,-30.74309647022279],[115.52002244106464,-30.740896981670048],[115.52597947371241,-30.739338562342596],[115.53293103446643,-30.737979785638572],[115.53426937232463,-30.737418861401565],[115.53718335155344,-30.7367266614398],[115.54010266747672,-30.736033368787265],[115.54163797638736,-30.735668542441626],[115.54358092151178,-30.735206820787702],[115.54584560907576,-30.734668542766766],[115.54608693520471,-30.73461118654602],[115.52777714180117,-30.720396634902908],[115.51641251739638,-30.71141668262095],[115.5096593289775,-30.715735255394147]]]},"properties":{"fmt_tenid":"M 70/760","type":"MINING LEASE","tenstatus":"LIVE","holder1":"ILUKA FINANCE LIMITED","holder2":" ","legal_area":930.6,"unit_of_me":"HA.","_colour":"#f5a520","_label":"Mining Lease"}},{"type":"Feature","geometry":{"type":"Polygon","coordinates":[[[115.49426281002323,-33.611324590809076],[115.49426348273592,-33.61227561892786],[115.49426374248681,-33.613198865043],[115.49426449616509,-33.61588351187499],[115.49426514684775,-33.61819781146595],[115.49426642628632,-33.62275423159789],[115.49748278739868,-33.6227527097295],[115.49749176331561,-33.62937377333775],[115.50342435383756,-33.62937538884877],[115.50343267747564,-33.62560829978194],[115.50883925774707,-33.62562548780297],[115.50884199963886,-33.62514242353259],[115.50905947567603,-33.6251424325316],[115.51641957893054,-33.625139336495195],[115.51642629715904,-33.61819354185412],[115.52380064907862,-33.618190821334444],[115.52379903699794,-33.614698966630044],[115.52336550081323,-33.61469911875977],[115.50905522096605,-33.614703336739126],[115.50883844090312,-33.61470338893206],[115.5025427819737,-33.61470471340584],[115.50254082154777,-33.61150599200912],[115.49723948330059,-33.611506434974295],[115.49559449032705,-33.611506525342904],[115.49546259756973,-33.61150653129227],[115.49547676680818,-33.611324755275106],[115.49426281002323,-33.611324590809076]]]},"properties":{"fmt_tenid":"M 70/766","type":"MINING LEASE","tenstatus":"LIVE","holder1":"ILUKA MIDWEST LIMITED","holder2":" ","legal_area":312.55,"unit_of_me":"HA.","_colour":"#f5a520","_label":"Mining Lease"}},{"type":"Feature","geometry":{"type":"Polygon","coordinates":[[[115.56560774709911,-33.566249885051256],[115.56547294104499,-33.566250446840336],[115.56533813399079,-33.56625100962946],[115.5652711929639,-33.56625128852474],[115.56500337385621,-33.566252409105786],[115.56494010792451,-33.56625267397907],[115.56466129724886,-33.5662538404138],[115.56444055450578,-33.566254762966246],[115.56424455173399,-33.566255581568775],[115.56403134898221,-33.56625647313641],[115.56381815723056,-33.56625736170408],[115.56377803227726,-33.56625752962269],[115.56320721694242,-33.56625990846485],[115.56269314654185,-33.56626204742187],[115.56247774179305,-33.56626294298475],[115.56226233204436,-33.566263837547645],[115.56204692129573,-33.56626473211045],[115.56183151054722,-33.566265624673285],[115.5616160927987,-33.56626651823601],[115.56140068305041,-33.56626740979874],[115.56118527330203,-33.56626830136143],[115.5609698655537,-33.5662691919241],[115.56074307581872,-33.56627012846359],[115.56052771707054,-33.566271017026246],[115.56023958040751,-33.566272204441084],[115.56019296946202,-33.566272396346434],[115.56002422765943,-33.5662730900037],[115.55980888691145,-33.56627397456631],[115.55980874391166,-33.566273974566016],[115.55959349716358,-33.56627485812874],[115.55937811141568,-33.56627574069121],[115.55916272866799,-33.56627662325359],[115.55894733892028,-33.56627750381594],[115.55873196817265,-33.56627838537829],[115.558516587425,-33.566279264940604],[115.5583011976775,-33.566280144502805],[115.55795804707992,-33.56628154380534],[115.55764602444594,-33.566282816171054],[115.55761337548417,-33.56628294910463],[115.55737378776631,-33.56628379061725],[115.55599106539071,-33.5662893498051],[115.55600599036805,-33.56875838702595],[115.55600854424827,-33.56918563893002],[115.55417055058797,-33.57251007802648],[115.55245434814474,-33.57452136476155],[115.54917816686479,-33.574522658051805],[115.54764852288828,-33.57907684560189],[115.54674170755945,-33.58089732609461],[115.54313911375804,-33.585115429660064],[115.54293316648526,-33.58628194319258],[115.53968843990732,-33.585147416486514],[115.54095070741859,-33.58261858627308],[115.53591467488586,-33.58262759360458],[115.53320720496005,-33.582632351535636],[115.53320648778329,-33.58551937166674],[115.53320644223342,-33.58570071286186],[115.53320534516052,-33.590102950597206],[115.53320529961076,-33.5902843437923],[115.53082202013984,-33.59028405083109],[115.53060518264283,-33.59028402210753],[115.52930455966029,-33.59028383976594],[115.5293033147641,-33.59359503310818],[115.52400587853882,-33.59359379920727],[115.52400924030323,-33.60278961054218],[115.5240104011628,-33.60297936840702],[115.52401374185756,-33.61023278924169],[115.52943408932309,-33.610230042225574],[115.53485343479159,-33.610227049203104],[115.53484527624464,-33.60297126171428],[115.53484510143143,-33.60278935352678],[115.53484488759167,-33.602633352365935],[115.53484461080097,-33.60242959315594],[115.5368865571006,-33.602429378290786],[115.53725935661441,-33.60242933571164],[115.53725932475022,-33.60224796256095],[115.5391774592058,-33.60224771976108],[115.54051201443536,-33.60224753429184],[115.54051205037288,-33.602428926383745],[115.5421480832393,-33.60242852023076],[115.54551047185386,-33.60242761002719],[115.5455103163388,-33.60056456501135],[115.54984119068689,-33.60056383070585],[115.54983942340782,-33.59531116705603],[115.55733904157718,-33.595310004316225],[115.55733979641536,-33.59387692474763],[115.55733992618164,-33.59363006147746],[115.55734088111487,-33.59181586549195],[115.55734150618744,-33.590629893194176],[115.55734197968117,-33.589728260207586],[115.55734256417398,-33.58882657522106],[115.55734314666172,-33.58792387123348],[115.55734414590674,-33.58637249753646],[115.55734479585774,-33.585362489431766],[115.55756196489247,-33.58492427501893],[115.55788622656462,-33.58426984523867],[115.5585301668843,-33.58356803264593],[115.55936915104033,-33.58302964550765],[115.56034605433223,-33.58269135480942],[115.5613901550145,-33.58257671246298],[115.56485172968024,-33.582577846045375],[115.56485395973638,-33.57713600328123],[115.56485471636331,-33.57528954234403],[115.56485543216944,-33.573540950456895],[115.56117682981858,-33.57353990640518],[115.56115607262115,-33.569579722792476],[115.56299266856135,-33.56957212806534],[115.5629931955605,-33.56957212606659],[115.56515893834975,-33.56956313900125],[115.56515915334991,-33.56956313800156],[115.56552226364106,-33.569561626615496],[115.56684690670221,-33.5695561048547],[115.56792449056425,-33.56955160167584],[115.56814182274549,-33.56954978404035],[115.56813928955842,-33.56908835363862],[115.56812374010649,-33.56623937798601],[115.56560774709911,-33.566249885051256]]]},"properties":{"fmt_tenid":"M 70/767","type":"MINING LEASE","tenstatus":"LIVE","holder1":"ILUKA MIDWEST LIMITED","holder2":" ","legal_area":826.4,"unit_of_me":"HA.","_colour":"#f5a520","_label":"Mining Lease"}},{"type":"Feature","geometry":{"type":"Polygon","coordinates":[[[115.92622989130865,-32.82492569634397],[115.92623016143716,-32.82377282564971],[115.92623028855334,-32.82322847432192],[115.92644518028801,-32.82322854848314],[115.92644563822142,-32.82195786771503],[115.92859581352961,-32.82195812429843],[115.93503961345988,-32.821957219042496],[115.93504590648995,-32.815216050008345],[115.93504760361894,-32.813387912720174],[115.93504793314378,-32.81303248163623],[115.92465639172663,-32.81302897863979],[115.92465784575397,-32.81175890464903],[115.92465805318344,-32.811577867220564],[115.92057598374905,-32.81157417559217],[115.92036115283113,-32.81157397740109],[115.92036094975089,-32.81175543194943],[115.92035826721563,-32.81520602836374],[115.92035633945747,-32.81768675719303],[115.92035540730488,-32.818889316202245],[115.92035399472041,-32.8207127219353],[115.92035205431381,-32.82322170867811],[115.92028062072008,-32.82493405990483],[115.92035073076592,-32.8249339628676],[115.92622989130865,-32.82492569634397]]]},"properties":{"fmt_tenid":"M 70/797","type":"MINING LEASE","tenstatus":"LIVE","holder1":"ILUKA RESOURCES LIMITED","holder2":" ","legal_area":161.05,"unit_of_me":"HA.","_colour":"#f5a520","_label":"Mining Lease"}},{"type":"Feature","geometry":{"type":"Polygon","coordinates":[[[115.28297995468262,-29.872995991256783],[115.28293130686606,-29.880452897108345],[115.28545408662474,-29.880465155555132],[115.2855092966137,-29.882099866912945],[115.28604981613265,-29.882094435123996],[115.28587735755059,-29.879196614077497],[115.28713934242764,-29.879198578761148],[115.28741145609526,-29.876493197844507],[115.28670495473791,-29.873001866375898],[115.28520125444955,-29.872999507098466],[115.28407721500123,-29.872997732648468],[115.28387012099748,-29.87299740519707],[115.28297995468262,-29.872995991256783]]]},"properties":{"fmt_tenid":"M 70/821","type":"MINING LEASE","tenstatus":"LIVE","holder1":"ILUKA MIDWEST LIMITED","holder2":" ","legal_area":32.77,"unit_of_me":"HA.","_colour":"#f5a520","_label":"Mining Lease"}},{"type":"Feature","geometry":{"type":"Polygon","coordinates":[[[115.67345835068348,-33.556303748017946],[115.67178691499002,-33.55630170895982],[115.66528395897258,-33.5562935648718],[115.66527726489973,-33.55993900527149],[115.65775976021219,-33.55992577989341],[115.65774084947107,-33.566651497903514],[115.66529376308448,-33.56666433001376],[115.66527354136619,-33.57499226253977],[115.66884469814644,-33.574997865343725],[115.66906527631814,-33.57499820733159],[115.67247252075582,-33.57500344014495],[115.67283172771361,-33.57500398627062],[115.67284565491792,-33.56849759797359],[115.67284975740108,-33.566676696924084],[115.67285403836142,-33.56305684182454],[115.68022298277589,-33.56306793750255],[115.68023846939721,-33.556493190287455],[115.68023876338678,-33.556311795309114],[115.67345835068348,-33.556303748017946]]]},"properties":{"fmt_tenid":"M 70/866","type":"MINING LEASE","tenstatus":"LIVE","holder1":"ILUKA RESOURCES LIMITED","holder2":" ","legal_area":249.2,"unit_of_me":"HA.","_colour":"#f5a520","_label":"Mining Lease"}},{"type":"Feature","geometry":{"type":"Polygon","coordinates":[[[115.53434875884489,-30.771105612252175],[115.53591261032835,-30.7711062762331],[115.5325858001256,-30.767292007486514],[115.5300722898079,-30.76440934511279],[115.52881523223057,-30.762967585571943],[115.52818650292619,-30.762246865665123],[115.53434875884489,-30.771105612252175]]]},"properties":{"fmt_tenid":"M 70/867","type":"MINING LEASE","tenstatus":"LIVE","holder1":"ILUKA FINANCE LIMITED","holder2":" ","legal_area":7.349,"unit_of_me":"HA.","_colour":"#f5a520","_label":"Mining Lease"}},{"type":"Feature","geometry":{"type":"Polygon","coordinates":[[[115.57514831527624,-30.81608645985467],[115.56589965389452,-30.80548850808662],[115.55646793237335,-30.79467769378128],[115.54703942380613,-30.78386747022208],[115.53761387827802,-30.773057870013243],[115.53678878181582,-30.77211176879214],[115.5354475264881,-30.772686668429223],[115.55029497155265,-30.794029373692485],[115.56564818188147,-30.81609080822],[115.57514831527624,-30.81608645985467]]]},"properties":{"fmt_tenid":"M 70/868","type":"MINING LEASE","tenstatus":"LIVE","holder1":"ILUKA FINANCE LIMITED","holder2":" ","legal_area":261.75,"unit_of_me":"HA.","_colour":"#f5a520","_label":"Mining Lease"}},{"type":"Feature","geometry":{"type":"Polygon","coordinates":[[[115.60682704500485,-30.85512044672938],[115.6095103010042,-30.853785729921587],[115.60802278620956,-30.850955945545103],[115.60332017318935,-30.842008696108785],[115.60268128467715,-30.841161483695327],[115.59965608873121,-30.837149608620475],[115.59652157963878,-30.83103080583498],[115.59535730387228,-30.828757899911444],[115.58447746467428,-30.81802446508442],[115.58418888521952,-30.81608139946655],[115.57514831527624,-30.81608645985467],[115.56564818188147,-30.81609080822],[115.58158706720795,-30.838456570724816],[115.59696643529686,-30.860024572167646],[115.60682704500485,-30.85512044672938]]]},"properties":{"fmt_tenid":"M 70/869","type":"MINING LEASE","tenstatus":"LIVE","holder1":"ILUKA FINANCE LIMITED","holder2":" ","legal_area":811.4,"unit_of_me":"HA.","_colour":"#f5a520","_label":"Mining Lease"}},{"type":"Feature","geometry":{"type":"Polygon","coordinates":[[[115.27592815604739,-29.81448753666128],[115.27603694956511,-29.81502784937994],[115.27577452507896,-29.815098085463763],[115.27570599167262,-29.815210790446297],[115.27615225198612,-29.816478213682693],[115.2764725816977,-29.817387962094486],[115.27656975322529,-29.817663927909447],[115.27625328837526,-29.817748662056104],[115.27519906618399,-29.818030924566717],[115.27559048324815,-29.81914293486924],[115.27589403791741,-29.820005314281513],[115.27461482087638,-29.820347669251017],[115.27431633048627,-29.820427552243945],[115.27195102529507,-29.830395981300015],[115.27790231249634,-29.82948245355017],[115.27892722048917,-29.82932510224907],[115.28706923206657,-29.828074768815362],[115.28950207233937,-29.827701066195676],[115.28633039047267,-29.821491553586803],[115.28188204860268,-29.81277527667335],[115.2816282588231,-29.812277938931878],[115.2768789483854,-29.81411899545888],[115.27592815604739,-29.81448753666128]]]},"properties":{"fmt_tenid":"M 70/879","type":"MINING LEASE","tenstatus":"LIVE","holder1":"ILUKA MIDWEST LIMITED","holder2":" ","legal_area":196.85,"unit_of_me":"HA.","_colour":"#f5a520","_label":"Mining Lease"}},{"type":"Feature","geometry":{"type":"Polygon","coordinates":[[[115.5326155877677,-33.56281530678794],[115.5299884041063,-33.56492105389201],[115.53068242170193,-33.56552643309831],[115.52935982071985,-33.5665863988719],[115.52911869988722,-33.566377928442414],[115.52720085202914,-33.567916724090125],[115.52572025904675,-33.56910463060665],[115.52662678468445,-33.569898423295676],[115.52306945739866,-33.57275217182433],[115.5180627612977,-33.57507484804817],[115.51806607837494,-33.5771961215027],[115.51481708838574,-33.580129065769114],[115.5148196255256,-33.58094931981889],[115.51482049023033,-33.58121946449395],[115.515832059143,-33.58068827957663],[115.52292921222873,-33.57595107744438],[115.52329462139943,-33.57565322778791],[115.52464894916524,-33.57369841418205],[115.52480002247735,-33.57359513003991],[115.52720969572478,-33.5719950295929],[115.52822612527227,-33.57133317041294],[115.52722836668457,-33.570259450320016],[115.52837182418178,-33.56951486125915],[115.52930015425605,-33.57051384937233],[115.52936958929489,-33.570588567499456],[115.53090625156753,-33.56958792251532],[115.53396236522885,-33.56703115334655],[115.53540186260751,-33.565558732067835],[115.53684928090638,-33.56446675439498],[115.53756808097273,-33.56392445117384],[115.53895236810965,-33.5628123589131],[115.53872297663457,-33.562812471137285],[115.53828355363993,-33.56281268356674],[115.53785034063128,-33.56281289299008],[115.53761355217314,-33.56281300722154],[115.53629625018804,-33.562813630508984],[115.5341360462759,-33.56281462714277],[115.5326155877677,-33.56281530678794]]]},"properties":{"fmt_tenid":"M 70/880","type":"MINING LEASE","tenstatus":"LIVE","holder1":"ILUKA MIDWEST LIMITED","holder2":" ","legal_area":77.19,"unit_of_me":"HA.","_colour":"#f5a520","_label":"Mining Lease"}},{"type":"Feature","geometry":{"type":"Polygon","coordinates":[[[115.59015728671858,-33.497440899666344],[115.59016656890493,-33.49834693066376],[115.58692125130924,-33.50120128307893],[115.5868434544919,-33.50120153410235],[115.58678820217968,-33.501382874626074],[115.58937762215766,-33.501374216915],[115.59146063485599,-33.50088545164418],[115.59220516246332,-33.50071074375679],[115.59220307271045,-33.5005226290748],[115.59217089186882,-33.49742631786529],[115.59015728671858,-33.497440899666344]]]},"properties":{"fmt_tenid":"M 70/914","type":"MINING LEASE","tenstatus":"LIVE","holder1":"ILUKA RESOURCES LIMITED","holder2":" ","legal_area":12.64,"unit_of_me":"HA.","_colour":"#f5a520","_label":"Mining Lease"}},{"type":"Feature","geometry":{"type":"Polygon","coordinates":[[[115.65762342664756,-33.56987901437469],[115.65751507458263,-33.569878806360684],[115.64320235120036,-33.569850440425824],[115.64318767114132,-33.57476347122629],[115.64318712902657,-33.57494481536716],[115.64316815200839,-33.58129364629881],[115.64316671570465,-33.581773563671575],[115.6575126560296,-33.5817823058532],[115.65772938525004,-33.58178141678627],[115.65770727221197,-33.57860801853337],[115.6577174554885,-33.57498006794942],[115.65773177771253,-33.56987922238876],[115.65762342664756,-33.56987901437469]]]},"properties":{"fmt_tenid":"M 70/920","type":"MINING LEASE","tenstatus":"LIVE","holder1":"ILUKA RESOURCES LIMITED","holder2":" ","legal_area":178.35,"unit_of_me":"HA.","_colour":"#f5a520","_label":"Mining Lease"}},{"type":"Feature","geometry":{"type":"Polygon","coordinates":[[[115.50883844090312,-33.61470338893206],[115.50905522096605,-33.614703336739126],[115.52336550081323,-33.61469911875977],[115.52379903699794,-33.614698966630044],[115.52401374185756,-33.61023278924169],[115.5240104011628,-33.60297936840702],[115.52400924030323,-33.60278961054218],[115.52400587853882,-33.59359379920727],[115.52484777240711,-33.58994618935255],[115.52484592027058,-33.58929779316949],[115.51985187460987,-33.59637153650672],[115.51619754768781,-33.60154679230827],[115.51333763058983,-33.60109072045629],[115.50715910928486,-33.6098327088635],[115.50254070992055,-33.611324609986575],[115.50254082154777,-33.61150599200912],[115.5025427819737,-33.61470471340584],[115.50883844090312,-33.61470338893206]]]},"properties":{"fmt_tenid":"M 70/928","type":"MINING LEASE","tenstatus":"LIVE","holder1":"ILUKA MIDWEST LIMITED","holder2":" ","legal_area":269.15,"unit_of_me":"HA.","_colour":"#f5a520","_label":"Mining Lease"}},{"type":"Feature","geometry":{"type":"MultiPolygon","coordinates":[[[[115.68429986325899,-33.55649782784219],[115.68023846939721,-33.556493190287455],[115.68022298277589,-33.56306793750255],[115.67285403836142,-33.56305684182454],[115.67284975740108,-33.566676696924084],[115.67284565491792,-33.56849759797359],[115.67283172771361,-33.57500398627062],[115.67247252075582,-33.57500344014495],[115.66906527631814,-33.57499820733159],[115.6688843659909,-33.5757822945768],[115.66876725067841,-33.57668383886096],[115.66805603273781,-33.577978390372486],[115.66804800059063,-33.58225295178763],[115.66783130436741,-33.58225267085758],[115.65772907096385,-33.58223915811194],[115.65751231274166,-33.58223726718055],[115.65750836084598,-33.588071800780256],[115.65750611190063,-33.59136075750638],[115.65750583627485,-33.59176366571787],[115.65750073519085,-33.599207754626015],[115.6575002438567,-33.59992421800225],[115.65600911995368,-33.59992351515197],[115.64888413867726,-33.599919894226105],[115.64284104338444,-33.60538732525963],[115.64269150350039,-33.60552260601097],[115.64526627641655,-33.6074602170294],[115.64593310463599,-33.608022483200706],[115.64894159532733,-33.61055908571015],[115.65912028155623,-33.60134397322792],[115.65875838422356,-33.60107449079757],[115.65933619728771,-33.600533691009474],[115.66999911979468,-33.59055209516786],[115.67152756031237,-33.591770439790366],[115.67321713883534,-33.59311144341194],[115.68066143771506,-33.58628151042013],[115.68066202125442,-33.58450868021507],[115.68283724929373,-33.5838432147729],[115.68917999518753,-33.57518255533858],[115.68918888817952,-33.57517041033815],[115.68929323008507,-33.57502791933378],[115.68930047317711,-33.56851450767382],[115.68933129474159,-33.556503557114574],[115.68429986325899,-33.55649782784219]]],[[[115.69752368252256,-33.54253608966949],[115.69723503940855,-33.54253623770267],[115.69684138561674,-33.54253643874786],[115.69319211681615,-33.54253824616696],[115.69319657433165,-33.546891920464745],[115.69297998181472,-33.54689171148627],[115.68431485887906,-33.54688302178983],[115.68430014621637,-33.55631644387842],[115.68933317670387,-33.55632205613618],[115.69298925520057,-33.55632600298085],[115.6929872357186,-33.55415065597751],[115.69320385753899,-33.554150517961546],[115.7018657593548,-33.55414471054237],[115.70185800963675,-33.54689999088515],[115.70185608856892,-33.546720526867865],[115.701859107998,-33.542533793492474],[115.69752368252256,-33.54253608966949]]]]},"properties":{"fmt_tenid":"M 70/93","type":"MINING LEASE","tenstatus":"LIVE","holder1":"ILUKA RESOURCES LIMITED","holder2":" ","legal_area":960.85,"unit_of_me":"HA.","_colour":"#f5a520","_label":"Mining Lease"}},{"type":"Feature","geometry":{"type":"Polygon","coordinates":[[[115.59410430731143,-33.48319625112962],[115.59413972722814,-33.48669672766143],[115.59391990192125,-33.486698599927074],[115.59205767279258,-33.48671446517779],[115.5921200619885,-33.492534535769174],[115.59212259097553,-33.49333869151604],[115.59217089186882,-33.49742631786529],[115.59220307271045,-33.5005226290748],[115.5975108154043,-33.499277204956734],[115.59772677831786,-33.49922652545687],[115.59864176697673,-33.49901179860047],[115.60018545183182,-33.49901268659005],[115.60018653950131,-33.49919406923427],[115.60022390824324,-33.50427319427658],[115.60024364660478,-33.50790167312605],[115.60027698523663,-33.514029102756126],[115.6002831356565,-33.51515954793708],[115.60028611847204,-33.51533000811983],[115.59946796607518,-33.51534400628259],[115.5948685250726,-33.51535315807514],[115.59162210753222,-33.51537321254642],[115.59163105853423,-33.51700611228164],[115.5916619256129,-33.52263587025267],[115.59167186963958,-33.52444964217267],[115.59167684740767,-33.525357496745066],[115.59292294825764,-33.52455709568471],[115.59325888458574,-33.52434819458788],[115.59362955290324,-33.52413286350383],[115.59400858026562,-33.523927995440644],[115.59439554367493,-33.523733815397996],[115.59479001413344,-33.52355053837551],[115.59519155285709,-33.52337836477614],[115.59559971478821,-33.52321748664456],[115.59601404480425,-33.52306808153517],[115.59642985292344,-33.52293170143809],[115.60150559666143,-33.521347885295256],[115.60362531541466,-33.52068637769856],[115.60363872381306,-33.51470176999992],[115.60363913109697,-33.51452002579639],[115.60364161872677,-33.513410708554204],[115.6036420419831,-33.51322189034279],[115.60366215359309,-33.50425925750504],[115.60367347802452,-33.499211965490396],[115.60367443842418,-33.499030583916884],[115.60370059319467,-33.49429928962863],[115.60180855297234,-33.49429248495499],[115.60172664890314,-33.486641875221935],[115.60169793350659,-33.483958417247656],[115.60168904187869,-33.4831268694721],[115.59929401788267,-33.48314763775914],[115.59410430731143,-33.48319625112962]]]},"properties":{"fmt_tenid":"M 70/959","type":"MINING LEASE","tenstatus":"LIVE","holder1":"ILUKA MIDWEST LIMITED","holder2":" ","legal_area":312.1,"unit_of_me":"HA.","_colour":"#f5a520","_label":"Mining Lease"}},{"type":"Feature","geometry":{"type":"Polygon","coordinates":[[[115.59802916363203,-33.50791000999931],[115.5948269211871,-33.5079219918672],[115.59486545301274,-33.51517993191781],[115.5948685250726,-33.51535315807514],[115.59946796607518,-33.51534400628259],[115.60028611847204,-33.51533000811983],[115.6002831356565,-33.51515954793708],[115.60027698523663,-33.514029102756126],[115.60024364660478,-33.50790167312605],[115.59802916363203,-33.50791000999931]]]},"properties":{"fmt_tenid":"M 70/962","type":"MINING LEASE","tenstatus":"LIVE","holder1":"ILUKA MIDWEST LIMITED","holder2":" ","legal_area":41.51,"unit_of_me":"HA.","_colour":"#f5a520","_label":"Mining Lease"}},{"type":"Feature","geometry":{"type":"Polygon","coordinates":[[[115.59220516246332,-33.50071074375679],[115.59146063485599,-33.50088545164418],[115.5898711979992,-33.50635825009116],[115.58940309776935,-33.506359993863306],[115.58941118393267,-33.507942066932124],[115.59426050799868,-33.50792410345725],[115.5942203858367,-33.5063424371981],[115.59406644882515,-33.50027396836381],[115.59220516246332,-33.50071074375679]]]},"properties":{"fmt_tenid":"M 70/970","type":"MINING LEASE","tenstatus":"LIVE","holder1":"ILUKA RESOURCES LIMITED","holder2":" ","legal_area":28.315,"unit_of_me":"HA.","_colour":"#f5a520","_label":"Mining Lease"}},{"type":"Feature","geometry":{"type":"Polygon","coordinates":[[[115.58941118393267,-33.507942066932124],[115.58942687351251,-33.51101112272004],[115.58942798243653,-33.51119249193339],[115.58921131063364,-33.51119342471855],[115.58921158890732,-33.51124755978279],[115.58923275282525,-33.51538211568263],[115.59162210753222,-33.51537321254642],[115.5948685250726,-33.51535315807514],[115.59486545301274,-33.51517993191781],[115.5948269211871,-33.5079219918672],[115.59426050799868,-33.50792410345725],[115.58941118393267,-33.507942066932124]]]},"properties":{"fmt_tenid":"M 70/978","type":"MINING LEASE","tenstatus":"LIVE","holder1":"ILUKA RESOURCES LIMITED","holder2":" ","legal_area":42.47,"unit_of_me":"HA.","_colour":"#f5a520","_label":"Mining Lease"}},{"type":"Feature","geometry":{"type":"Polygon","coordinates":[[[115.77211609564695,-33.4527639268369],[115.7721176743584,-33.456435110923444],[115.7721177336262,-33.4567978752286],[115.77600168893767,-33.456797060184634],[115.77747025734656,-33.45679672222029],[115.77747119118288,-33.45643391082939],[115.77747829587997,-33.453546672718154],[115.77748016852915,-33.45276901187999],[115.77724009712384,-33.45276879006775],[115.77211609564695,-33.4527639268369]]]},"properties":{"fmt_tenid":"M 70/985","type":"MINING LEASE","tenstatus":"LIVE","holder1":"ILUKA RESOURCES LIMITED","holder2":" ","legal_area":22.265,"unit_of_me":"HA.","_colour":"#f5a520","_label":"Mining Lease"}},{"type":"Feature","geometry":{"type":"Polygon","coordinates":[[[115.58307417262917,-33.51235700233959],[115.5822787051652,-33.51368784163376],[115.58148690167785,-33.515676148072444],[115.58091620214742,-33.51637324875018],[115.58063778829802,-33.51671332209549],[115.57988139831855,-33.51769742819005],[115.57862069408237,-33.5187703901421],[115.58294931063632,-33.51877153783639],[115.58463231822499,-33.51703171640743],[115.5875955307878,-33.51702092446898],[115.58924111109495,-33.51701489961519],[115.58945757013511,-33.517014105766016],[115.59076848737664,-33.51700928867995],[115.59117453645102,-33.51700779396311],[115.59163105853423,-33.51700611228164],[115.59162210753222,-33.51537321254642],[115.58923275282525,-33.51538211568263],[115.58921158890732,-33.51124755978279],[115.58921131063364,-33.51119342471855],[115.58914668569238,-33.511193708654496],[115.58379273153905,-33.511217165353635],[115.58372850081491,-33.51127153036902],[115.58373023994903,-33.51155318278173],[115.58307417262917,-33.51235700233959]]]},"properties":{"fmt_tenid":"M 70/990","type":"MINING LEASE","tenstatus":"LIVE","holder1":"ILUKA RESOURCES LIMITED","holder2":" ","legal_area":53.87,"unit_of_me":"HA.","_colour":"#f5a520","_label":"Mining Lease"}},{"type":"Feature","geometry":{"type":"Polygon","coordinates":[[[115.47735900790555,-33.62340315350353],[115.4773638150755,-33.62421620606227],[115.47796240656473,-33.624213563474896],[115.48643413134674,-33.62417837715915],[115.48643395938572,-33.624150068135975],[115.48643302759649,-33.623996982010716],[115.47757948207719,-33.62403398372443],[115.47757580072728,-33.62340230228836],[115.47735900790555,-33.62340315350353]]]},"properties":{"fmt_tenid":"M 70/995","type":"MINING LEASE","tenstatus":"LIVE","holder1":"ILUKA MIDWEST LIMITED","holder2":" ","legal_area":1.834,"unit_of_me":"HA.","_colour":"#f5a520","_label":"Mining Lease"}},{"type":"Feature","geometry":{"type":"Polygon","coordinates":[[[115.90149726454587,-32.9338883600279],[115.89707099952119,-32.933886120192334],[115.88964561021871,-32.93388198960728],[115.88918431883675,-32.94223364796938],[115.88927954093235,-32.94241414440517],[115.88927670957811,-32.945950859509225],[115.88927388023436,-32.94949969958449],[115.88927250951251,-32.95120661029249],[115.88927242965717,-32.95139997980612],[115.88927149033813,-32.95364549015866],[115.89127841995294,-32.953643569964335],[115.89145933973798,-32.95364339958623],[115.89608685020367,-32.953639139908496],[115.89660235009964,-32.953638660301635],[115.8992210004914,-32.95363618021762],[115.89926031027058,-32.95313164030268],[115.89939034977844,-32.95232897991952],[115.89958989014752,-32.95153634037043],[115.90028682017766,-32.94949846049732],[115.9014971408974,-32.9459591397499],[115.90149726454587,-32.9338883600279]]]},"properties":{"fmt_tenid":"R 70/37","type":"RETENTION LICENCE","tenstatus":"LIVE","holder1":"ILUKA MIDWEST LIMITED","holder2":" ","legal_area":230,"unit_of_me":"HA.","_colour":"#a0d4a0","_label":"Retention Licence"}},{"type":"Feature","geometry":{"type":"Polygon","coordinates":[[[115.48063900805094,-33.63213311086646],[115.4848420062114,-33.63213304176076],[115.49475004200164,-33.632132837656485],[115.4999999995973,-33.63213273022755],[115.50150861019374,-33.63213269881693],[115.50150855463754,-33.62937486732971],[115.49749176031564,-33.62937377033777],[115.49748279039866,-33.6227527097295],[115.49426643028639,-33.62275422959791],[115.49426514984778,-33.61819779046593],[115.49426450016516,-33.61588350987501],[115.49007036967909,-33.6158846004311],[115.48985332989982,-33.61588464956802],[115.48660096962723,-33.615885920141885],[115.48638406974253,-33.61588600038022],[115.4864057597018,-33.619557190380355],[115.48640709040437,-33.61977355955724],[115.48641575047303,-33.6211786797058],[115.48643311959657,-33.62399681001049],[115.48643451827998,-33.62422684919873],[115.48644697047699,-33.626262779864774],[115.48063616992464,-33.62626488037821],[115.48063900805094,-33.63213311086646]]]},"properties":{"fmt_tenid":"R 70/47","type":"RETENTION LICENCE","tenstatus":"LIVE","holder1":"ILUKA RESOURCES LIMITED","holder2":" ","legal_area":208.61,"unit_of_me":"HA.","_colour":"#a0d4a0","_label":"Retention Licence"}},{"type":"Feature","geometry":{"type":"Polygon","coordinates":[[[115.91510853006652,-32.40521386958988],[115.91054565732496,-32.40531059762334],[115.91048144748355,-32.40531195860983],[115.91033895783532,-32.40531497957987],[115.91026765801145,-32.40531648956489],[115.91020295017124,-32.4053178595513],[115.903427479868,-32.405461300472396],[115.90309159018774,-32.40546840042038],[115.90286766040101,-32.40547314038578],[115.89315584028466,-32.4056780397427],[115.89132671226109,-32.44687343133148],[115.88565231384503,-32.47162326312755],[115.89380070705651,-32.47162326298352],[115.91015281011927,-32.44048382991566],[115.9166666666748,-32.42587638245874],[115.91666666700556,-32.41666666707331],[115.91666666722544,-32.40518079992305],[115.91510853006652,-32.40521386958988]]]},"properties":{"fmt_tenid":"R 70/49","type":"RETENTION LICENCE","tenstatus":"LIVE","holder1":"ILUKA RESOURCES LIMITED","holder2":" ","legal_area":1260,"unit_of_me":"HA.","_colour":"#a0d4a0","_label":"Retention Licence"}},{"type":"Feature","geometry":{"type":"MultiPolygon","coordinates":[[[[115.47276358966516,-33.63287083978616],[115.47284531029656,-33.636879440165245],[115.47450198983086,-33.637288929761326],[115.48064223042458,-33.63879079964579],[115.48454357962338,-33.63974487046481],[115.48489011018555,-33.63982960029733],[115.48931896044297,-33.64095395049715],[115.49315599507094,-33.64192790683745],[115.49882645571495,-33.63480720133992],[115.4979511465704,-33.63434729095178],[115.49721375953001,-33.634056030389324],[115.49681987044997,-33.63379307971281],[115.49666843037322,-33.633611859904],[115.49626047038147,-33.63347579012657],[115.4959467604401,-33.63345763022579],[115.49556615037943,-33.63319891954397],[115.49502236043023,-33.633061399805285],[115.49497592040044,-33.63298585988101],[115.49463831019149,-33.63243684043213],[115.49464162403065,-33.63213283968597],[115.4848420062114,-33.63213304176076],[115.48063900805094,-33.63213311086646],[115.4806393104616,-33.63275817990675],[115.47796564962131,-33.63279647969428],[115.47327806000114,-33.63286349983787],[115.47276358966516,-33.63287083978616]]],[[[115.49475004200164,-33.632132837656485],[115.49474695015219,-33.63241528042073],[115.49509772037148,-33.63298576984824],[115.49561792032178,-33.6331172795982],[115.49598854038017,-33.633369190288384],[115.49628893032313,-33.63338658019325],[115.4967192803323,-33.633561979931876],[115.49687573041163,-33.633749129734404],[115.49725424048837,-33.63400171042363],[115.49798753952751,-33.63429151998828],[115.49886848567202,-33.634754416372395],[115.50000000045682,-33.63333333324109],[115.4999999995973,-33.63213273022755],[115.49475004200164,-33.632132837656485]]]]},"properties":{"fmt_tenid":"R 70/50","type":"RETENTION LICENCE","tenstatus":"LIVE","holder1":"ILUKA RESOURCES LIMITED","holder2":" ","legal_area":185,"unit_of_me":"HA.","_colour":"#a0d4a0","_label":"Retention Licence"}}]}