{"type":"FeatureCollection","_source":"Multi-state Australian tenement registry","_holders":["LRL (AUST) PTY LTD"],"_ticker":"LTR.AX","features":[{"type":"Feature","geometry":{"type":"Polygon","coordinates":[[[120.66666666687318,-28.18333333193421],[120.66666666653232,-28.166666666967522],[120.65000000032673,-28.16666666741737],[120.63333333313084,-28.16666666678293],[120.63333333290794,-28.183333332478856],[120.65000000006619,-28.183333331613117],[120.64999999957818,-28.200000000069025],[120.66666666736207,-28.200000000114265],[120.66666666687318,-28.18333333193421]]]},"properties":{"fmt_tenid":"E 36/1094","type":"EXPLORATION LICENCE","tenstatus":"LIVE","holder1":"LRL (AUST) PTY LTD","holder2":" ","legal_area":3,"unit_of_me":"BL.","_colour":"#a0c4f0","_label":"Exploration Licence"}},{"type":"Feature","geometry":{"type":"Polygon","coordinates":[[[120.5547235825538,-27.433333333486686],[120.55000000037577,-27.433333333465832],[120.53333333315256,-27.4333333333199],[120.51666666693204,-27.43333333258101],[120.51666666721626,-27.450000000253485],[120.51666666685658,-27.46666666697999],[120.51666666682927,-27.48333333342079],[120.51666666652505,-27.500000000483823],[120.53333333265121,-27.500000000149235],[120.53476878644274,-27.5000000000713],[120.5347631994545,-27.49865492136357],[120.54130881740763,-27.498684708326962],[120.53846966797155,-27.48240477106863],[120.53636039943127,-27.48284454428426],[120.53473193698211,-27.47666953093261],[120.5324451608547,-27.45074139726513],[120.53178677557005,-27.44327412808604],[120.53763895701515,-27.443336727857897],[120.5551603568255,-27.46096571755276],[120.56003770224882,-27.4603355072324],[120.558003498195,-27.44999999986415],[120.55654755349406,-27.44260256149591],[120.5547235825538,-27.433333333486686]]]},"properties":{"fmt_tenid":"E 36/879","type":"EXPLORATION LICENCE","tenstatus":"LIVE","holder1":"LRL (AUST) PTY LTD","holder2":" ","legal_area":10,"unit_of_me":"BL.","_colour":"#a0c4f0","_label":"Exploration Licence"}},{"type":"Feature","geometry":{"type":"Polygon","coordinates":[[[120.54824846266659,-27.489549843727115],[120.549527460837,-27.49831937012816],[120.550850910213,-27.50739173659197],[120.55589741529957,-27.506132723821402],[120.55171930317229,-27.488921405177212],[120.54824846266659,-27.489549843727115]]]},"properties":{"fmt_tenid":"M 36/264","type":"MINING LEASE","tenstatus":"LIVE","holder1":"LRL (AUST) PTY LTD","holder2":" ","legal_area":85.245,"unit_of_me":"HA.","_colour":"#f5a520","_label":"Mining Lease"}},{"type":"Feature","geometry":{"type":"Polygon","coordinates":[[[120.56616189348836,-27.48676858004002],[120.57030430003145,-27.500318526548995],[120.57631743878729,-27.499443849985294],[120.57525241114566,-27.494009968623892],[120.57367184958619,-27.485944778073932],[120.56616189348836,-27.48676858004002]]]},"properties":{"fmt_tenid":"M 36/265","type":"MINING LEASE","tenstatus":"LIVE","holder1":"LRL (AUST) PTY LTD","holder2":" ","legal_area":103.3,"unit_of_me":"HA.","_colour":"#f5a520","_label":"Mining Lease"}},{"type":"Feature","geometry":{"type":"Polygon","coordinates":[[[120.53894134205797,-27.472078330684973],[120.5410857447815,-27.481872970784654],[120.53846966797155,-27.48240477106863],[120.54130881740763,-27.498684708326962],[120.54158575947139,-27.500273103987215],[120.549527460837,-27.49831937012816],[120.54824846266659,-27.489549843727115],[120.55171930317229,-27.488921405177212],[120.55366054250197,-27.48865752990763],[120.55331629945722,-27.486953406889807],[120.55190841494175,-27.48250528133403],[120.54980344840128,-27.470821205853568],[120.53894134205797,-27.472078330684973]]]},"properties":{"fmt_tenid":"M 36/459","type":"MINING LEASE","tenstatus":"LIVE","holder1":"LRL (AUST) PTY LTD","holder2":" ","legal_area":326.75,"unit_of_me":"HA.","_colour":"#f5a520","_label":"Mining Lease"}},{"type":"Feature","geometry":{"type":"Polygon","coordinates":[[[120.54822844722315,-27.461861092807084],[120.54980344840128,-27.470821205853568],[120.55190841494175,-27.48250528133403],[120.55331629945722,-27.486953406889807],[120.55366054250197,-27.48865752990763],[120.55171930317229,-27.488921405177212],[120.55589741529957,-27.506132723821402],[120.550850910213,-27.50739173659197],[120.54850286063653,-27.507586999280246],[120.54964387710761,-27.51292191848351],[120.55309915004702,-27.512347675908245],[120.55246337818416,-27.508912782360554],[120.56328742996163,-27.507781324434596],[120.56711619888073,-27.504723377926968],[120.5688101005382,-27.50570537293478],[120.56727684515279,-27.50075885558354],[120.57030430003145,-27.500318526548995],[120.56616189348836,-27.48676858004002],[120.57367184958619,-27.485944778073932],[120.57332694159153,-27.48418539267498],[120.57143914800889,-27.474513341331683],[120.56955023250039,-27.46483066553887],[120.56846022544319,-27.45924704050198],[120.56003770224882,-27.4603355072324],[120.5551603568255,-27.46096571755276],[120.54822844722315,-27.461861092807084]]]},"properties":{"fmt_tenid":"M 36/460","type":"MINING LEASE","tenstatus":"LIVE","holder1":"LRL (AUST) PTY LTD","holder2":" ","legal_area":947.9,"unit_of_me":"HA.","_colour":"#f5a520","_label":"Mining Lease"}},{"type":"Feature","geometry":{"type":"Polygon","coordinates":[[[120.53894134205797,-27.472078330684973],[120.54980344840128,-27.470821205853568],[120.54822844722315,-27.461861092807084],[120.5551603568255,-27.46096571755276],[120.53763895701515,-27.443336727857897],[120.53178677557005,-27.44327412808604],[120.5324451608547,-27.45074139726513],[120.53473193698211,-27.47666953093261],[120.53636039943127,-27.48284454428426],[120.53846966797155,-27.48240477106863],[120.5410857447815,-27.481872970784654],[120.53894134205797,-27.472078330684973]]]},"properties":{"fmt_tenid":"M 36/696","type":"MINING LEASE","tenstatus":"LIVE","holder1":"LRL (AUST) PTY LTD","holder2":" ","legal_area":504.715,"unit_of_me":"HA.","_colour":"#f5a520","_label":"Mining Lease"}}]}