{"type":"FeatureCollection","_source":"WA DMIRS via SLIP public API","_holders":["MT WELD MINING PTY LIMITED"],"_ticker":"LYC.AX","features":[{"type":"Feature","geometry":{"type":"MultiPolygon","coordinates":[[[[122.50213401201496,-28.8533197452303],[122.49855060874222,-28.85332608154878],[122.49853499038853,-28.844208572852143],[122.49999999985025,-28.844219181568015],[122.50000000024792,-28.833333332593796],[122.49039612141549,-28.83333334662177],[122.49039866604086,-28.838224114401395],[122.49039914727916,-28.86078051378969],[122.49040974907162,-28.873412091743223],[122.49041000303718,-28.886043643848602],[122.48475192082286,-28.886043900012453],[122.47636443187221,-28.886043843133393],[122.47636407546554,-28.883333333184382],[122.46666666670694,-28.883333333499206],[122.44999999986305,-28.883333332974853],[122.45000000047165,-28.899999999828513],[122.46666666698704,-28.899999999527576],[122.48333333284452,-28.899999999611484],[122.48475220810776,-28.900000000032527],[122.4847521838895,-28.89867794871643],[122.50000000042432,-28.89867791828164],[122.49999999984838,-28.883333333082064],[122.50201039000524,-28.883333333297585],[122.50215335592758,-28.853339484295436],[122.50884730690073,-28.85330762637569],[122.50213401201496,-28.8533197452303]]],[[[122.50884730690073,-28.85330762637569],[122.50886167156365,-28.85548698492172],[122.51449359124317,-28.85556959455156],[122.51454704011661,-28.85005219751253],[122.51449355024327,-28.855569558551426],[122.50886187756423,-28.85548675992224],[122.50884730690073,-28.85330762637569]]]]},"properties":{"fmt_tenid":"E 38/2224","type":"EXPLORATION LICENCE","tenstatus":"LIVE","holder1":"MT WELD MINING PTY LIMITED","holder2":" ","legal_area":8,"unit_of_me":"BL.","_colour":"#a0c4f0","_label":"Exploration Licence"}},{"type":"Feature","geometry":{"type":"Polygon","coordinates":[[[122.54658120473852,-28.859136375927744],[122.54041362236039,-28.859110946677735],[122.54036855350382,-28.8664312827456],[122.5466634431378,-28.866325393997734],[122.54657112645614,-28.869071268971112],[122.54761286234947,-28.869103588812653],[122.55456992362798,-28.869318827778137],[122.55482524283251,-28.863686661303376],[122.54965879672163,-28.8636451700443],[122.5476445471108,-28.86069421726214],[122.54658120473852,-28.859136375927744]]]},"properties":{"fmt_tenid":"M 38/326","type":"MINING LEASE","tenstatus":"LIVE","holder1":"MT WELD MINING PTY LIMITED","holder2":" ","legal_area":104.6,"unit_of_me":"HA.","_colour":"#f5a520","_label":"Mining Lease"}},{"type":"Feature","geometry":{"type":"Polygon","coordinates":[[[122.54461200235122,-28.8528841849134],[122.54457026037126,-28.853739493137027],[122.54717189900789,-28.85734684292482],[122.5476572940445,-28.857346685293724],[122.54973501219962,-28.857346310153265],[122.54971418221245,-28.856479156808778],[122.55533640855752,-28.856495556777407],[122.55487890723835,-28.8554285891682],[122.56134840504666,-28.855576144276835],[122.56097413689297,-28.849350958571655],[122.55684313800727,-28.84920949536],[122.55682695305782,-28.848333466088334],[122.55163867084325,-28.84827941978067],[122.55177500017341,-28.85106524101952],[122.54964172811678,-28.851039449805516],[122.54963526904513,-28.852785963364166],[122.54767430277417,-28.8528243397213],[122.54461200235122,-28.8528841849134]]]},"properties":{"fmt_tenid":"M 38/327","type":"MINING LEASE","tenstatus":"LIVE","holder1":"MT WELD MINING PTY LIMITED","holder2":" ","legal_area":104.5,"unit_of_me":"HA.","_colour":"#f5a520","_label":"Mining Lease"}},{"type":"Feature","geometry":{"type":"Polygon","coordinates":[[[122.52209883577946,-28.842824950259164],[122.52206942778005,-28.850021091258967],[122.52200128367875,-28.866675850123315],[122.52195113609811,-28.878911711458198],[122.53332114089034,-28.87894584503164],[122.54757546248811,-28.87898735190733],[122.54759452044992,-28.873955209131623],[122.54761286234947,-28.869103588812653],[122.54657112645614,-28.869071268971112],[122.5466634431378,-28.866325393997734],[122.54036855350382,-28.8664312827456],[122.54041362236039,-28.859110946677735],[122.54658120473852,-28.859136375927744],[122.5476445471108,-28.86069421726214],[122.5476572940445,-28.857346685293724],[122.54717189900789,-28.85734684292482],[122.54457026037126,-28.853739493137027],[122.54461200235122,-28.8528841849134],[122.54767430277417,-28.8528243397213],[122.54769744600266,-28.8467210576032],[122.54771177376384,-28.84290224203603],[122.52209883577946,-28.842824950259164]]]},"properties":{"fmt_tenid":"M 38/58","type":"MINING LEASE","tenstatus":"LIVE","holder1":"MT WELD MINING PTY LIMITED","holder2":" ","legal_area":931.1,"unit_of_me":"HA.","_colour":"#f5a520","_label":"Mining Lease"}},{"type":"Feature","geometry":{"type":"Polygon","coordinates":[[[122.54771177376384,-28.84290224203603],[122.54769744600266,-28.8467210576032],[122.54767430277417,-28.8528243397213],[122.54963526904513,-28.852785963364166],[122.54964172811678,-28.851039449805516],[122.55177500017341,-28.85106524101952],[122.55163867084325,-28.84827941978067],[122.55682695305782,-28.848333466088334],[122.55684313800727,-28.84920949536],[122.56097413689297,-28.849350958571655],[122.56134840504666,-28.855576144276835],[122.55487890723835,-28.8554285891682],[122.55533640855752,-28.856495556777407],[122.54971418221245,-28.856479156808778],[122.54973501219962,-28.857346310153265],[122.5476572940445,-28.857346685293724],[122.5476445471108,-28.86069421726214],[122.54965879672163,-28.8636451700443],[122.55482524283251,-28.863686661303376],[122.55456992362798,-28.869318827778137],[122.54761286234947,-28.869103588812653],[122.54759452044992,-28.873955209131623],[122.54757546248811,-28.87898735190733],[122.57320073034722,-28.879060559223973],[122.57332755097981,-28.84297436172542],[122.54771177376384,-28.84290224203603]]]},"properties":{"fmt_tenid":"M 38/59","type":"MINING LEASE","tenstatus":"LIVE","holder1":"MT WELD MINING PTY LIMITED","holder2":" ","legal_area":859.55,"unit_of_me":"HA.","_colour":"#f5a520","_label":"Mining Lease"}}]}