{
  "type": "FeatureCollection",
  "features": [
    {
      "type": "Feature",
      "geometry": {
        "type": "MultiPolygon",
        "coordinates": [
          [
            [
              [
                118.38333333289394,
                -26.399999999738952
              ],
              [
                118.38333333336512,
                -26.383333333471505
              ],
              [
                118.36666666723204,
                -26.383333332926256
              ],
              [
                118.34999999967422,
                -26.383333332694466
              ],
              [
                118.35000000029767,
                -26.40000000009804
              ],
              [
                118.35000000021257,
                -26.41666666661412
              ],
              [
                118.34999999977056,
                -26.433333333295572
              ],
              [
                118.34999999958667,
                -26.449999999906197
              ],
              [
                118.36666666671182,
                -26.449999999559118
              ],
              [
                118.36666666733878,
                -26.43333333349567
              ],
              [
                118.38333333344632,
                -26.433333333192795
              ],
              [
                118.38333333307668,
                -26.416666666940912
              ],
              [
                118.38333333289394,
                -26.399999999738952
              ]
            ],
            [
              [
                118.35496159980657,
                -26.411607310406865
              ],
              [
                118.35893285004666,
                -26.41097779998899
              ],
              [
                118.3593522900118,
                -26.413123659971987
              ],
              [
                118.35538101964559,
                -26.413753170359904
              ],
              [
                118.35496159980657,
                -26.411607310406865
              ]
            ]
          ],
          [
            [
              [
                118.38333333321654,
                -26.283333332878325
              ],
              [
                118.38333333323153,
                -26.266666667092778
              ],
              [
                118.38333333276478,
                -26.249999999561272
              ],
              [
                118.36666666713207,
                -26.250000000450846
              ],
              [
                118.35000000042906,
                -26.25000000031461
              ],
              [
                118.35000000028181,
                -26.266666666577716
              ],
              [
                118.34999999984475,
                -26.283333333160304
              ],
              [
                118.35000000020726,
                -26.299999999715265
              ],
              [
                118.36666666683126,
                -26.300000000054798
              ],
              [
                118.38333333297315,
                -26.29999999951233
              ],
              [
                118.38333333321654,
                -26.283333332878325
              ]
            ]
          ],
          [
            [
              [
                118.38333333278717,
                -26.31666666717098
              ],
              [
                118.36666666676682,
                -26.316666667193406
              ],
              [
                118.36666666654968,
                -26.33333333335247
              ],
              [
                118.38333333250247,
                -26.33333333307473
              ],
              [
                118.38333333331194,
                -26.35000000048605
              ],
              [
                118.38472718818004,
                -26.350000000103883
              ],
              [
                118.3847271663106,
                -26.34870515906711
              ],
              [
                118.38814376486842,
                -26.34870526192189
              ],
              [
                118.38819362467876,
                -26.35000000090538
              ],
              [
                118.39621434905901,
                -26.349999999614628
              ],
              [
                118.39999999995825,
                -26.350000000421353
              ],
              [
                118.39999999954473,
                -26.342022411806127
              ],
              [
                118.39999999985025,
                -26.33333333321311
              ],
              [
                118.40000000027327,
                -26.328476850991137
              ],
              [
                118.399999999774,
                -26.31666666687372
              ],
              [
                118.40000000008288,
                -26.31493189487229
              ],
              [
                118.39999999967995,
                -26.3025711961339
              ],
              [
                118.39999999995737,
                -26.299999999978784
              ],
              [
                118.38333333297315,
                -26.29999999951233
              ],
              [
                118.38333333278717,
                -26.31666666717098
              ]
            ],
            [
              [
                118.39198102987613,
                -26.330070099860226
              ],
              [
                118.39199394867248,
                -26.328726350798522
              ],
              [
                118.39201842960394,
                -26.326179809788094
              ],
              [
                118.39230801964379,
                -26.322505119681217
              ],
              [
                118.39256975013923,
                -26.319128930012408
              ],
              [
                118.3948005204144,
                -26.319086230274678
              ],
              [
                118.39454932980226,
                -26.322327759913208
              ],
              [
                118.3943906895394,
                -26.32587106994545
              ],
              [
                118.39414698958814,
                -26.328659312919616
              ],
              [
                118.3941346498954,
                -26.32880050002017
              ],
              [
                118.3940691995269,
                -26.329549289554443
              ],
              [
                118.39385975962348,
                -26.334012789855326
              ],
              [
                118.39315142985095,
                -26.337584180303033
              ],
              [
                118.39077503001263,
                -26.33720156004374
              ],
              [
                118.3914836195559,
                -26.33363020046107
              ],
              [
                118.39198102987613,
                -26.330070099860226
              ]
            ]
          ]
        ]
      },
      "properties": {
        "fmt_tenid": "E 51/1609",
        "type": "EXPLORATION LICENCE",
        "tenstatus": "LIVE",
        "holder1": "NM GOLD OPERATIONS PTY LTD",
        "legal_area": 17,
        "unit_of_me": "BL.",
        "_colour": "#a0c4f0",
        "_label": "Exploration Licence"
      }
    },
    {
      "type": "Feature",
      "geometry": {
        "type": "MultiPolygon",
        "coordinates": [
          [
            [
              [
                118.43333333272106,
                -26.45000000019312
              ],
              [
                118.43333333328138,
                -26.43333333281428
              ],
              [
                118.43800736753313,
                -26.43333333290152
              ],
              [
                118.44317346870612,
                -26.43333333347155
              ],
              [
                118.4495864497616,
                -26.43333333306542
              ],
              [
                118.44999999952245,
                -26.43333333348055
              ],
              [
                118.45369206738754,
                -26.433333333259096
              ],
              [
                118.46666666732452,
                -26.433333332819643
              ],
              [
                118.46666666674496,
                -26.432038034639113
              ],
              [
                118.46666666748584,
                -26.416666666933178
              ],
              [
                118.44999999983928,
                -26.416666666520793
              ],
              [
                118.4333333325317,
                -26.416666667423538
              ],
              [
                118.41666666675434,
                -26.416666667159888
              ],
              [
                118.39999999982682,
                -26.416666666680126
              ],
              [
                118.38333333307668,
                -26.416666666940912
              ],
              [
                118.38333333344632,
                -26.433333333192795
              ],
              [
                118.39999999959532,
                -26.43333333335497
              ],
              [
                118.41666666743376,
                -26.43333333340217
              ],
              [
                118.41666666749276,
                -26.4500000003458
              ],
              [
                118.43289462311232,
                -26.45000002466079
              ],
              [
                118.43333333272106,
                -26.45000000019312
              ]
            ]
          ],
          [
            [
              [
                118.43333333313227,
                -26.465371268141382
              ],
              [
                118.43333333294315,
                -26.46666666702154
              ],
              [
                118.45000000034636,
                -26.466666667179645
              ],
              [
                118.45824708548206,
                -26.466666667512314
              ],
              [
                118.46666666748385,
                -26.466666666624782
              ],
              [
                118.46666666686512,
                -26.464865774082675
              ],
              [
                118.46666666725395,
                -26.4573631751181
              ],
              [
                118.46666666668156,
                -26.456443635405847
              ],
              [
                118.46666666680918,
                -26.45504213136847
              ],
              [
                118.46266051331496,
                -26.453121498807874
              ],
              [
                118.45937401465088,
                -26.45000803472957
              ],
              [
                118.45000000034506,
                -26.450000000445282
              ],
              [
                118.43333333272106,
                -26.45000000019312
              ],
              [
                118.43333333313227,
                -26.465371268141382
              ]
            ],
            [
              [
                118.44321380596435,
                -26.45241377270684
              ],
              [
                118.45580622837463,
                -26.45242719713662
              ],
              [
                118.45639393783797,
                -26.453699275284425
              ],
              [
                118.45750141237764,
                -26.457305289033172
              ],
              [
                118.45858372631956,
                -26.46066462684398
              ],
              [
                118.4596269071057,
                -26.464050856841066
              ],
              [
                118.44317520167877,
                -26.46421915018776
              ],
              [
                118.44321380596435,
                -26.45241377270684
              ]
            ]
          ]
        ]
      },
      "properties": {
        "fmt_tenid": "E 51/1661",
        "type": "EXPLORATION LICENCE",
        "tenstatus": "LIVE",
        "holder1": "NM GOLD OPERATIONS PTY LTD",
        "legal_area": 8,
        "unit_of_me": "BL.",
        "_colour": "#a0c4f0",
        "_label": "Exploration Licence"
      }
    },
    {
      "type": "Feature",
      "geometry": {
        "type": "MultiPolygon",
        "coordinates": [
          [
            [
              [
                118.41666666703341,
                -26.383333332921513
              ],
              [
                118.39999999971307,
                -26.3833333331581
              ],
              [
                118.38333333336512,
                -26.383333333471505
              ],
              [
                118.38333333289394,
                -26.399999999738952
              ],
              [
                118.38333333307668,
                -26.416666666940912
              ],
              [
                118.39999999982682,
                -26.416666666680126
              ],
              [
                118.41666666675434,
                -26.416666667159888
              ],
              [
                118.41666666653862,
                -26.415371964339943
              ],
              [
                118.41666666715133,
                -26.400000000161203
              ],
              [
                118.41666666703341,
                -26.383333332921513
              ]
            ],
            [
              [
                118.40614950453383,
                -26.393034815818176
              ],
              [
                118.40841088623107,
                -26.39047804615712
              ],
              [
                118.40998725413365,
                -26.391610124199893
              ],
              [
                118.40772606952758,
                -26.394166259858732
              ],
              [
                118.40614950453383,
                -26.393034815818176
              ]
            ]
          ],
          [
            [
              [
                118.4166666673513,
                -26.349999999633024
              ],
              [
                118.41666666659162,
                -26.333333333291666
              ],
              [
                118.41666666714542,
                -26.31666666745952
              ],
              [
                118.4166666673228,
                -26.29999999991097
              ],
              [
                118.39999999995737,
                -26.299999999978784
              ],
              [
                118.40000000008288,
                -26.31493189487229
              ],
              [
                118.399999999774,
                -26.31666666687372
              ],
              [
                118.40000000027327,
                -26.328476850991137
              ],
              [
                118.39999999985025,
                -26.33333333321311
              ],
              [
                118.39999999954473,
                -26.342022411806127
              ],
              [
                118.39999999995825,
                -26.350000000421353
              ],
              [
                118.4166666673513,
                -26.349999999633024
              ]
            ]
          ]
        ]
      },
      "properties": {
        "fmt_tenid": "E 51/1708",
        "type": "EXPLORATION LICENCE",
        "tenstatus": "LIVE",
        "holder1": "NM GOLD OPERATIONS PTY LTD",
        "legal_area": 7,
        "unit_of_me": "BL.",
        "_colour": "#a0c4f0",
        "_label": "Exploration Licence"
      }
    },
    {
      "type": "Feature",
      "geometry": {
        "type": "Polygon",
        "coordinates": [
          [
            [
              118.21063397000532,
              -26.977479589956374
            ],
            [
              118.21666667054934,
              -26.98201364158476
            ],
            [
              118.21666666670114,
              -26.9666666672112
            ],
            [
              118.21666666679081,
              -26.95000000003888
            ],
            [
              118.21666666740651,
              -26.933333332899267
            ],
            [
              118.20000000038416,
              -26.93333333282846
            ],
            [
              118.18473631530915,
              -26.933333332579465
            ],
            [
              118.18473625499678,
              -26.946672786776887
            ],
            [
              118.18515621038645,
              -26.946949570081575
            ],
            [
              118.18333333297588,
              -26.9490091334524
            ],
            [
              118.18333333329821,
              -26.966666667109514
            ],
            [
              118.17688144899013,
              -26.966666681776456
            ],
            [
              118.17688144978494,
              -26.976288529201458
            ],
            [
              118.16666666589599,
              -26.976288539669476
            ],
            [
              118.16666666713873,
              -26.983333332902536
            ],
            [
              118.166666667165,
              -26.999999999588837
            ],
            [
              118.1666666673815,
              -27.016666666970885
            ],
            [
              118.1734429367689,
              -27.01666690461218
            ],
            [
              118.17418223415599,
              -27.015125448915786
            ],
            [
              118.17784899800601,
              -27.012981960719372
            ],
            [
              118.18333333273706,
              -27.00419255736152
            ],
            [
              118.1833333333459,
              -27.000000000080696
            ],
            [
              118.18473710235789,
              -27.000000014097818
            ],
            [
              118.18473708592668,
              -26.9987129790099
            ],
            [
              118.19156659567571,
              -26.99871318481907
            ],
            [
              118.19307786372458,
              -26.997030223869846
            ],
            [
              118.1987794424402,
              -26.990680896818056
            ],
            [
              118.2000000003396,
              -26.98932167033312
            ],
            [
              118.19999999980752,
              -26.983333332824767
            ],
            [
              118.20537740548285,
              -26.983333346291996
            ],
            [
              118.21063397000532,
              -26.977479589956374
            ]
          ],
          [
            [
              118.20058573219582,
              -26.94631361806125
            ],
            [
              118.2002359919936,
              -26.948091205531885
            ],
            [
              118.19527735774385,
              -26.9473076266522
            ],
            [
              118.19562709832884,
              -26.94553002630837
            ],
            [
              118.20058573219582,
              -26.94631361806125
            ]
          ]
        ]
      },
      "properties": {
        "fmt_tenid": "E 51/1709",
        "type": "EXPLORATION LICENCE",
        "tenstatus": "LIVE",
        "holder1": "NM GOLD OPERATIONS PTY LTD",
        "legal_area": 10,
        "unit_of_me": "BL.",
        "_colour": "#a0c4f0",
        "_label": "Exploration Licence"
      }
    },
    {
      "type": "Feature",
      "geometry": {
        "type": "Polygon",
        "coordinates": [
          [
            [
              118.47718650872817,
              -26.416666682058697
            ],
            [
              118.48333333297258,
              -26.416666667055058
            ],
            [
              118.48333333320838,
              -26.39999999951553
            ],
            [
              118.46666666669482,
              -26.399999999752183
            ],
            [
              118.45000000017359,
              -26.399999999748122
            ],
            [
              118.4333333332191,
              -26.399999999715572
            ],
            [
              118.41666666715133,
              -26.400000000161203
            ],
            [
              118.41666666553863,
              -26.415371964339947
            ],
            [
              118.41666666675434,
              -26.416666667159888
            ],
            [
              118.4333333325317,
              -26.416666667423538
            ],
            [
              118.44999999983928,
              -26.416666666520793
            ],
            [
              118.46666666748584,
              -26.416666666933178
            ],
            [
              118.47718650872817,
              -26.416666682058697
            ]
          ]
        ]
      },
      "properties": {
        "fmt_tenid": "E 51/1737",
        "type": "EXPLORATION LICENCE",
        "tenstatus": "LIVE",
        "holder1": "NM GOLD OPERATIONS PTY LTD",
        "legal_area": 4,
        "unit_of_me": "BL.",
        "_colour": "#a0c4f0",
        "_label": "Exploration Licence"
      }
    },
    {
      "type": "Feature",
      "geometry": {
        "type": "Polygon",
        "coordinates": [
          [
            [
              118.3166666667372,
              -26.666666666915184
            ],
            [
              118.3166666665744,
              -26.64999999986555
            ],
            [
              118.31666666727845,
              -26.633333332996198
            ],
            [
              118.29999999973211,
              -26.633333333002078
            ],
            [
              118.29999999980667,
              -26.649999999624157
            ],
            [
              118.29999999971267,
              -26.66666666705858
            ],
            [
              118.3166666667372,
              -26.666666666915184
            ]
          ]
        ]
      },
      "properties": {
        "fmt_tenid": "E 51/1924",
        "type": "EXPLORATION LICENCE",
        "tenstatus": "LIVE",
        "holder1": "NM GOLD OPERATIONS PTY LTD",
        "legal_area": 2,
        "unit_of_me": "BL.",
        "_colour": "#a0c4f0",
        "_label": "Exploration Licence"
      }
    },
    {
      "type": "Feature",
      "geometry": {
        "type": "MultiPolygon",
        "coordinates": [
          [
            [
              [
                118.36666666739521,
                -26.616666667359986
              ],
              [
                118.38333333277653,
                -26.61666666682529
              ],
              [
                118.40000000026379,
                -26.61666666680329
              ],
              [
                118.41666666705294,
                -26.61666666742288
              ],
              [
                118.41666666712705,
                -26.600000000098927
              ],
              [
                118.41666666747696,
                -26.583333333276354
              ],
              [
                118.43333333275241,
                -26.583333333444937
              ],
              [
                118.43333333298442,
                -26.566666666941412
              ],
              [
                118.43333333339031,
                -26.550000000474235
              ],
              [
                118.43333333329255,
                -26.533333333203878
              ],
              [
                118.41666666691057,
                -26.533333332845988
              ],
              [
                118.39999999985136,
                -26.533333332789095
              ],
              [
                118.39999999961844,
                -26.549999999925415
              ],
              [
                118.39999999986314,
                -26.56666666694072
              ],
              [
                118.38333333273053,
                -26.566666666586354
              ],
              [
                118.38333333263856,
                -26.583333332755494
              ],
              [
                118.38333333274267,
                -26.599999999782735
              ],
              [
                118.36666666678427,
                -26.599999999939982
              ],
              [
                118.36666666739521,
                -26.616666667359986
              ]
            ]
          ],
          [
            [
              [
                118.34999999974875,
                -26.63333333279484
              ],
              [
                118.36666666749221,
                -26.63333333255737
              ],
              [
                118.36666666739521,
                -26.616666667359986
              ],
              [
                118.34999999974997,
                -26.616666667331483
              ],
              [
                118.34999999974875,
                -26.63333333279484
              ]
            ]
          ]
        ]
      },
      "properties": {
        "fmt_tenid": "E 51/1790",
        "type": "EXPLORATION LICENCE",
        "tenstatus": "LIVE",
        "holder1": "NM GOLD OPERATIONS PTY LTD",
        "legal_area": 13,
        "unit_of_me": "BL.",
        "_colour": "#a0c4f0",
        "_label": "Exploration Licence"
      }
    },
    {
      "type": "Feature",
      "geometry": {
        "type": "MultiPolygon",
        "coordinates": [
          [
            [
              [
                118.48333333297258,
                -26.416666667055058
              ],
              [
                118.47718650872817,
                -26.416666682058697
              ],
              [
                118.46666666748584,
                -26.416666666933178
              ],
              [
                118.4666666666672,
                -26.424720278256643
              ],
              [
                118.46666666674496,
                -26.432038034639113
              ],
              [
                118.46666666732452,
                -26.433333332819643
              ],
              [
                118.46666666698023,
                -26.444207555544576
              ],
              [
                118.47357449154437,
                -26.4391217361388
              ],
              [
                118.481056522954,
                -26.447028004320547
              ],
              [
                118.4690639697833,
                -26.45619144688367
              ],
              [
                118.46666666680918,
                -26.45504213136847
              ],
              [
                118.46666666668156,
                -26.456443635405847
              ],
              [
                118.46666666725395,
                -26.4573631751181
              ],
              [
                118.46666666686512,
                -26.46486577108271
              ],
              [
                118.46666666748385,
                -26.466666666624782
              ],
              [
                118.45000000034636,
                -26.466666667179645
              ],
              [
                118.43333333294315,
                -26.46666666702154
              ],
              [
                118.4333333330939,
                -26.48333333310419
              ],
              [
                118.43333333255308,
                -26.499999999974627
              ],
              [
                118.43333333333102,
                -26.516666666917864
              ],
              [
                118.4166666669635,
                -26.51666666736404
              ],
              [
                118.41666666691057,
                -26.533333332845988
              ],
              [
                118.43333333329255,
                -26.533333333203878
              ],
              [
                118.4499999996671,
                -26.53333333292805
              ],
              [
                118.46666666654491,
                -26.533333332601703
              ],
              [
                118.48333333286857,
                -26.533333332865343
              ],
              [
                118.48333333340783,
                -26.516666667021184
              ],
              [
                118.4833333325359,
                -26.499999999559694
              ],
              [
                118.48333333308697,
                -26.48333333269379
              ],
              [
                118.49999999960897,
                -26.48333333300233
              ],
              [
                118.49999999988086,
                -26.466666666513095
              ],
              [
                118.51666666666661,
                -26.466666666818792
              ],
              [
                118.51666666659204,
                -26.44999999963637
              ],
              [
                118.51666666672762,
                -26.43333333327137
              ],
              [
                118.49999999998698,
                -26.433333332534005
              ],
              [
                118.48333333260918,
                -26.433333333075726
              ],
              [
                118.48333333297258,
                -26.416666667055058
              ]
            ],
            [
              [
                118.46393193014025,
                -26.497539509737265
              ],
              [
                118.47156275983217,
                -26.499778160244823
              ],
              [
                118.46689943991457,
                -26.51264931040175
              ],
              [
                118.45926716033004,
                -26.510409870490808
              ],
              [
                118.46393193014025,
                -26.497539509737265
              ]
            ],
            [
              [
                118.44169211719151,
                -26.49789340701452
              ],
              [
                118.44175819773233,
                -26.498712642261584
              ],
              [
                118.44192136072917,
                -26.50071123798738
              ],
              [
                118.43879992331318,
                -26.50066815106196
              ],
              [
                118.43874920947181,
                -26.497892199950098
              ],
              [
                118.44169211719151,
                -26.49789340701452
              ]
            ]
          ],
          [
            [
              [
                118.41666666680129,
                -26.500000000467658
              ],
              [
                118.4166666666008,
                -26.483333332937075
              ],
              [
                118.40000000025917,
                -26.483333332911883
              ],
              [
                118.40000000000813,
                -26.50000000030001
              ],
              [
                118.41666666680129,
                -26.500000000467658
              ]
            ]
          ]
        ]
      },
      "properties": {
        "fmt_tenid": "E 51/1791",
        "type": "EXPLORATION LICENCE",
        "tenstatus": "LIVE",
        "holder1": "NM GOLD OPERATIONS PTY LTD",
        "legal_area": 22,
        "unit_of_me": "BL.",
        "_colour": "#a0c4f0",
        "_label": "Exploration Licence"
      }
    },
    {
      "type": "Feature",
      "geometry": {
        "type": "MultiPolygon",
        "coordinates": [
          [
            [
              [
                118.24999999987364,
                -26.71666666693029
              ],
              [
                118.26666666666196,
                -26.716666666925647
              ],
              [
                118.28333333278054,
                -26.716666667432364
              ],
              [
                118.28333333257882,
                -26.69999999955504
              ],
              [
                118.28333333252526,
                -26.6833333327067
              ],
              [
                118.30000000018673,
                -26.68333333308292
              ],
              [
                118.31666666675933,
                -26.683333332882615
              ],
              [
                118.3166666667372,
                -26.666666666915184
              ],
              [
                118.29999999971267,
                -26.66666666705858
              ],
              [
                118.29999999980667,
                -26.649999999624157
              ],
              [
                118.28333333310124,
                -26.65000000008814
              ],
              [
                118.28333333339557,
                -26.66666666700656
              ],
              [
                118.26666666690485,
                -26.66666666703908
              ],
              [
                118.24999999950334,
                -26.666666667346362
              ],
              [
                118.249999999971,
                -26.683333332629534
              ],
              [
                118.25000000040225,
                -26.69999999993818
              ],
              [
                118.24999999987364,
                -26.71666666693029
              ]
            ]
          ],
          [
            [
              [
                118.23333333320106,
                -26.7166666666419
              ],
              [
                118.2166666668174,
                -26.716666666672314
              ],
              [
                118.21666666676641,
                -26.733333333255267
              ],
              [
                118.23333333304511,
                -26.733333333043568
              ],
              [
                118.24999999966664,
                -26.73333333302321
              ],
              [
                118.24999999987364,
                -26.71666666693029
              ],
              [
                118.23333333320106,
                -26.7166666666419
              ]
            ]
          ]
        ]
      },
      "properties": {
        "fmt_tenid": "E 51/1888",
        "type": "EXPLORATION LICENCE",
        "tenstatus": "LIVE",
        "holder1": "NM GOLD OPERATIONS PTY LTD",
        "legal_area": 11,
        "unit_of_me": "BL.",
        "_colour": "#a0c4f0",
        "_label": "Exploration Licence"
      }
    },
    {
      "type": "Feature",
      "geometry": {
        "type": "Polygon",
        "coordinates": [
          [
            [
              118.34999999958667,
              -26.449999999906197
            ],
            [
              118.34999999977056,
              -26.433333333295572
            ],
            [
              118.35000000021257,
              -26.41666666661412
            ],
            [
              118.35000000029767,
              -26.40000000009804
            ],
            [
              118.34999999967422,
              -26.383333332694466
            ],
            [
              118.33333333253412,
              -26.38333333259116
            ],
            [
              118.31666666747262,
              -26.383333333065114
            ],
            [
              118.31666666676709,
              -26.4000000002395
            ],
            [
              118.31666666725825,
              -26.416666667024394
            ],
            [
              118.31666666731326,
              -26.433333332957663
            ],
            [
              118.3166666665326,
              -26.449999999926682
            ],
            [
              118.3166666665747,
              -26.46666666687829
            ],
            [
              118.3166666668387,
              -26.4833333328239
            ],
            [
              118.31666666678231,
              -26.500000000019995
            ],
            [
              118.333333332697,
              -26.50000000043157
            ],
            [
              118.35000000028168,
              -26.49999999982361
            ],
            [
              118.35000000032973,
              -26.51666666710048
            ],
            [
              118.33333333266506,
              -26.51666666704193
            ],
            [
              118.33333333312943,
              -26.533333332591592
            ],
            [
              118.3333333326019,
              -26.550000000039542
            ],
            [
              118.33333333294773,
              -26.566666666606825
            ],
            [
              118.3333333333938,
              -26.58333333301872
            ],
            [
              118.33333333319256,
              -26.60000000039794
            ],
            [
              118.3333333329468,
              -26.616666666848634
            ],
            [
              118.34999999974997,
              -26.616666667331483
            ],
            [
              118.34999999985634,
              -26.600000000121526
            ],
            [
              118.36666666678427,
              -26.599999999939982
            ],
            [
              118.36666666704133,
              -26.583333333055748
            ],
            [
              118.38333333263856,
              -26.583333332755494
            ],
            [
              118.38333333273053,
              -26.566666666586354
            ],
            [
              118.38333333342109,
              -26.550000000398015
            ],
            [
              118.38333333335937,
              -26.53333333272968
            ],
            [
              118.38333333261343,
              -26.516666667176345
            ],
            [
              118.38333333323838,
              -26.49999999986411
            ],
            [
              118.38333333270207,
              -26.483333332649334
            ],
            [
              118.38333333263395,
              -26.46666666721718
            ],
            [
              118.36666666700054,
              -26.46666666685714
            ],
            [
              118.35000000018827,
              -26.466666666902128
            ],
            [
              118.34999999958667,
              -26.449999999906197
            ]
          ]
        ]
      },
      "properties": {
        "fmt_tenid": "E 51/1932",
        "type": "EXPLORATION LICENCE",
        "tenstatus": "LIVE",
        "holder1": "NM GOLD OPERATIONS PTY LTD",
        "legal_area": 35,
        "unit_of_me": "BL.",
        "_colour": "#a0c4f0",
        "_label": "Exploration Licence"
      }
    },
    {
      "type": "Feature",
      "geometry": {
        "type": "Polygon",
        "coordinates": [
          [
            [
              118.50000000484214,
              -27.083333329476933
            ],
            [
              118.48333333338076,
              -27.083333329096195
            ],
            [
              118.47570257788917,
              -27.083333332953195
            ],
            [
              118.47215571368412,
              -27.08941620262684
            ],
            [
              118.46514466735817,
              -27.08682364651677
            ],
            [
              118.4573859420949,
              -27.099999999516598
            ],
            [
              118.46666666155802,
              -27.100000000498444
            ],
            [
              118.48333333327031,
              -27.09999999954574
            ],
            [
              118.50000000534472,
              -27.099999999827524
            ],
            [
              118.50000000484214,
              -27.083333329476933
            ]
          ]
        ]
      },
      "properties": {
        "fmt_tenid": "E 51/1936",
        "type": "EXPLORATION LICENCE",
        "tenstatus": "LIVE",
        "holder1": "NM GOLD OPERATIONS PTY LTD",
        "legal_area": 3,
        "unit_of_me": "BL.",
        "_colour": "#a0c4f0",
        "_label": "Exploration Licence"
      }
    },
    {
      "type": "Feature",
      "geometry": {
        "type": "Polygon",
        "coordinates": [
          [
            [
              118.33333333299447,
              -26.66666666706489
            ],
            [
              118.33333333257484,
              -26.649999999721786
            ],
            [
              118.34999999959199,
              -26.649999999914346
            ],
            [
              118.34999999974875,
              -26.63333333279484
            ],
            [
              118.34999999974997,
              -26.616666667331483
            ],
            [
              118.3333333329468,
              -26.616666666848634
            ],
            [
              118.33333333255854,
              -26.63333333278403
            ],
            [
              118.31666666727845,
              -26.633333332996198
            ],
            [
              118.3166666665744,
              -26.64999999986555
            ],
            [
              118.3166666667372,
              -26.666666666915184
            ],
            [
              118.33333333299447,
              -26.66666666706489
            ]
          ]
        ]
      },
      "properties": {
        "fmt_tenid": "E 51/1963",
        "type": "EXPLORATION LICENCE",
        "tenstatus": "LIVE",
        "holder1": "NM GOLD OPERATIONS PTY LTD",
        "legal_area": 4,
        "unit_of_me": "BL.",
        "_colour": "#a0c4f0",
        "_label": "Exploration Licence"
      }
    },
    {
      "type": "Feature",
      "geometry": {
        "type": "Polygon",
        "coordinates": [
          [
            [
              118.41666666449267,
              -26.449999997345838
            ],
            [
              118.41666666443379,
              -26.4333333264022
            ],
            [
              118.39999999259527,
              -26.433333326354997
            ],
            [
              118.38333333844638,
              -26.43333332619283
            ],
            [
              118.36666666733878,
              -26.4333333264957
            ],
            [
              118.36666666671182,
              -26.44999999655911
            ],
            [
              118.34999999458671,
              -26.449999996906183
            ],
            [
              118.34999999518831,
              -26.46666666790209
            ],
            [
              118.36666666700057,
              -26.46666666785718
            ],
            [
              118.38333333763401,
              -26.466666668217183
            ],
            [
              118.3833333377022,
              -26.48333333864938
            ],
            [
              118.38333333823849,
              -26.499999994864122
            ],
            [
              118.3833333376134,
              -26.51666666617636
            ],
            [
              118.38333333835928,
              -26.533333336729623
            ],
            [
              118.38333333842118,
              -26.549999992398018
            ],
            [
              118.38333333773062,
              -26.56666666358635
            ],
            [
              118.39999999286326,
              -26.566666663940772
            ],
            [
              118.39999999261858,
              -26.549999991925414
            ],
            [
              118.39999999285129,
              -26.533333336789035
            ],
            [
              118.41666666391058,
              -26.533333336845917
            ],
            [
              118.41666666396354,
              -26.51666666636405
            ],
            [
              118.43333333633099,
              -26.516666665917818
            ],
            [
              118.43333333555316,
              -26.499999994974626
            ],
            [
              118.43333333609382,
              -26.483333339104167
            ],
            [
              118.43333333594309,
              -26.466666668021524
            ],
            [
              118.43333333313227,
              -26.465371261141414
            ],
            [
              118.43333333272106,
              -26.45000000019312
            ],
            [
              118.4328945561124,
              -26.45000002166084
            ],
            [
              118.41666666449267,
              -26.449999997345838
            ]
          ],
          [
            [
              118.39999999325927,
              -26.48333333891186
            ],
            [
              118.41666666360086,
              -26.483333338937054
            ],
            [
              118.41666666380134,
              -26.499999995467665
            ],
            [
              118.39999999300827,
              -26.49999999530001
            ],
            [
              118.39999999325927,
              -26.48333333891186
            ]
          ]
        ]
      },
      "properties": {
        "fmt_tenid": "E 51/1972",
        "type": "EXPLORATION LICENCE",
        "tenstatus": "LIVE",
        "holder1": "NM GOLD OPERATIONS PTY LTD",
        "legal_area": 20,
        "unit_of_me": "BL.",
        "_colour": "#a0c4f0",
        "_label": "Exploration Licence"
      }
    },
    {
      "type": "Feature",
      "geometry": {
        "type": "Polygon",
        "coordinates": [
          [
            [
              118.35000000035659,
              -26.33333333324776
            ],
            [
              118.35000000007413,
              -26.316666667140495
            ],
            [
              118.36666666676682,
              -26.316666667193406
            ],
            [
              118.38333333278717,
              -26.31666666717098
            ],
            [
              118.38333333297315,
              -26.29999999951233
            ],
            [
              118.36666666683126,
              -26.300000000054798
            ],
            [
              118.35000000020726,
              -26.299999999715265
            ],
            [
              118.33333333297709,
              -26.300000000217796
            ],
            [
              118.33333333290129,
              -26.316666666767734
            ],
            [
              118.33333333277061,
              -26.333333333114734
            ],
            [
              118.33333333328336,
              -26.349999999979737
            ],
            [
              118.33333333295327,
              -26.366666666916725
            ],
            [
              118.3166666670634,
              -26.366666666690453
            ],
            [
              118.31666666747262,
              -26.383333333065114
            ],
            [
              118.33333333253412,
              -26.38333333259116
            ],
            [
              118.34999999967422,
              -26.383333332694466
            ],
            [
              118.36666666723204,
              -26.383333332926256
            ],
            [
              118.38333333336512,
              -26.383333333471505
            ],
            [
              118.3833333333039,
              -26.366666666940045
            ],
            [
              118.38333333331194,
              -26.35000000048605
            ],
            [
              118.38333333250247,
              -26.33333333307473
            ],
            [
              118.36666666654968,
              -26.33333333335247
            ],
            [
              118.36666666687823,
              -26.3500000003606
            ],
            [
              118.35000000000849,
              -26.350000000236836
            ],
            [
              118.35000000035659,
              -26.33333333324776
            ]
          ]
        ]
      },
      "properties": {
        "fmt_tenid": "E 51/1973",
        "type": "EXPLORATION LICENCE",
        "tenstatus": "LIVE",
        "holder1": "NM GOLD OPERATIONS PTY LTD",
        "legal_area": 13,
        "unit_of_me": "BL.",
        "_colour": "#a0c4f0",
        "_label": "Exploration Licence"
      }
    },
    {
      "type": "Feature",
      "geometry": {
        "type": "Polygon",
        "coordinates": [
          [
            [
              118.50000000469423,
              -27.066666673720565
            ],
            [
              118.500000004716,
              -27.05000000232319
            ],
            [
              118.4936915808267,
              -27.050000001616954
            ],
            [
              118.49103766390759,
              -27.055596965063792
            ],
            [
              118.47951818071628,
              -27.07678959264044
            ],
            [
              118.47570257788917,
              -27.083333332953195
            ],
            [
              118.48333333338076,
              -27.083333329096195
            ],
            [
              118.50000000484214,
              -27.083333329476933
            ],
            [
              118.50000000469423,
              -27.066666673720565
            ]
          ]
        ]
      },
      "properties": {
        "fmt_tenid": "E 51/1989",
        "type": "EXPLORATION LICENCE",
        "tenstatus": "LIVE",
        "holder1": "NM GOLD OPERATIONS PTY LTD",
        "legal_area": 3,
        "unit_of_me": "BL.",
        "_colour": "#a0c4f0",
        "_label": "Exploration Licence"
      }
    },
    {
      "type": "Feature",
      "geometry": {
        "type": "MultiPolygon",
        "coordinates": [
          [
            [
              [
                118.53333333064077,
                -27.066666673540023
              ],
              [
                118.53333333052528,
                -27.050000002104973
              ],
              [
                118.51666666045948,
                -27.05000000180917
              ],
              [
                118.51666665975233,
                -27.0333333306828
              ],
              [
                118.51666666689772,
                -27.016666666876215
              ],
              [
                118.50949189041957,
                -27.01666667444102
              ],
              [
                118.50577077849617,
                -27.02451883931288
              ],
              [
                118.500773902594,
                -27.035061188375078
              ],
              [
                118.49558318411968,
                -27.046010374689377
              ],
              [
                118.4936915808267,
                -27.050000001616954
              ],
              [
                118.500000004716,
                -27.05000000232319
              ],
              [
                118.50000000469423,
                -27.066666673720565
              ],
              [
                118.51666666011705,
                -27.06666667410712
              ],
              [
                118.51666665964572,
                -27.083333329102405
              ],
              [
                118.53333333057736,
                -27.083333328574202
              ],
              [
                118.53333333064077,
                -27.066666673540023
              ]
            ]
          ],
          [
            [
              [
                118.50000000534469,
                -27.10000000082751
              ],
              [
                118.48333333327031,
                -27.09999999954574
              ],
              [
                118.46666666155802,
                -27.100000000498444
              ],
              [
                118.4573859420949,
                -27.099999999516598
              ],
              [
                118.45236920679284,
                -27.10851972594125
              ],
              [
                118.45000000020967,
                -27.107392159187896
              ],
              [
                118.45000000748249,
                -27.116666672053892
              ],
              [
                118.46666666221327,
                -27.11666667161242
              ],
              [
                118.48333333334602,
                -27.11666667243639
              ],
              [
                118.50000000507283,
                -27.11666667180056
              ],
              [
                118.50000000534469,
                -27.10000000082751
              ]
            ]
          ]
        ]
      },
      "properties": {
        "fmt_tenid": "E 51/2002",
        "type": "EXPLORATION LICENCE",
        "tenstatus": "LIVE",
        "holder1": "NM GOLD OPERATIONS PTY LTD",
        "legal_area": 9,
        "unit_of_me": "BL.",
        "_colour": "#a0c4f0",
        "_label": "Exploration Licence"
      }
    },
    {
      "type": "Feature",
      "geometry": {
        "type": "Polygon",
        "coordinates": [
          [
            [
              118.19999999998716,
              -26.716666666771225
            ],
            [
              118.18333333323238,
              -26.71666666680785
            ],
            [
              118.18333333312407,
              -26.73333333324989
            ],
            [
              118.18333333318618,
              -26.750000000252406
            ],
            [
              118.16666666687097,
              -26.750000000219185
            ],
            [
              118.15000000010035,
              -26.749999999549004
            ],
            [
              118.15000000014933,
              -26.766666666531723
            ],
            [
              118.149999999691,
              -26.783333333077564
            ],
            [
              118.15000000043948,
              -26.800000000370446
            ],
            [
              118.15000000026531,
              -26.816666666954497
            ],
            [
              118.16666666692153,
              -26.81666666680346
            ],
            [
              118.16666666675944,
              -26.799999999662266
            ],
            [
              118.16666666650683,
              -26.783333332596985
            ],
            [
              118.18333333289678,
              -26.783333332520836
            ],
            [
              118.18333333287505,
              -26.766666666987252
            ],
            [
              118.2000000000021,
              -26.766666666916002
            ],
            [
              118.19999999990245,
              -26.749999999924842
            ],
            [
              118.2166666674509,
              -26.750000000105743
            ],
            [
              118.23333333329035,
              -26.750000000228162
            ],
            [
              118.23333333304511,
              -26.733333333043568
            ],
            [
              118.21666666676641,
              -26.733333333255267
            ],
            [
              118.19999999969711,
              -26.733333333045273
            ],
            [
              118.19999999998716,
              -26.716666666771225
            ]
          ]
        ]
      },
      "properties": {
        "fmt_tenid": "E 51/2012",
        "type": "EXPLORATION LICENCE",
        "tenstatus": "LIVE",
        "holder1": "NM GOLD OPERATIONS PTY LTD",
        "legal_area": 11,
        "unit_of_me": "BL.",
        "_colour": "#a0c4f0",
        "_label": "Exploration Licence"
      }
    },
    {
      "type": "Feature",
      "geometry": {
        "type": "Polygon",
        "coordinates": [
          [
            [
              118.23333333293621,
              -26.933333332565326
            ],
            [
              118.24999999984949,
              -26.933333333480746
            ],
            [
              118.2666666672191,
              -26.93333333311199
            ],
            [
              118.26666666710915,
              -26.91666666719472
            ],
            [
              118.26666666743273,
              -26.900000000279373
            ],
            [
              118.26666666695313,
              -26.883333333392642
            ],
            [
              118.26666666742697,
              -26.866666667218308
            ],
            [
              118.2666666673523,
              -26.850000000044165
            ],
            [
              118.25000000009184,
              -26.850000000299588
            ],
            [
              118.23333333324058,
              -26.84999999979842
            ],
            [
              118.21666666700943,
              -26.84999999991105
            ],
            [
              118.21666666653302,
              -26.866666667262177
            ],
            [
              118.21666666738906,
              -26.883333332692995
            ],
            [
              118.21666666704925,
              -26.900000000437
            ],
            [
              118.21666666670237,
              -26.91666666741653
            ],
            [
              118.21666666740651,
              -26.933333332899267
            ],
            [
              118.23333333293621,
              -26.933333332565326
            ]
          ]
        ]
      },
      "properties": {
        "fmt_tenid": "E 51/2013",
        "type": "EXPLORATION LICENCE",
        "tenstatus": "LIVE",
        "holder1": "NM GOLD OPERATIONS PTY LTD",
        "legal_area": 15,
        "unit_of_me": "BL.",
        "_colour": "#a0c4f0",
        "_label": "Exploration Licence"
      }
    },
    {
      "type": "Feature",
      "geometry": {
        "type": "Polygon",
        "coordinates": [
          [
            [
              118.38333333274267,
              -26.599999999782735
            ],
            [
              118.38333333263856,
              -26.583333332755494
            ],
            [
              118.36666666704133,
              -26.583333333055748
            ],
            [
              118.36666666678427,
              -26.599999999939982
            ],
            [
              118.38333333274267,
              -26.599999999782735
            ]
          ]
        ]
      },
      "properties": {
        "fmt_tenid": "E 51/2014",
        "type": "EXPLORATION LICENCE",
        "tenstatus": "LIVE",
        "holder1": "NM GOLD OPERATIONS PTY LTD",
        "legal_area": 1,
        "unit_of_me": "BL.",
        "_colour": "#a0c4f0",
        "_label": "Exploration Licence"
      }
    },
    {
      "type": "Feature",
      "geometry": {
        "type": "Polygon",
        "coordinates": [
          [
            [
              118.36666666739521,
              -26.616666667359986
            ],
            [
              118.36666666678427,
              -26.599999999939982
            ],
            [
              118.34999999985634,
              -26.600000000121526
            ],
            [
              118.34999999974997,
              -26.616666667331483
            ],
            [
              118.36666666739521,
              -26.616666667359986
            ]
          ]
        ]
      },
      "properties": {
        "fmt_tenid": "E 51/2015",
        "type": "EXPLORATION LICENCE",
        "tenstatus": "LIVE",
        "holder1": "NM GOLD OPERATIONS PTY LTD",
        "legal_area": 1,
        "unit_of_me": "BL.",
        "_colour": "#a0c4f0",
        "_label": "Exploration Licence"
      }
    },
    {
      "type": "Feature",
      "geometry": {
        "type": "Polygon",
        "coordinates": [
          [
            [
              118.13565697406078,
              -26.98834867524258
            ],
            [
              118.1356573659904,
              -26.983333450832593
            ],
            [
              118.13333333315194,
              -26.98333333299107
            ],
            [
              118.13333333269307,
              -26.99999999954733
            ],
            [
              118.14999999994919,
              -27.00000000004247
            ],
            [
              118.166666667165,
              -26.999999999588837
            ],
            [
              118.16666666713873,
              -26.983333332902536
            ],
            [
              118.14999999951971,
              -26.98333333335841
            ],
            [
              118.14573096400548,
              -26.98333352042622
            ],
            [
              118.14573103954847,
              -26.98834857440753
            ],
            [
              118.13565697406078,
              -26.98834867524258
            ]
          ]
        ]
      },
      "properties": {
        "fmt_tenid": "E 51/2103",
        "type": "EXPLORATION LICENCE",
        "tenstatus": "LIVE",
        "holder1": "NM GOLD OPERATIONS PTY LTD",
        "legal_area": 2,
        "unit_of_me": "BL.",
        "_colour": "#a0c4f0",
        "_label": "Exploration Licence"
      }
    },
    {
      "type": "Feature",
      "geometry": {
        "type": "Polygon",
        "coordinates": [
          [
            [
              118.49999999991985,
              -26.39999999997193
            ],
            [
              118.48333333320838,
              -26.39999999951553
            ],
            [
              118.48333333297258,
              -26.416666667055058
            ],
            [
              118.48333333260918,
              -26.433333333075726
            ],
            [
              118.49999999998698,
              -26.433333332534005
            ],
            [
              118.51666666672762,
              -26.43333333327137
            ],
            [
              118.53333333295703,
              -26.433333332749932
            ],
            [
              118.5333333329809,
              -26.41666666661054
            ],
            [
              118.51666666656142,
              -26.416666666573686
            ],
            [
              118.50000000037528,
              -26.416666666743115
            ],
            [
              118.49999999991985,
              -26.39999999997193
            ]
          ]
        ]
      },
      "properties": {
        "fmt_tenid": "E 51/2150",
        "type": "EXPLORATION LICENCE",
        "tenstatus": "LIVE",
        "holder1": "NM GOLD OPERATIONS PTY LTD",
        "legal_area": 4,
        "unit_of_me": "BL.",
        "_colour": "#a0c4f0",
        "_label": "Exploration Licence"
      }
    },
    {
      "type": "Feature",
      "geometry": {
        "type": "Polygon",
        "coordinates": [
          [
            [
              118.17187588878535,
              -27.019934388600134
            ],
            [
              118.17344293776888,
              -27.01666690461218
            ],
            [
              118.1666666673815,
              -27.016666666970885
            ],
            [
              118.166666667165,
              -26.999999999588837
            ],
            [
              118.14999999994919,
              -27.00000000004247
            ],
            [
              118.13333333269307,
              -26.99999999954733
            ],
            [
              118.13333333260641,
              -27.016666666762003
            ],
            [
              118.13333333330223,
              -27.033333332867578
            ],
            [
              118.13333333346047,
              -27.04999999961526
            ],
            [
              118.149999999682,
              -27.049999999588216
            ],
            [
              118.16666666741436,
              -27.0500000001833
            ],
            [
              118.16666666234987,
              -27.041651394082308
            ],
            [
              118.16276514767397,
              -27.038926771890043
            ],
            [
              118.16126468617871,
              -27.041920118672678
            ],
            [
              118.15006740181127,
              -27.03730876532346
            ],
            [
              118.15507137260819,
              -27.02683202978263
            ],
            [
              118.1660490599948,
              -27.032080767951232
            ],
            [
              118.16604939699765,
              -27.03208092895088
            ],
            [
              118.1678030340108,
              -27.028425549446794
            ],
            [
              118.17187588878535,
              -27.019934388600134
            ]
          ],
          [
            [
              118.1619107577268,
              -27.002377919910906
            ],
            [
              118.1600614900084,
              -27.00377318642832
            ],
            [
              118.15850438432481,
              -27.00214889089465
            ],
            [
              118.16028127303667,
              -27.000684485634252
            ],
            [
              118.1619107577268,
              -27.002377919910906
            ]
          ]
        ]
      },
      "properties": {
        "fmt_tenid": "E 51/2259",
        "type": "EXPLORATION LICENCE",
        "tenstatus": "LIVE",
        "holder1": "NM GOLD OPERATIONS PTY LTD",
        "legal_area": 7,
        "unit_of_me": "BL.",
        "_colour": "#a0c4f0",
        "_label": "Exploration Licence"
      }
    },
    {
      "type": "Feature",
      "geometry": {
        "type": "Polygon",
        "coordinates": [
          [
            [
              118.48333333288859,
              -26.916666666619946
            ],
            [
              118.49999999962266,
              -26.916666666767604
            ],
            [
              118.51666666650252,
              -26.916666666579097
            ],
            [
              118.5166666672074,
              -26.899999999661876
            ],
            [
              118.51666666727768,
              -26.883333332859863
            ],
            [
              118.51666666677586,
              -26.866666666613334
            ],
            [
              118.49999999990469,
              -26.86666666674755
            ],
            [
              118.48333333347486,
              -26.86666666660075
            ],
            [
              118.48333333300988,
              -26.88333333334806
            ],
            [
              118.46666666748042,
              -26.883333333288984
            ],
            [
              118.46666666721183,
              -26.900000000491726
            ],
            [
              118.46666666676344,
              -26.916666667240573
            ],
            [
              118.48333333288859,
              -26.916666666619946
            ]
          ]
        ]
      },
      "properties": {
        "fmt_tenid": "E 51/2272",
        "type": "EXPLORATION LICENCE",
        "tenstatus": "PENDING",
        "holder1": "NM GOLD OPERATIONS PTY LTD",
        "legal_area": 8,
        "unit_of_me": "BL.",
        "_colour": "#a0c4f0",
        "_label": "Exploration Licence"
      }
    },
    {
      "type": "Feature",
      "geometry": {
        "type": "Polygon",
        "coordinates": [
          [
            [
              118.51666666677326,
              -26.750000000347402
            ],
            [
              118.51666666678408,
              -26.733333332769494
            ],
            [
              118.51666666696153,
              -26.716666666895524
            ],
            [
              118.49999999988466,
              -26.71666666691067
            ],
            [
              118.4999999996693,
              -26.733333333096507
            ],
            [
              118.49999999978904,
              -26.749999999684338
            ],
            [
              118.51666666677326,
              -26.750000000347402
            ]
          ]
        ]
      },
      "properties": {
        "fmt_tenid": "E 51/2273",
        "type": "EXPLORATION LICENCE",
        "tenstatus": "PENDING",
        "holder1": "NM GOLD OPERATIONS PTY LTD",
        "legal_area": 2,
        "unit_of_me": "BL.",
        "_colour": "#a0c4f0",
        "_label": "Exploration Licence"
      }
    },
    {
      "type": "Feature",
      "geometry": {
        "type": "Polygon",
        "coordinates": [
          [
            [
              118.51666666747042,
              -26.83333333302594
            ],
            [
              118.53333333296845,
              -26.83333333257005
            ],
            [
              118.53333333269218,
              -26.816666667206192
            ],
            [
              118.53333333260187,
              -26.79999999977649
            ],
            [
              118.51666666734617,
              -26.79999999991511
            ],
            [
              118.50000000006143,
              -26.799999999635606
            ],
            [
              118.4999999996604,
              -26.816666666572264
            ],
            [
              118.49999999961773,
              -26.8333333331365
            ],
            [
              118.51666666747042,
              -26.83333333302594
            ]
          ]
        ]
      },
      "properties": {
        "fmt_tenid": "E 51/2274",
        "type": "EXPLORATION LICENCE",
        "tenstatus": "PENDING",
        "holder1": "NM GOLD OPERATIONS PTY LTD",
        "legal_area": 4,
        "unit_of_me": "BL.",
        "_colour": "#a0c4f0",
        "_label": "Exploration Licence"
      }
    },
    {
      "type": "Feature",
      "geometry": {
        "type": "Polygon",
        "coordinates": [
          [
            [
              118.21666666670237,
              -26.91666666741653
            ],
            [
              118.21666666704925,
              -26.900000000437
            ],
            [
              118.21666666738906,
              -26.883333332692995
            ],
            [
              118.21666666653302,
              -26.866666667262177
            ],
            [
              118.21666666700943,
              -26.84999999991105
            ],
            [
              118.19999999952806,
              -26.84999999983938
            ],
            [
              118.18333333335363,
              -26.850000000216127
            ],
            [
              118.18333333285622,
              -26.866666667142784
            ],
            [
              118.20000000043991,
              -26.866666666952767
            ],
            [
              118.20000000023656,
              -26.883333333026275
            ],
            [
              118.199999999809,
              -26.90000000014927
            ],
            [
              118.20000000003985,
              -26.91666666654646
            ],
            [
              118.20000000038416,
              -26.93333333282846
            ],
            [
              118.21666666740651,
              -26.933333332899267
            ],
            [
              118.21666666670237,
              -26.91666666741653
            ]
          ]
        ]
      },
      "properties": {
        "fmt_tenid": "E 51/2318",
        "type": "EXPLORATION LICENCE",
        "tenstatus": "PENDING",
        "holder1": "NM GOLD OPERATIONS PTY LTD",
        "legal_area": 6,
        "unit_of_me": "BL.",
        "_colour": "#a0c4f0",
        "_label": "Exploration Licence"
      }
    },
    {
      "type": "Feature",
      "geometry": {
        "type": "Polygon",
        "coordinates": [
          [
            [
              118.73333333339387,
              -25.699999999519903
            ],
            [
              118.73333333338581,
              -25.683333333211856
            ],
            [
              118.71666666662372,
              -25.68333333278913
            ],
            [
              118.71666666676919,
              -25.699999999841538
            ],
            [
              118.73333333339387,
              -25.699999999519903
            ]
          ]
        ]
      },
      "properties": {
        "fmt_tenid": "E 52/4576",
        "type": "EXPLORATION LICENCE",
        "tenstatus": "PENDING",
        "holder1": "NM GOLD OPERATIONS PTY LTD",
        "legal_area": 1,
        "unit_of_me": "BL.",
        "_colour": "#a0c4f0",
        "_label": "Exploration Licence"
      }
    },
    {
      "type": "Feature",
      "geometry": {
        "type": "Polygon",
        "coordinates": [
          [
            [
              118.39315142585099,
              -26.337584181303022
            ],
            [
              118.39385976362345,
              -26.33401278885534
            ],
            [
              118.39406919852676,
              -26.329549288554453
            ],
            [
              118.39413464689548,
              -26.328800504020187
            ],
            [
              118.39439068853942,
              -26.325871072945475
            ],
            [
              118.39454932680218,
              -26.322327761913186
            ],
            [
              118.39480052241451,
              -26.319086235274685
            ],
            [
              118.39256975113922,
              -26.319128928012425
            ],
            [
              118.39230802264385,
              -26.32250511468121
            ],
            [
              118.39201842660383,
              -26.326179805788076
            ],
            [
              118.39198102887613,
              -26.330070103860244
            ],
            [
              118.39148361455581,
              -26.33363019746104
            ],
            [
              118.39077502601269,
              -26.337201564043703
            ],
            [
              118.39315142585099,
              -26.337584181303022
            ]
          ]
        ]
      },
      "properties": {
        "fmt_tenid": "M 51/390",
        "type": "MINING LEASE",
        "tenstatus": "LIVE",
        "holder1": "NM GOLD OPERATIONS PTY LTD",
        "legal_area": 46.125,
        "unit_of_me": "HA.",
        "_colour": "#f5a520",
        "_label": "Mining Lease"
      }
    },
    {
      "type": "Feature",
      "geometry": {
        "type": "Polygon",
        "coordinates": [
          [
            [
              118.40614950453383,
              -26.393034815818176
            ],
            [
              118.40772606952757,
              -26.39416625685871
            ],
            [
              118.40998725413365,
              -26.391610124199893
            ],
            [
              118.40841088623107,
              -26.39047804615712
            ],
            [
              118.40614950453383,
              -26.393034815818176
            ]
          ]
        ]
      },
      "properties": {
        "fmt_tenid": "M 51/567",
        "type": "MINING LEASE",
        "tenstatus": "LIVE",
        "holder1": "NM GOLD OPERATIONS PTY LTD",
        "legal_area": 7.286,
        "unit_of_me": "HA.",
        "_colour": "#f5a520",
        "_label": "Mining Lease"
      }
    },
    {
      "type": "Feature",
      "geometry": {
        "type": "Polygon",
        "coordinates": [
          [
            [
              118.4690639697833,
              -26.45619144688367
            ],
            [
              118.481056522954,
              -26.447028004320547
            ],
            [
              118.47357449154437,
              -26.4391217361388
            ],
            [
              118.4591178156188,
              -26.44976532148265
            ],
            [
              118.46266051331496,
              -26.453121498807874
            ],
            [
              118.4690639697833,
              -26.45619144688367
            ]
          ]
        ]
      },
      "properties": {
        "fmt_tenid": "M 51/886",
        "type": "MINING LEASE",
        "tenstatus": "LIVE",
        "holder1": "NM GOLD OPERATIONS PTY LTD",
        "legal_area": 204.2965,
        "unit_of_me": "HA.",
        "_colour": "#f5a520",
        "_label": "Mining Lease"
      }
    },
    {
      "type": "Feature",
      "geometry": {
        "type": "Polygon",
        "coordinates": [
          [
            [
              118.44321380596435,
              -26.45241377270684
            ],
            [
              118.44317520167877,
              -26.46421915018776
            ],
            [
              118.4596269071057,
              -26.464050856841066
            ],
            [
              118.45858372631956,
              -26.46066462684398
            ],
            [
              118.45750141237764,
              -26.457305289033172
            ],
            [
              118.45639393783797,
              -26.453699275284425
            ],
            [
              118.45580622837463,
              -26.45242719713662
            ],
            [
              118.44321380596435,
              -26.45241377270684
            ]
          ]
        ]
      },
      "properties": {
        "fmt_tenid": "M 51/889",
        "type": "MINING LEASE",
        "tenstatus": "LIVE",
        "holder1": "NM GOLD OPERATIONS PTY LTD",
        "legal_area": 189.43813,
        "unit_of_me": "HA.",
        "_colour": "#f5a520",
        "_label": "Mining Lease"
      }
    },
    {
      "type": "Feature",
      "geometry": {
        "type": "Polygon",
        "coordinates": [
          [
            [
              118.4585333396569,
              -26.44758875973825
            ],
            [
              118.45998649692476,
              -26.44912720520484
            ],
            [
              118.46483866192817,
              -26.44557235375041
            ],
            [
              118.46332524965578,
              -26.443970190074495
            ],
            [
              118.46158784079975,
              -26.445303878150863
            ],
            [
              118.46001517045121,
              -26.44645826532894
            ],
            [
              118.4585333396569,
              -26.44758875973825
            ]
          ]
        ]
      },
      "properties": {
        "fmt_tenid": "M 51/926",
        "type": "MINING LEASE",
        "tenstatus": "LIVE",
        "holder1": "NM GOLD OPERATIONS PTY LTD",
        "legal_area": 14.23495,
        "unit_of_me": "HA.",
        "_colour": "#f5a520",
        "_label": "Mining Lease"
      }
    }
  ]
}