{"type":"FeatureCollection","_source":"Multi-state Australian tenement registry","_holders":["MOUNT GIBSON MINING LIMITED"],"_ticker":"MGX.AX","features":[{"type":"Feature","geometry":{"type":"Polygon","coordinates":[[[115.77632300413181,-27.112205003798945],[115.78325099584292,-27.105945998911942],[115.78333333325243,-27.10586533388337],[115.78333333277838,-27.10000000041946],[115.78333333306422,-27.083333332808927],[115.78333333285565,-27.066666667010022],[115.79999999995404,-27.066666667290846],[115.79999999985519,-27.04999999993344],[115.81666666725228,-27.050000000049973],[115.81666666695111,-27.033333333358915],[115.83333333280952,-27.033333332560638],[115.83333333268779,-27.01666666719015],[115.84999999993327,-27.016666667295073],[115.84999999960591,-27.00000000042115],[115.84999999993359,-26.983333333221953],[115.84999999968107,-26.9666666665886],[115.86666666669593,-26.966666667042706],[115.86666666719324,-26.950000000151185],[115.85000000049511,-26.950000000272755],[115.83333333308134,-26.950000000022463],[115.83333333324998,-26.96666666693882],[115.81666666713409,-26.966666667138377],[115.8166666667619,-26.983333333322513],[115.8166666668372,-26.999999999961084],[115.79999999966057,-27.000000000053706],[115.80000000002191,-27.01666666707209],[115.78333333324673,-27.01666666716533],[115.78333333348871,-27.033333333163554],[115.76666666720008,-27.033333333172642],[115.76666666720931,-27.04999999995112],[115.74999999990186,-27.05000000013985],[115.75000000043181,-27.06666666717289],[115.74999999995094,-27.08333333286351],[115.75000000010597,-27.100000000420835],[115.75000000016973,-27.116666666500567],[115.76666666748694,-27.11666666716179],[115.77034683712405,-27.11666666855194],[115.77632300413181,-27.112205003798945]]]},"properties":{"fmt_tenid":"E 09/2299","type":"EXPLORATION LICENCE","tenstatus":"LIVE","holder1":"CENTURY TWO PTY LTD","holder2":"MOUNT GIBSON MINING LIMITED","legal_area":24,"unit_of_me":"BL.","_colour":"#a0c4f0","_label":"Exploration Licence"}},{"type":"Feature","geometry":{"type":"Polygon","coordinates":[[[118.19999999340271,-24.99515886633501],[118.20000000013012,-24.983333333003788],[118.20000000027561,-24.966666667339528],[118.20000000018788,-24.949999999700555],[118.20000000009415,-24.93333333326431],[118.20000000013523,-24.916666667119472],[118.20000000011167,-24.899999999678304],[118.20000000012244,-24.883333332612075],[118.19999999962431,-24.86666666660523],[118.18333333300158,-24.866666666763795],[118.16666666743129,-24.866666667186795],[118.14999999959022,-24.86666666650781],[118.13333333335257,-24.866666667450396],[118.11666666695278,-24.866666667433925],[118.09999999967211,-24.86666666652173],[118.08333333330609,-24.866666666548056],[118.06666666717923,-24.86666666700369],[118.049999999891,-24.866666667017803],[118.03333333339671,-24.866666667252705],[118.01666666718764,-24.866666666596892],[117.99999999958666,-24.86666666734333],[117.9833333325388,-24.866666667109914],[117.96666666690973,-24.866666666557986],[117.95000000011966,-24.866666667189037],[117.95000000045287,-24.883333333377838],[117.95000000001306,-24.899999999548008],[117.95000000019849,-24.91666666687926],[117.94999999981702,-24.93333333318097],[117.94999999954965,-24.9500000003265],[117.94999999984984,-24.966666667000602],[117.9499999997449,-24.983333332626863],[117.96666666656081,-24.98333333279885],[117.9833333329392,-24.98333333257394],[117.99999999959911,-24.983333332695373],[118.01666666714883,-24.98333333281291],[118.0333333325789,-24.983333332967394],[118.05000000018404,-24.983333332965724],[118.06666666727193,-24.98333333254227],[118.08333333323087,-24.983333332961173],[118.10000000039409,-24.983333332798917],[118.10000000036402,-25.00000000037532],[118.11666666683942,-24.999999999747576],[118.13333333303028,-24.999999999999364],[118.15000000037104,-24.999999999689784],[118.16666666676042,-24.99999999990272],[118.18333333280744,-25.000000000394238],[118.19811843545952,-25.000000000298378],[118.19999999340271,-24.99515886633501]]]},"properties":{"fmt_tenid":"E 52/4406","type":"EXPLORATION LICENCE","tenstatus":"LIVE","holder1":"MOUNT GIBSON MINING LIMITED","holder2":" ","legal_area":111,"unit_of_me":"BL.","_colour":"#a0c4f0","_label":"Exploration Licence"}},{"type":"Feature","geometry":{"type":"Polygon","coordinates":[[[117.78333333338172,-24.583333333282344],[117.7666666670355,-24.583333332904626],[117.75000000028778,-24.583333333202113],[117.75000000024154,-24.566666667008512],[117.73333333327128,-24.566666667047656],[117.71666666686049,-24.56666666705928],[117.69999999999534,-24.56666666657504],[117.6833333327624,-24.56666666719695],[117.6666666666333,-24.5666666668834],[117.65000000049992,-24.56666666663027],[117.6499999997463,-24.583333333178807],[117.64999999959633,-24.599999999992693],[117.65000000013053,-24.616666666505196],[117.63333333252497,-24.61666666685573],[117.61666666740615,-24.6166666665125],[117.60000000002876,-24.61666666721882],[117.59999999997925,-24.60000000021456],[117.58333333331021,-24.59999999959765],[117.5666666666528,-24.600000000222632],[117.54999999978712,-24.600000000246496],[117.54999999989636,-24.616666666601482],[117.54999999986201,-24.63333333342643],[117.56666666726308,-24.633333333465934],[117.58333333333496,-24.633333333398543],[117.60000000041568,-24.633333333448064],[117.6166666665925,-24.633333332773706],[117.61666666695879,-24.649999999867607],[117.61666666708736,-24.666666666810624],[117.61666666724942,-24.683333332622016],[117.61848073567727,-24.683333333060897],[117.63333333268272,-24.683333333395797],[117.64999999983579,-24.68333333346245],[117.66666666741618,-24.683333332940588],[117.68333333263348,-24.68333333253157],[117.70000000007514,-24.683333333406253],[117.71666666676126,-24.683333332880775],[117.73333333318502,-24.68333333257845],[117.75000000024758,-24.68333333285178],[117.76666666700154,-24.683333332551612],[117.78333333298275,-24.68333333308241],[117.80000000027587,-24.683333332736257],[117.81666666685527,-24.683333333336424],[117.83333333319854,-24.683333333104013],[117.85000000015215,-24.683333332557666],[117.8500000004803,-24.66666666683504],[117.83333333286474,-24.666666666979413],[117.83333333309399,-24.64999999992367],[117.81666666723574,-24.65000000001305],[117.80000000016686,-24.649999999529282],[117.78333333270773,-24.65000000021772],[117.76666666676522,-24.649999999995618],[117.75000000000611,-24.649999999559274],[117.75000000026732,-24.633333332877],[117.73333333271127,-24.633333332830556],[117.71666666661264,-24.63333333304069],[117.71666666748706,-24.61666666746494],[117.69999999958351,-24.616666667298695],[117.68333333294983,-24.6166666670536],[117.66666666723046,-24.616666667163315],[117.6666666665933,-24.599999999796776],[117.68333333346719,-24.59999999966578],[117.6999999997519,-24.59999999955959],[117.71666666684942,-24.599999999682957],[117.73333333297712,-24.600000000297328],[117.75000000029775,-24.600000000482634],[117.76666666650078,-24.59999999968122],[117.78333333332348,-24.600000000387872],[117.78333333338172,-24.583333333282344]],[[117.64999999993668,-24.666666667125536],[117.65000000037615,-24.650000000357256],[117.66666666652715,-24.650000000168166],[117.66666666733224,-24.666666666662113],[117.64999999993668,-24.666666667125536]]]},"properties":{"fmt_tenid":"E 52/4419","type":"EXPLORATION LICENCE","tenstatus":"LIVE","holder1":"MOUNT GIBSON MINING LIMITED","holder2":" ","legal_area":62,"unit_of_me":"BL.","_colour":"#a0c4f0","_label":"Exploration Licence"}},{"type":"Feature","geometry":{"type":"Polygon","coordinates":[[[117.3333333332786,-25.08333333310898],[117.34999999959872,-25.08333333339112],[117.366666667332,-25.08333333313837],[117.38333333283107,-25.08333333327511],[117.39999999969866,-25.08333333257662],[117.41666666746187,-25.083333333463095],[117.43333333284794,-25.083333333185756],[117.44999999976011,-25.083333332611076],[117.45000000035449,-25.066666666533134],[117.44999999978306,-25.050000000159134],[117.44999999998116,-25.033333333334912],[117.44999999988633,-25.016666666636386],[117.45000000049538,-24.999999999748766],[117.43333333288109,-24.99999999966443],[117.41666666656563,-25.000000000300627],[117.39999999980586,-24.999999999816893],[117.38333333330787,-25.000000000251323],[117.3666666674191,-25.000000000101284],[117.3499999996935,-25.00000000006848],[117.33333333316784,-24.999999999824034],[117.31666666744991,-24.999999999907313],[117.31666666700883,-25.01666666679146],[117.31666666661172,-25.03333333272469],[117.31666666680692,-25.049999999912014],[117.31666666657011,-25.066666666528697],[117.31666666738714,-25.08333333335123],[117.3333333332786,-25.08333333310898]]]},"properties":{"fmt_tenid":"E 52/4455","type":"EXPLORATION LICENCE","tenstatus":"LIVE","holder1":"MOUNT GIBSON MINING LIMITED","holder2":" ","legal_area":40,"unit_of_me":"BL.","_colour":"#a0c4f0","_label":"Exploration Licence"}},{"type":"Feature","geometry":{"type":"MultiPolygon","coordinates":[[[[115.65000000030028,-28.050000000002083],[115.63333333262186,-28.05000000034657],[115.6333333329697,-28.066666667492278],[115.61666666749727,-28.06666666682638],[115.60000000038237,-28.066666666631196],[115.5833333333328,-28.066666666680817],[115.5666666667802,-28.066666666608754],[115.5666666666416,-28.083333333144715],[115.56666666704317,-28.100000000250095],[115.56666666666293,-28.116666666894815],[115.55000000034896,-28.116666666845337],[115.55000000014509,-28.10000000044658],[115.53333333337756,-28.10000000045741],[115.51666666662929,-28.09999999991139],[115.51666666746043,-28.116666666768324],[115.516666666753,-28.133333333363275],[115.49999999988555,-28.13333333287152],[115.48333333313536,-28.133333333401595],[115.48333333295068,-28.149999999829674],[115.48333333286699,-28.166666667457683],[115.48333333269201,-28.183333331738368],[115.49999999971315,-28.183333331550912],[115.5166666670455,-28.18333333209527],[115.51666666694487,-28.199999999513306],[115.53333333251199,-28.20000000026294],[115.5333333326357,-28.183333331913232],[115.54999999970832,-28.183333331611912],[115.56666666661218,-28.183333332189914],[115.5666666672437,-28.166666667150945],[115.56666666720183,-28.15000000043435],[115.58333333299205,-28.150000000010092],[115.59999999995357,-28.149999999665177],[115.61666666652533,-28.150000000428758],[115.63333333266243,-28.15000000035727],[115.64999999999652,-28.149999999777386],[115.6500000000599,-28.133333332892185],[115.63333333325163,-28.133333332786957],[115.63333333265763,-28.116666667346873],[115.6333333330054,-28.115043955731245],[115.60166802006525,-28.140291319970142],[115.58323723034013,-28.121994270011005],[115.58991146414041,-28.116666666778716],[115.58333333290108,-28.11666666739785],[115.583333333067,-28.10000000034216],[115.60000000048254,-28.099999999523057],[115.60000000003423,-28.083333332933698],[115.61666666729859,-28.083333332962802],[115.6166666676712,-28.095678074125157],[115.62448031195284,-28.08954956575617],[115.63333333271297,-28.098922721871517],[115.63333333340387,-28.083333333491414],[115.650000000147,-28.083333332805328],[115.6666666666797,-28.083333333349326],[115.6666666670684,-28.06666666675908],[115.64999999970979,-28.06666666726225],[115.65000000030028,-28.050000000002083]]],[[[115.59425381511,-28.118913994691106],[115.59054145199688,-28.121623211378367],[115.60381503778451,-28.13447700454254],[115.60967576516138,-28.129727693770622],[115.6080555003295,-28.128191800495237],[115.6035686488108,-28.129969282399262],[115.59425381511,-28.118913994691106]]],[[[115.6333333333516,-28.108019454820138],[115.63323082977618,-28.10810130013293],[115.63333333269033,-28.108189565267978],[115.6333333333516,-28.108019454820138]]]]},"properties":{"fmt_tenid":"E 70/3732-I","type":"EXPLORATION LICENCE","tenstatus":"LIVE","holder1":"MOUNT GIBSON MINING LIMITED","holder2":" ","legal_area":42,"unit_of_me":"BL.","_colour":"#a0c4f0","_label":"Exploration Licence"}},{"type":"Feature","geometry":{"type":"Polygon","coordinates":[[[115.58323723434012,-28.121994267010976],[115.60166801806525,-28.140291319970142],[115.63746644068935,-28.11174855323135],[115.63323083177615,-28.10810129913288],[115.6080555003295,-28.128191800495237],[115.60967576516138,-28.129727693770622],[115.60381503778451,-28.13447700454254],[115.59054145199688,-28.121623211378367],[115.59425381511,-28.118913994691106],[115.59042167125962,-28.116259401676704],[115.58323723434012,-28.121994267010976]]]},"properties":{"fmt_tenid":"M 70/1062-I","type":"MINING LEASE","tenstatus":"LIVE","holder1":"MOUNT GIBSON MINING LIMITED","holder2":" ","legal_area":395.85,"unit_of_me":"HA.","_colour":"#f5a520","_label":"Mining Lease"}},{"type":"Feature","geometry":{"type":"Polygon","coordinates":[[[115.62448031195284,-28.08954956575617],[115.60244448813013,-28.10683301922271],[115.59042167125962,-28.116259401676704],[115.59425381511,-28.118913994691106],[115.6035686488108,-28.129969282399262],[115.6080555003295,-28.128191800495237],[115.63323083177615,-28.10810129913288],[115.63823138367167,-28.104108535981368],[115.62448031195284,-28.08954956575617]]]},"properties":{"fmt_tenid":"M 70/896-I","type":"MINING LEASE","tenstatus":"LIVE","holder1":"MOUNT GIBSON MINING LIMITED","holder2":" ","legal_area":933.9,"unit_of_me":"HA.","_colour":"#f5a520","_label":"Mining Lease"}}]}