{"type":"FeatureCollection","_source":"WA DMIRS via SLIP public API","_holders":["YILGARN IRON PTY LTD","NGUNGAJU LITHIUM OPERATIONS PTY LTD"],"_ticker":"MIN.AX","features":[{"type":"Feature","geometry":{"type":"MultiPolygon","coordinates":[[[[120.18333333252308,-30.69999999961559],[120.18333333282942,-30.683333332595097],[120.1833333332759,-30.666666666556576],[120.16666666745228,-30.666666667438367],[120.16666666693787,-30.733333332272306],[120.16666666690311,-30.75000000044462],[120.18333333330465,-30.750000000460012],[120.1999999997952,-30.749999999905608],[120.20000000048823,-30.733333333152476],[120.20000000025193,-30.716666666633653],[120.18333333252203,-30.716666666575613],[120.18333333252308,-30.69999999961559]]],[[[120.09999999962228,-30.58333333279728],[120.10000000002367,-30.566666667449443],[120.08333333300678,-30.56666666701584],[120.06666666712728,-30.566666666656378],[120.06666666724188,-30.583333332518286],[120.08333333313784,-30.583333333272453],[120.08333333317435,-30.60000000033683],[120.08333333304279,-30.6166666672155],[120.0999999999984,-30.616666666925386],[120.10000000005473,-30.599999999709638],[120.09999999962228,-30.58333333279728]]]]},"properties":{"fmt_tenid":"E 16/478-I","type":"EXPLORATION LICENCE","tenstatus":"LIVE","holder1":"YILGARN IRON PTY LTD","holder2":" ","legal_area":11,"unit_of_me":"BL.","_colour":"#a0c4f0","_label":"Exploration Licence"}},{"type":"Feature","geometry":{"type":"MultiPolygon","coordinates":[[[[119.95000000045387,-28.783333333319614],[119.96666666717131,-28.7833333331757],[119.96666666656837,-28.76666666651575],[119.98333333284903,-28.76666666665284],[119.9999999997177,-28.766666667110677],[119.99999999954115,-28.750000000226652],[119.99999999966501,-28.733333333197077],[119.98333333300141,-28.73333333261173],[119.96807700254057,-28.733333413079727],[119.9681151203168,-28.748690110311664],[119.96666666702995,-28.748691430905787],[119.96666666699447,-28.74999999965758],[119.94999999964436,-28.74999999966861],[119.94999999979424,-28.76666666746966],[119.93333333325633,-28.766666666662513],[119.93333333330395,-28.783333332524684],[119.95000000045387,-28.783333333319614]]],[[[120.01666666655096,-28.816666667216996],[120.01666666654356,-28.800000000357876],[120.01666666657404,-28.78333333292401],[120.0083333344749,-28.7833333328034],[120.0083500034826,-28.833333590529094],[119.99999999998892,-28.833333332868914],[119.98333333334247,-28.83333333251446],[119.96666666748878,-28.833333332560684],[119.96666666710404,-28.85000000012311],[119.98333333341338,-28.84999999980872],[119.99999999965603,-28.850000000020334],[120.01666666720543,-28.850000000365373],[120.03333333337262,-28.849999999522012],[120.03333333304225,-28.833333332596535],[120.0166666669553,-28.833333332711966],[120.01666666655096,-28.816666667216996]]]]},"properties":{"fmt_tenid":"E 29/571-I","type":"EXPLORATION LICENCE","tenstatus":"LIVE","holder1":"YILGARN IRON PTY LTD","holder2":" ","legal_area":14,"unit_of_me":"BL.","_colour":"#a0c4f0","_label":"Exploration Licence"}},{"type":"Feature","geometry":{"type":"MultiPolygon","coordinates":[[[[119.04999999981692,-21.050000000427055],[119.05000000011958,-21.06666666706078],[119.0499999996702,-21.083333332780665],[119.03333333333502,-21.083333333053336],[119.03333333278556,-21.09999999972165],[119.03333333260355,-21.11666666654007],[119.0333333326516,-21.13333333339743],[119.05000000049375,-21.13333333326041],[119.06666666665744,-21.133333333269178],[119.0833333330535,-21.133333333453802],[119.0833333328626,-21.116666667365255],[119.08333333275097,-21.09999999995302],[119.10000000021392,-21.10000000048217],[119.11666666728789,-21.09999999990143],[119.13333333311941,-21.099999999981282],[119.13333333258431,-21.083333332595036],[119.11666666717774,-21.08333333265668],[119.09999999988467,-21.08333333331327],[119.08333333252129,-21.08333333270411],[119.08333333345286,-21.049999999633826],[119.0708783129799,-21.049999993351676],[119.06754291992007,-21.086461820464763],[119.05905839981355,-21.085777750334746],[119.06233226431641,-21.04999999540082],[119.04999999981692,-21.050000000427055]]],[[[118.91904697695846,-21.055309613105745],[118.91891831049588,-21.050000096178003],[118.91799935890664,-21.050000060092565],[118.91799962360409,-21.056356354875412],[118.91907177627205,-21.05633288592605],[118.91904697695846,-21.055309613105745]]],[[[118.9358308059322,-21.04687031245007],[118.93294750260779,-21.05862980480358],[118.93050225674847,-21.068601218906895],[118.9272756629076,-21.081756780931542],[118.92736189340911,-21.097409703269125],[118.92511187866437,-21.097355357453782],[118.9155803568244,-21.097124798891098],[118.91562644531636,-21.095394867263153],[118.90768869221577,-21.095631194175674],[118.90609583070349,-21.09865239162531],[118.90538533486175,-21.099999998240737],[118.91666666733391,-21.0999999999206],[118.93333333277913,-21.099999999719778],[118.94999999967752,-21.100000000490688],[118.95000000035603,-21.083333333359562],[118.95000000024115,-21.066666667176158],[118.94999999955812,-21.050000000098404],[118.95000000043561,-21.033333332808663],[118.93583850005565,-21.033333333031518],[118.93538460913575,-21.034025017727163],[118.9358308059322,-21.04687031245007]],[[118.93090277818068,-21.093291666713533],[118.92818888947768,-21.08997499966081],[118.93008333262549,-21.088541667199795],[118.93252777773269,-21.09207499960413],[118.93090277818068,-21.093291666713533]]]]},"properties":{"fmt_tenid":"E 45/2363-I","type":"EXPLORATION LICENCE","tenstatus":"LIVE","holder1":"NGUNGAJU LITHIUM OPERATIONS PTY LTD","holder2":" ","legal_area":24,"unit_of_me":"BL.","_colour":"#a0c4f0","_label":"Exploration Licence"}},{"type":"Feature","geometry":{"type":"Polygon","coordinates":[[[118.93333333337071,-21.016666666717956],[118.93333333340145,-21.03333333293058],[118.95000000043561,-21.033333332808663],[118.95000000004156,-21.016666667172807],[118.93333333337071,-21.016666666717956]]]},"properties":{"fmt_tenid":"E 45/3488","type":"EXPLORATION LICENCE","tenstatus":"LIVE","holder1":"NGUNGAJU LITHIUM OPERATIONS PTY LTD","holder2":" ","legal_area":1,"unit_of_me":"BL.","_colour":"#a0c4f0","_label":"Exploration Licence"}},{"type":"Feature","geometry":{"type":"Polygon","coordinates":[[[119.1333333370692,-21.06666666616887],[119.11666666473869,-21.06666666568881],[119.11666666475162,-21.049999995211305],[119.09999999446659,-21.049999995065377],[119.09999999378529,-21.033333340375584],[119.08333333859345,-21.03333333964448],[119.08333333920068,-21.016666668092803],[119.06666666755588,-21.016666667586502],[119.04999999612376,-21.0166666678801],[119.04999999645294,-21.03333333997412],[119.0666666679029,-21.033333340348406],[119.066666666548,-21.04917881147196],[119.07092206425912,-21.049521617753122],[119.0708783129799,-21.049999993351676],[119.08333333945286,-21.049999993633822],[119.08333333872523,-21.066666666314454],[119.08333333851633,-21.08332842171414],[119.11666666617778,-21.08333333665669],[119.13333333658427,-21.083333336595043],[119.14999999164813,-21.083333336615866],[119.16666666338804,-21.083333337010515],[119.16666666283692,-21.099999993024667],[119.1833333350956,-21.099999992615565],[119.18333333464712,-21.083333336798407],[119.2000000055428,-21.083333336807893],[119.21666666139251,-21.08333333695458],[119.2333333322644,-21.08333333669366],[119.23333333189095,-21.066666666385327],[119.25000000354852,-21.066666666453905],[119.25000000444068,-21.0499999946167],[119.257235123442,-21.04999999997367],[119.25596120034389,-21.048741856383185],[119.26666666708151,-21.0392947558353],[119.26666665945336,-21.033333340034744],[119.25000000407138,-21.03333334017688],[119.233333332402,-21.03333333975239],[119.233333331826,-21.04999999490753],[119.21666666110053,-21.04999999520731],[119.20000000642118,-21.04999999513426],[119.1833333353474,-21.04999999471983],[119.16666666282786,-21.049999994555424],[119.14999999195548,-21.049999995234867],[119.14999999179472,-21.066666665971812],[119.1333333370692,-21.06666666616887]]]},"properties":{"fmt_tenid":"E 45/4894","type":"EXPLORATION LICENCE","tenstatus":"LIVE","holder1":"NGUNGAJU LITHIUM OPERATIONS PTY LTD","holder2":" ","legal_area":24,"unit_of_me":"BL.","_colour":"#a0c4f0","_label":"Exploration Licence"}},{"type":"Feature","geometry":{"type":"Polygon","coordinates":[[[119.09999999986135,-20.816666667404387],[119.11666666712868,-20.816666666750187],[119.13333333312261,-20.816666667145526],[119.13333333310882,-20.80000000043568],[119.13333333300857,-20.78333333324377],[119.14999999997627,-20.78333333283961],[119.16666666715828,-20.78333333305737],[119.1666666673784,-20.766666667443964],[119.16666666699011,-20.7499999995961],[119.1666666670392,-20.7333333334851],[119.1500000003483,-20.733333333065282],[119.13333333255993,-20.733333333429446],[119.11666666700582,-20.73333333340113],[119.10000000022013,-20.733333332741417],[119.09999999995404,-20.750000000131237],[119.1000000002172,-20.766666666952087],[119.10000000014055,-20.783333333151237],[119.08333333330495,-20.78333333327052],[119.08333333326561,-20.80000000039843],[119.08333333290601,-20.81666666688147],[119.09999999986135,-20.816666667404387]]]},"properties":{"fmt_tenid":"E 45/5280","type":"EXPLORATION LICENCE","tenstatus":"LIVE","holder1":"NGUNGAJU LITHIUM OPERATIONS PTY LTD","holder2":" ","legal_area":18,"unit_of_me":"BL.","_colour":"#a0c4f0","_label":"Exploration Licence"}},{"type":"Feature","geometry":{"type":"Polygon","coordinates":[[[119.0499999996702,-21.083333332780665],[119.05000000011958,-21.06666666706078],[119.03333333258816,-21.066666666853962],[119.03333333333502,-21.083333333053336],[119.0499999996702,-21.083333332780665]]]},"properties":{"fmt_tenid":"E 45/5347","type":"EXPLORATION LICENCE","tenstatus":"LIVE","holder1":"NGUNGAJU LITHIUM OPERATIONS PTY LTD","holder2":" ","legal_area":1,"unit_of_me":"BL.","_colour":"#a0c4f0","_label":"Exploration Licence"}},{"type":"Feature","geometry":{"type":"Polygon","coordinates":[[[119.0666666679029,-21.033333340348406],[119.04999999645294,-21.03333333997412],[119.04999999581696,-21.049999995427036],[119.06233227931637,-21.049999995400814],[119.06243858195332,-21.04883815191181],[119.06438444603091,-21.048994964821247],[119.06666666454788,-21.049178843471882],[119.0666666679029,-21.033333340348406]]]},"properties":{"fmt_tenid":"E 45/5348","type":"EXPLORATION LICENCE","tenstatus":"LIVE","holder1":"NGUNGAJU LITHIUM OPERATIONS PTY LTD","holder2":" ","legal_area":1,"unit_of_me":"BL.","_colour":"#a0c4f0","_label":"Exploration Licence"}},{"type":"Feature","geometry":{"type":"Polygon","coordinates":[[[118.84999999989749,-20.69999999951195],[118.86666666689382,-20.700000000047478],[118.88333333282365,-20.699999999538083],[118.88333333267214,-20.683333333415945],[118.88333333286391,-20.666666666511013],[118.88333333319125,-20.650000000195636],[118.90000000047375,-20.64999999961524],[118.89999999998489,-20.633333333420197],[118.88333333296016,-20.6333333329626],[118.86666666688194,-20.633333333496775],[118.85000000012698,-20.633333333188823],[118.83333333341618,-20.633333332838376],[118.83333333338324,-20.64999999958811],[118.83333333258074,-20.666666667384412],[118.8333333332035,-20.683333332597876],[118.83333333250177,-20.699999999806707],[118.84999999989749,-20.69999999951195]]]},"properties":{"fmt_tenid":"E 45/5416","type":"EXPLORATION LICENCE","tenstatus":"LIVE","holder1":"NGUNGAJU LITHIUM OPERATIONS PTY LTD","holder2":" ","legal_area":13,"unit_of_me":"BL.","_colour":"#a0c4f0","_label":"Exploration Licence"}},{"type":"Feature","geometry":{"type":"Polygon","coordinates":[[[119.05000000012373,-21.016666666880123],[119.04999999998597,-21.00000000014481],[119.05000000025666,-20.983333333053913],[119.04999999982786,-20.96666666667718],[119.06666666662652,-20.966666667303986],[119.06666666732502,-20.95000000016453],[119.08333333301557,-20.949999999776225],[119.08333333265334,-20.93333333250874],[119.08333333261864,-20.916666667021367],[119.08333333289342,-20.89999999995135],[119.10000000031988,-20.90000000027734],[119.10000000007197,-20.883333333251183],[119.09999999979995,-20.866666667172563],[119.09999999973685,-20.850000000292354],[119.1000000002893,-20.83333333345652],[119.08333333255142,-20.83333333267862],[119.06666666720106,-20.833333333100132],[119.04999999967548,-20.83333333306508],[119.03333333300962,-20.833333332665344],[119.03333333274105,-20.85000000004193],[119.01666666693279,-20.84999999984023],[119.01666666743189,-20.866666667218453],[119.01666666733551,-20.88333333305917],[118.99999999970403,-20.883333333284842],[118.99999999954383,-20.89999999980392],[118.99999999984573,-20.916666667259975],[118.9999999997738,-20.93333333312472],[119.000000000135,-20.950000000360134],[118.98333333284512,-20.949999999605254],[118.98333333255613,-20.966666666956183],[118.98333333301632,-20.9833333331406],[118.98333333319773,-21.000000000154497],[118.9833333325092,-21.016666666741475],[118.9999999998996,-21.01666666745553],[119.00000000041813,-21.033333333114992],[119.00000000011094,-21.04999999985879],[119.00000000011745,-21.06666666727667],[119.01666666724266,-21.066666667315268],[119.03333333258816,-21.066666666853962],[119.05000000011958,-21.06666666706078],[119.04999999981692,-21.050000000427055],[119.05000000045307,-21.033333332974124],[119.05000000012373,-21.016666666880123]]]},"properties":{"fmt_tenid":"E 45/5608","type":"EXPLORATION LICENCE","tenstatus":"LIVE","holder1":"NGUNGAJU LITHIUM OPERATIONS PTY LTD","holder2":" ","legal_area":61,"unit_of_me":"BL.","_colour":"#a0c4f0","_label":"Exploration Licence"}},{"type":"Feature","geometry":{"type":"Polygon","coordinates":[[[119.03333333300962,-20.833333332665344],[119.01666666743225,-20.833333332509184],[118.9999999997237,-20.833333333489794],[118.98333333336367,-20.83333333253515],[118.98333333293594,-20.849999999799245],[118.96666666706443,-20.850000000259094],[118.94999999977044,-20.849999999746682],[118.95000000044452,-20.866666666844225],[118.9499999998259,-20.883333332679335],[118.96666666681936,-20.883333332827167],[118.98333333313353,-20.883333332773358],[118.98333333268575,-20.899999999928156],[118.98333333346181,-20.91666666698775],[118.96666666703473,-20.916666666928528],[118.94999999957653,-20.916666667264337],[118.94999999968202,-20.933333333003453],[118.93333333250422,-20.933333333403755],[118.91666666690462,-20.933333333485624],[118.916666667315,-20.949999999732572],[118.93333333319474,-20.950000000458857],[118.95000000033595,-20.950000000467437],[118.94999999960363,-20.96666666686658],[118.96666666667143,-20.96666666722386],[118.96666666703618,-20.98333333329129],[118.96666666674574,-20.999999999953697],[118.94999999958974,-20.999999999712376],[118.95000000004156,-21.016666667172807],[118.95000000043561,-21.033333332808663],[118.94999999955812,-21.050000000098404],[118.95000000024115,-21.066666667176158],[118.95000000035603,-21.083333333359562],[118.94999999703059,-21.098652135205025],[118.95133380813277,-21.09865206410221],[118.95133382478859,-21.100000000410464],[118.96666666713875,-21.09999999981542],[118.98333333285879,-21.100000000464966],[118.98333333284764,-21.116666666907417],[119.00000000042563,-21.116666666607234],[119.00000000025666,-21.133333332680575],[119.01666666742757,-21.133333332618793],[119.0333333326516,-21.13333333339743],[119.03333333260355,-21.11666666654007],[119.03333333278556,-21.09999999972165],[119.03333333333502,-21.083333333053336],[119.03333333258816,-21.066666666853962],[119.01666666724266,-21.066666667315268],[119.00000000011745,-21.06666666727667],[119.00000000011094,-21.04999999985879],[119.00000000041813,-21.033333333114992],[118.9999999998996,-21.01666666745553],[118.9833333325092,-21.016666666741475],[118.98333333319773,-21.000000000154497],[118.98333333301632,-20.9833333331406],[118.98333333255613,-20.966666666956183],[118.98333333284512,-20.949999999605254],[119.000000000135,-20.950000000360134],[118.9999999997738,-20.93333333312472],[118.99999999984573,-20.916666667259975],[118.99999999954383,-20.89999999980392],[118.99999999970403,-20.883333333284842],[119.01666666733551,-20.88333333305917],[119.01666666743189,-20.866666667218453],[119.01666666693279,-20.84999999984023],[119.03333333274105,-20.85000000004193],[119.03333333300962,-20.833333332665344]],[[118.95864722015779,-21.03805834085011],[118.96365555038804,-21.037016666240465],[118.96374721880954,-21.03887500629909],[118.95897778002507,-21.039644437530097],[118.95864722015779,-21.03805834085011]]]},"properties":{"fmt_tenid":"E 45/5609","type":"EXPLORATION LICENCE","tenstatus":"LIVE","holder1":"NGUNGAJU LITHIUM OPERATIONS PTY LTD","holder2":" ","legal_area":51,"unit_of_me":"BL.","_colour":"#a0c4f0","_label":"Exploration Licence"}},{"type":"Feature","geometry":{"type":"Polygon","coordinates":[[[118.59999999999661,-21.266666666588677],[118.61666666708753,-21.266666667344445],[118.61666666694974,-21.250000000257586],[118.61666666712632,-21.233333332771302],[118.61666666692305,-21.21666666735174],[118.61666666693155,-21.200000000343938],[118.59999999981281,-21.200000000203776],[118.59999999992776,-21.216666666758147],[118.58333333314494,-21.216666667309294],[118.58333333253752,-21.233333333169778],[118.58333333288802,-21.24999999962714],[118.56666666707322,-21.2499999998551],[118.55000000020779,-21.250000000113342],[118.55000000043563,-21.266666666954894],[118.55000000011741,-21.28333333330295],[118.55000000031443,-21.300000000295434],[118.54999999988972,-21.316666666956213],[118.5666666669162,-21.316666666542115],[118.58333333297077,-21.316666666820744],[118.60000000000102,-21.31666666737484],[118.5999999999515,-21.33333333284173],[118.61666666719042,-21.333333332833448],[118.63333333298029,-21.33333333281741],[118.6499999997588,-21.333333333475633],[118.65000000046693,-21.316666667187153],[118.64999999996371,-21.300000000425857],[118.65000000013974,-21.283333333414756],[118.66666666665422,-21.283333332981588],[118.66666666731359,-21.266666667435164],[118.66666666664682,-21.249999999505512],[118.64999999971268,-21.24999999969926],[118.63333333259584,-21.250000000053124],[118.63333333318941,-21.26666666658342],[118.63333333284884,-21.28333333271124],[118.61666666653448,-21.283333333102767],[118.59999999959047,-21.283333332835998],[118.59999999999661,-21.266666666588677]]]},"properties":{"fmt_tenid":"E 45/5700","type":"EXPLORATION LICENCE","tenstatus":"LIVE","holder1":"NGUNGAJU LITHIUM OPERATIONS PTY LTD","holder2":" ","legal_area":31,"unit_of_me":"BL.","_colour":"#a0c4f0","_label":"Exploration Licence"}},{"type":"Feature","geometry":{"type":"Polygon","coordinates":[[[119.19784657215357,-30.265394242537663],[119.19784649628346,-30.258458102812323],[119.19999999885344,-30.259742854925417],[119.21160808027665,-30.26666666734307],[119.21666666744224,-30.26666666749408],[119.21666666704579,-30.250000000480963],[119.2166666667534,-30.233333332951496],[119.201442304099,-30.233333333436715],[119.20144186457198,-30.24872689488189],[119.20000000037595,-30.248726774004826],[119.20000000028575,-30.24948571421652],[119.200008419231,-30.250005055360692],[119.19255136006203,-30.249999999843613],[119.18333333347138,-30.250000000035026],[119.18333333341471,-30.241834191621184],[119.18332606611109,-30.233337910924565],[119.17358017065378,-30.233335630613876],[119.167357345056,-30.23333333333112],[119.16666666665667,-30.23333333318886],[119.16666666690142,-30.249999999505743],[119.16666666659367,-30.266666667285527],[119.16810956775659,-30.26666666732881],[119.16813468677688,-30.26666666932955],[119.16813682997409,-30.26536566997204],[119.18477611043849,-30.26543306019217],[119.1847761194445,-30.265394395182124],[119.19784657215357,-30.265394242537663]],[[119.20892689984194,-30.262053779621144],[119.21345433959277,-30.261970449931294],[119.21355545024494,-30.264515159511614],[119.20898348046562,-30.264577930218152],[119.20892689984194,-30.262053779621144]]]},"properties":{"fmt_tenid":"E 77/2448","type":"EXPLORATION LICENCE","tenstatus":"LIVE","holder1":"YILGARN IRON PTY LTD","holder2":" ","legal_area":5,"unit_of_me":"BL.","_colour":"#a0c4f0","_label":"Exploration Licence"}},{"type":"Feature","geometry":{"type":"Polygon","coordinates":[[[119.53333333264794,-31.649999999503507],[119.53333333271881,-31.666666667036854],[119.5333333333725,-31.683333332620926],[119.53333333266612,-31.69999999961285],[119.54999999969418,-31.699999999604586],[119.55000000562883,-31.68333333442246],[119.56055736009507,-31.683333334109438],[119.56074606252749,-31.68206899438066],[119.56176311004856,-31.675253508898574],[119.56416607893912,-31.65915052164112],[119.56541385041818,-31.65928933037594],[119.56563344782624,-31.65840731750113],[119.5591989092095,-31.657084062976864],[119.54737246487443,-31.65758923498091],[119.54776522457908,-31.650000000369634],[119.53333333264794,-31.649999999503507]]]},"properties":{"fmt_tenid":"E 77/2601","type":"EXPLORATION LICENCE","tenstatus":"LIVE","holder1":"YILGARN IRON PTY LTD","holder2":" ","legal_area":5,"unit_of_me":"BL.","_colour":"#a0c4f0","_label":"Exploration Licence"}},{"type":"Feature","geometry":{"type":"Polygon","coordinates":[[[119.88333333252365,-30.333333333215837],[119.88333333330057,-30.316666666735753],[119.8666666674615,-30.31666666659565],[119.84999999968902,-30.316666666638188],[119.83333333399236,-30.31666666728998],[119.81666666711328,-30.316666667247212],[119.81666666696619,-30.30000000024601],[119.81666666710254,-30.28333333328064],[119.79999999991163,-30.283333332826373],[119.80000000132911,-30.30000000018911],[119.79999999999781,-30.316666667487215],[119.7999999999124,-30.33333333255626],[119.81666666747863,-30.333333333042518],[119.81666666667485,-30.350000000011452],[119.81666666727484,-30.366666666652446],[119.83333333723581,-30.36666667180293],[119.83333333777544,-30.356607022973726],[119.83477483004414,-30.35658257059433],[119.83477495930755,-30.36538719829938],[119.85144161402236,-30.36538703801708],[119.85144163039884,-30.366666667296055],[119.85149269249158,-30.366666667234743],[119.85149838893908,-30.36537400909903],[119.83477640530361,-30.365385817303423],[119.83477600326017,-30.353642923994354],[119.84174555439004,-30.348910660603266],[119.86498605574417,-30.362664096422765],[119.8650207800934,-30.366666666632682],[119.86666666658097,-30.366666667269026],[119.8666666672407,-30.383333333250732],[119.88333333266006,-30.383333332820854],[119.88333333270522,-30.366666667348465],[119.8833333327928,-30.35000000008015],[119.88333333252365,-30.333333333215837]]]},"properties":{"fmt_tenid":"E 77/2662","type":"EXPLORATION LICENCE","tenstatus":"LIVE","holder1":"YILGARN IRON PTY LTD","holder2":" ","legal_area":16,"unit_of_me":"BL.","_colour":"#a0c4f0","_label":"Exploration Licence"}},{"type":"Feature","geometry":{"type":"Polygon","coordinates":[[[119.86666666699767,-30.3000000001358],[119.86666666674336,-30.283333333253932],[119.84999999961032,-30.283333333192456],[119.8333333329659,-30.283333332533196],[119.81666666710254,-30.28333333328064],[119.81666666696619,-30.30000000024601],[119.81666666711328,-30.316666667247212],[119.83333333399236,-30.31666666728998],[119.84999999968902,-30.316666666638188],[119.8666666674615,-30.31666666659565],[119.86666666699767,-30.3000000001358]]]},"properties":{"fmt_tenid":"E 77/2974","type":"EXPLORATION LICENCE","tenstatus":"LIVE","holder1":"YILGARN IRON PTY LTD","holder2":" ","legal_area":6,"unit_of_me":"BL.","_colour":"#a0c4f0","_label":"Exploration Licence"}},{"type":"Feature","geometry":{"type":"Polygon","coordinates":[[[119.90196881745831,-30.36666666847577],[119.8999999997365,-30.366666666536094],[119.89999999624038,-30.364411570095324],[119.89554964972575,-30.359314119853074],[119.90000000016408,-30.357352426972643],[119.89999999973772,-30.349999999571835],[119.8833333327928,-30.35000000008015],[119.88333333270522,-30.366666667348465],[119.88333333266006,-30.383333332820854],[119.9000000004514,-30.383333333204128],[119.9000000008035,-30.39265908185895],[119.90184427418782,-30.395485958275014],[119.90000000003607,-30.39638820266289],[119.90000000026133,-30.400000000441505],[119.91666666661772,-30.400000000248216],[119.91666666667733,-30.416666666832747],[119.93333333277175,-30.41666666690945],[119.93333333447704,-30.433333332860855],[119.93333333329355,-30.449999999868783],[119.94999999964473,-30.449999999770142],[119.96666666746135,-30.44999999989018],[119.96666666691037,-30.466666667392733],[119.98333333286112,-30.46666666651935],[119.9833333330261,-30.483333333193926],[119.98333333281275,-30.50000000020657],[120.00000000031056,-30.499999999915904],[120.01666666696917,-30.499999999825118],[120.01666666696164,-30.51174444401732],[120.01927499954479,-30.51174444354629],[120.01927500040357,-30.51535277770459],[120.01666666436002,-30.515352778833723],[120.01666666732044,-30.516666667408117],[120.03333333258308,-30.51666666705524],[120.03333333311909,-30.533333332507816],[120.04999999972596,-30.533333333280105],[120.06666666706944,-30.53333333314409],[120.06666666668785,-30.516666667026374],[120.06666666731839,-30.50000000016644],[120.05000000043147,-30.49999999988387],[120.05000000002863,-30.483333332889014],[120.0500000002942,-30.46666666713135],[120.03333333302777,-30.466666667272303],[120.03333333250687,-30.449999999860527],[120.0333333325366,-30.433333333064468],[120.01666666730843,-30.433333332883496],[120.00000000031308,-30.43333333276668],[120.00000000031085,-30.416666666591038],[119.9833333332712,-30.416666666719443],[119.98333333269115,-30.400000000100032],[119.96666666731066,-30.399999999640436],[119.9666666674641,-30.38333333272562],[119.94999999963105,-30.38333333331242],[119.9333333331077,-30.38333333295515],[119.93333333328015,-30.370208647571488],[119.91409904975343,-30.380560699761578],[119.90196881745831,-30.36666666847577]],[[119.9858635197265,-30.460834618230706],[119.97735966911746,-30.449988676126523],[119.96158490945909,-30.429869871770272],[119.98037690142878,-30.41901908062252],[119.99306930482386,-30.43334537848831],[120.00483500729472,-30.446585395563858],[120.01666225233218,-30.459889641685997],[120.01665544556006,-30.466737403729507],[119.99940005424197,-30.478092608268888],[119.9858635197265,-30.460834618230706]]]},"properties":{"fmt_tenid":"E 77/2983","type":"EXPLORATION LICENCE","tenstatus":"LIVE","holder1":"YILGARN IRON PTY LTD","holder2":" ","legal_area":39,"unit_of_me":"BL.","_colour":"#a0c4f0","_label":"Exploration Licence"}},{"type":"Feature","geometry":{"type":"Polygon","coordinates":[[[119.43333333328131,-29.633333332623746],[119.45000000036171,-29.633333333257433],[119.46666666651011,-29.633333332844654],[119.48333333266449,-29.633333332692608],[119.48333333346825,-29.616666667399375],[119.48333333327625,-29.599999999973388],[119.4666666669955,-29.59999999995347],[119.46666666735003,-29.616666667105875],[119.45000000032589,-29.61666666653621],[119.43333333337098,-29.61666666721781],[119.41666666669406,-29.616666666842562],[119.41666666667759,-29.633333332971386],[119.43333333328131,-29.633333332623746]]]},"properties":{"fmt_tenid":"E 77/3179","type":"EXPLORATION LICENCE","tenstatus":"LIVE","holder1":"YILGARN IRON PTY LTD","holder2":" ","legal_area":5,"unit_of_me":"BL.","_colour":"#a0c4f0","_label":"Exploration Licence"}},{"type":"Feature","geometry":{"type":"Polygon","coordinates":[[[119.39999999962866,-29.633333332657667],[119.38333333309292,-29.633333332671967],[119.36666666703829,-29.633333333006938],[119.36666666652968,-29.64999999988354],[119.38333333317735,-29.649999999719565],[119.38333333290711,-29.666666666774475],[119.36666666670433,-29.666666666995436],[119.36666666735607,-29.683333332570726],[119.38333333290632,-29.68333333251024],[119.39999999995229,-29.683333332841347],[119.41666666650292,-29.683333332615664],[119.41666666676672,-29.66666666655886],[119.41666666691937,-29.649999999529474],[119.40000000030052,-29.649999999925562],[119.39999999962866,-29.633333332657667]]]},"properties":{"fmt_tenid":"E 77/3180","type":"EXPLORATION LICENCE","tenstatus":"LIVE","holder1":"YILGARN IRON PTY LTD","holder2":" ","legal_area":7,"unit_of_me":"BL.","_colour":"#a0c4f0","_label":"Exploration Licence"}},{"type":"Feature","geometry":{"type":"Polygon","coordinates":[[[119.96666666656837,-28.76666666651575],[119.96666666717131,-28.7833333331757],[119.96666666678712,-28.799999999541047],[119.96666666746397,-28.816666667250626],[119.96666666748878,-28.833333332560684],[119.98333333334247,-28.83333333251446],[119.99999999998892,-28.833333332868914],[120.0083500034826,-28.833333590529094],[120.0083333344749,-28.7833333328034],[119.99999999992974,-28.78333333276541],[119.9999999997177,-28.766666667110677],[119.98333333284903,-28.76666666665284],[119.96666666656837,-28.76666666651575]]]},"properties":{"fmt_tenid":"M 29/432","type":"MINING LEASE","tenstatus":"LIVE","holder1":"YILGARN IRON PTY LTD","holder2":" ","legal_area":2859.4225300000003,"unit_of_me":"HA.","_colour":"#f5a520","_label":"Mining Lease"}},{"type":"Feature","geometry":{"type":"Polygon","coordinates":[[[119.26462614672329,-29.998675679338955],[119.26455450537253,-30.02292747692301],[119.30183489590198,-30.022829406763478],[119.30170303959402,-30.014827739046616],[119.3014818939809,-29.99844555443825],[119.26462614672329,-29.998675679338955]]]},"properties":{"fmt_tenid":"M 77/1000-I","type":"MINING LEASE","tenstatus":"LIVE","holder1":"YILGARN IRON PTY LTD","holder2":" ","legal_area":964,"unit_of_me":"HA.","_colour":"#f5a520","_label":"Mining Lease"}},{"type":"Feature","geometry":{"type":"Polygon","coordinates":[[[119.22628352964537,-29.998900109606975],[119.22624253037262,-30.02292250396358],[119.23480148949822,-30.022918147344622],[119.26455450537253,-30.02292747692301],[119.26462614672329,-29.998675679338955],[119.22628352964537,-29.998900109606975]]]},"properties":{"fmt_tenid":"M 77/1001-I","type":"MINING LEASE","tenstatus":"LIVE","holder1":"YILGARN IRON PTY LTD","holder2":" ","legal_area":989.35,"unit_of_me":"HA.","_colour":"#f5a520","_label":"Mining Lease"}},{"type":"Feature","geometry":{"type":"Polygon","coordinates":[[[119.30200314649848,-30.03658701094174],[119.30183489590198,-30.022829406763478],[119.26455450537253,-30.02292747692301],[119.23480148949822,-30.022918147344622],[119.2347743163793,-30.036563620774523],[119.30200314649848,-30.03658701094174]]]},"properties":{"fmt_tenid":"M 77/1038-I","type":"MINING LEASE","tenstatus":"LIVE","holder1":"YILGARN IRON PTY LTD","holder2":" ","legal_area":982.05,"unit_of_me":"HA.","_colour":"#f5a520","_label":"Mining Lease"}},{"type":"Feature","geometry":{"type":"Polygon","coordinates":[[[119.3434412505295,-30.03657973251446],[119.34343844318175,-30.014960255426452],[119.30170303959402,-30.014827739046616],[119.30183489590198,-30.022829406763478],[119.30200314649848,-30.03658701094174],[119.3434412505295,-30.03657973251446]]]},"properties":{"fmt_tenid":"M 77/1039-I","type":"MINING LEASE","tenstatus":"LIVE","holder1":"YILGARN IRON PTY LTD","holder2":" ","legal_area":964.35,"unit_of_me":"HA.","_colour":"#f5a520","_label":"Mining Lease"}},{"type":"Feature","geometry":{"type":"Polygon","coordinates":[[[119.3434412505295,-30.03657973251446],[119.35142482429663,-30.036573303003276],[119.35143902265962,-30.032062523269094],[119.3681084949326,-30.032045623620615],[119.36810234504082,-30.01538851977537],[119.34343844318175,-30.014960255426452],[119.3434412505295,-30.03657973251446]]]},"properties":{"fmt_tenid":"M 77/1040-I","type":"MINING LEASE","tenstatus":"LIVE","holder1":"YILGARN IRON PTY LTD","holder2":" ","legal_area":483.9,"unit_of_me":"HA.","_colour":"#f5a520","_label":"Mining Lease"}},{"type":"Feature","geometry":{"type":"Polygon","coordinates":[[[119.2514427533153,-30.282078364912465],[119.26809134108858,-30.282077355090806],[119.26814687915072,-30.265390869381623],[119.25144238804084,-30.265393708963106],[119.2514427533153,-30.282078364912465]]]},"properties":{"fmt_tenid":"M 77/1109-I","type":"MINING LEASE","tenstatus":"LIVE","holder1":"YILGARN IRON PTY LTD","holder2":" ","legal_area":296.85,"unit_of_me":"HA.","_colour":"#f5a520","_label":"Mining Lease"}},{"type":"Feature","geometry":{"type":"Polygon","coordinates":[[[119.20892689784195,-30.262053775621133],[119.20898347746554,-30.26457793121814],[119.21355545324487,-30.264515157511635],[119.21345433759278,-30.26197045293132],[119.20892689784195,-30.262053775621133]]]},"properties":{"fmt_tenid":"M 77/1248-I","type":"MINING LEASE","tenstatus":"LIVE","holder1":"YILGARN IRON PTY LTD","holder2":" ","legal_area":12.31,"unit_of_me":"HA.","_colour":"#f5a520","_label":"Mining Lease"}},{"type":"Feature","geometry":{"type":"Polygon","coordinates":[[[119.14320225259591,-30.216669272862617],[119.15000833951702,-30.216652634815116],[119.15000763062669,-30.233326925884498],[119.17358017065378,-30.233335630613876],[119.18332606611109,-30.233337910924565],[119.18334030747785,-30.249993756033017],[119.200008419231,-30.250005055360692],[119.19998769836575,-30.248726843005905],[119.18478813981689,-30.24872549962994],[119.1847757794013,-30.232060778508355],[119.15144265150049,-30.23206117100841],[119.15147560574493,-30.215411821644523],[119.14828278096702,-30.21541376325852],[119.1483311979986,-30.21514292019666],[119.14788358857707,-30.214349277931706],[119.14320225259591,-30.216669272862617]]]},"properties":{"fmt_tenid":"M 77/1249-I","type":"MINING LEASE","tenstatus":"LIVE","holder1":"YILGARN IRON PTY LTD","holder2":" ","legal_area":128.5,"unit_of_me":"HA.","_colour":"#f5a520","_label":"Mining Lease"}},{"type":"Feature","geometry":{"type":"Polygon","coordinates":[[[119.25139215036992,-29.848706373430385],[119.25136796399019,-29.849946453218287],[119.2832962815978,-29.850025112039464],[119.28337063484645,-29.84872635485273],[119.25139215036992,-29.848706373430385]]]},"properties":{"fmt_tenid":"M 77/1257-I","type":"MINING LEASE","tenstatus":"LIVE","holder1":"YILGARN IRON PTY LTD","holder2":" ","legal_area":43.46,"unit_of_me":"HA.","_colour":"#f5a520","_label":"Mining Lease"}},{"type":"Feature","geometry":{"type":"Polygon","coordinates":[[[119.25139215036992,-29.848706373430385],[119.28337063484645,-29.84872635485273],[119.28475077861285,-29.84869135743853],[119.28474507684687,-29.834577024627283],[119.28041341851795,-29.834658698893314],[119.25108558027893,-29.835207935181582],[119.25139215036992,-29.848706373430385]]]},"properties":{"fmt_tenid":"M 77/1258-I","type":"MINING LEASE","tenstatus":"LIVE","holder1":"YILGARN IRON PTY LTD","holder2":" ","legal_area":496.35,"unit_of_me":"HA.","_colour":"#f5a520","_label":"Mining Lease"}},{"type":"Feature","geometry":{"type":"Polygon","coordinates":[[[119.25136191271906,-29.866803379586546],[119.27754894680396,-29.866355520971965],[119.29114152959713,-29.86612096658001],[119.2906680835635,-29.84407636491223],[119.29046232690743,-29.834488965769715],[119.28474507684687,-29.834577024627283],[119.28475077861285,-29.84869135743853],[119.28337063484645,-29.84872635485273],[119.2832962815978,-29.850025112039464],[119.25136796399019,-29.849946453218287],[119.25136191271906,-29.866803379586546]]]},"properties":{"fmt_tenid":"M 77/1259-I","type":"MINING LEASE","tenstatus":"LIVE","holder1":"YILGARN IRON PTY LTD","holder2":" ","legal_area":798.4,"unit_of_me":"HA.","_colour":"#f5a520","_label":"Mining Lease"}},{"type":"Feature","geometry":{"type":"Polygon","coordinates":[[[119.57172718421855,-30.84114453777789],[119.57633139538964,-30.84716992129943],[119.62305211346877,-30.878096377711277],[119.61281389941554,-30.889612511128156],[119.62392641936933,-30.896718289984367],[119.63309905650028,-30.885289681556454],[119.63321571017465,-30.871955375105486],[119.62293403496416,-30.865162056816956],[119.60816689374172,-30.85540194252608],[119.60412775701973,-30.859973308899036],[119.596568495055,-30.85510257451034],[119.57491326201965,-30.84114405765959],[119.57172718421855,-30.84114453777789]]]},"properties":{"fmt_tenid":"M 77/1278-I","type":"MINING LEASE","tenstatus":"LIVE","holder1":"YILGARN IRON PTY LTD","holder2":" ","legal_area":757.3,"unit_of_me":"HA.","_colour":"#f5a520","_label":"Mining Lease"}},{"type":"Feature","geometry":{"type":"Polygon","coordinates":[[[119.51542962581645,-30.80501803006092],[119.5393548142676,-30.798753855820884],[119.52498704963241,-30.77992500879975],[119.49970149531104,-30.787060800554826],[119.51185536077652,-30.800937992936216],[119.51542962581645,-30.80501803006092]]]},"properties":{"fmt_tenid":"M 77/606-I","type":"MINING LEASE","tenstatus":"LIVE","holder1":"YILGARN IRON PTY LTD","holder2":" ","legal_area":587.35,"unit_of_me":"HA.","_colour":"#f5a520","_label":"Mining Lease"}},{"type":"Feature","geometry":{"type":"Polygon","coordinates":[[[119.57633139538964,-30.84716992129943],[119.54211891252174,-30.82122061560861],[119.53578491174162,-30.816413838192343],[119.53478114954056,-30.815652025230335],[119.52247514827306,-30.826135503507945],[119.52555401269436,-30.83276095018898],[119.55367638143181,-30.85500800202819],[119.55820360500314,-30.8534421125103],[119.57633139538964,-30.84716992129943]]]},"properties":{"fmt_tenid":"M 77/607-I","type":"MINING LEASE","tenstatus":"LIVE","holder1":"YILGARN IRON PTY LTD","holder2":" ","legal_area":975.8,"unit_of_me":"HA.","_colour":"#f5a520","_label":"Mining Lease"}},{"type":"Feature","geometry":{"type":"Polygon","coordinates":[[[119.53614067275416,-30.810046561268727],[119.53578491174162,-30.816413838192343],[119.54211891252174,-30.82122061560861],[119.5473340741555,-30.82150677298966],[119.54812946357633,-30.81070470709456],[119.53614067275416,-30.810046561268727]]]},"properties":{"fmt_tenid":"M 77/611-I","type":"MINING LEASE","tenstatus":"LIVE","holder1":"YILGARN IRON PTY LTD","holder2":" ","legal_area":121.25,"unit_of_me":"HA.","_colour":"#f5a520","_label":"Mining Lease"}},{"type":"Feature","geometry":{"type":"Polygon","coordinates":[[[119.54043783176058,-31.620273128000804],[119.5423889873148,-31.63359221605827],[119.54865214704135,-31.63286216735889],[119.54737246487443,-31.65758923498091],[119.5591989092095,-31.657084062976864],[119.5620705462073,-31.63204686351425],[119.56335701101938,-31.620826147952616],[119.56012165651602,-31.621113696932127],[119.556663055768,-31.629502288183623],[119.5471653442377,-31.626936847862286],[119.54968261321794,-31.620354597331964],[119.54043783176058,-31.620273128000804]]]},"properties":{"fmt_tenid":"M 77/741-I","type":"MINING LEASE","tenstatus":"LIVE","holder1":"YILGARN IRON PTY LTD","holder2":" ","legal_area":516.7,"unit_of_me":"HA.","_colour":"#f5a520","_label":"Mining Lease"}},{"type":"Feature","geometry":{"type":"Polygon","coordinates":[[[119.55373516033904,-31.599239088224813],[119.55366862773708,-31.609930026069446],[119.56344254925044,-31.613057731363263],[119.56012165651602,-31.621113696932127],[119.56335701101938,-31.620826147952616],[119.56382838734267,-31.61671429160435],[119.56586993760965,-31.601809924278665],[119.55373516033904,-31.599239088224813]]]},"properties":{"fmt_tenid":"M 77/742-I","type":"MINING LEASE","tenstatus":"LIVE","holder1":"YILGARN IRON PTY LTD","holder2":" ","legal_area":152.1,"unit_of_me":"HA.","_colour":"#f5a520","_label":"Mining Lease"}},{"type":"Feature","geometry":{"type":"Polygon","coordinates":[[[119.5471653442377,-31.626936847862286],[119.556663055768,-31.629502288183623],[119.56012165651602,-31.621113696932127],[119.56344254925044,-31.613057731363263],[119.55366862773708,-31.609930026069446],[119.54968261321794,-31.620354597331964],[119.5471653442377,-31.626936847862286]]]},"properties":{"fmt_tenid":"M 77/764-I","type":"MINING LEASE","tenstatus":"LIVE","holder1":"YILGARN IRON PTY LTD","holder2":" ","legal_area":189.45,"unit_of_me":"HA.","_colour":"#f5a520","_label":"Mining Lease"}},{"type":"Feature","geometry":{"type":"Polygon","coordinates":[[[119.54785273376396,-30.852913393502245],[119.55367638143181,-30.85500800202819],[119.52555401269436,-30.83276095018898],[119.5323243038351,-30.847326502898873],[119.54785273376396,-30.852913393502245]]]},"properties":{"fmt_tenid":"M 77/988-I","type":"MINING LEASE","tenstatus":"LIVE","holder1":"YILGARN IRON PTY LTD","holder2":" ","legal_area":137.3,"unit_of_me":"HA.","_colour":"#f5a520","_label":"Mining Lease"}},{"type":"Feature","geometry":{"type":"Polygon","coordinates":[[[119.59041695342839,-30.874784292349535],[119.61281389941554,-30.889612511128156],[119.62305211346877,-30.878096377711277],[119.57633139538964,-30.84716992129943],[119.55820360500314,-30.8534421125103],[119.59041695342839,-30.874784292349535]]]},"properties":{"fmt_tenid":"M 77/989-I","type":"MINING LEASE","tenstatus":"LIVE","holder1":"YILGARN IRON PTY LTD","holder2":" ","legal_area":982.7,"unit_of_me":"HA.","_colour":"#f5a520","_label":"Mining Lease"}},{"type":"Feature","geometry":{"type":"Polygon","coordinates":[[[119.5393548142676,-30.798753855820884],[119.51542962581645,-30.80501803006092],[119.51607511198918,-30.805754799762813],[119.51950925548181,-30.80967435427565],[119.51982112349936,-30.81003035855216],[119.52125329670898,-30.81166517957748],[119.52144059683242,-30.813883720743817],[119.52216970038897,-30.82251869033113],[119.52232231606087,-30.824325791583146],[119.52247514827306,-30.826135503507945],[119.53478114954056,-30.815652025230335],[119.53578491174162,-30.816413838192343],[119.53614067275416,-30.810046561268727],[119.54812946357633,-30.81070470709456],[119.5473340741555,-30.82150677298966],[119.54211891252174,-30.82122061560861],[119.57633139538964,-30.84716992129943],[119.57172718421855,-30.84114453777789],[119.56552624527986,-30.83302811208422],[119.5393548142676,-30.798753855820884]]]},"properties":{"fmt_tenid":"M 77/990-I","type":"MINING LEASE","tenstatus":"LIVE","holder1":"YILGARN IRON PTY LTD","holder2":" ","legal_area":663.8,"unit_of_me":"HA.","_colour":"#f5a520","_label":"Mining Lease"}},{"type":"Feature","geometry":{"type":"Polygon","coordinates":[[[119.1681090415342,-30.21539417950839],[119.16810876881166,-30.182060574770208],[119.13477564591999,-30.18206097429393],[119.13472836388488,-30.173221364893855],[119.12803755889105,-30.181841772846646],[119.13673670643001,-30.199205037286912],[119.13775491126962,-30.198661975295327],[119.1681090415342,-30.21539417950839]]]},"properties":{"fmt_tenid":"M 77/993-I","type":"MINING LEASE","tenstatus":"LIVE","holder1":"YILGARN IRON PTY LTD","holder2":" ","legal_area":938.8,"unit_of_me":"HA.","_colour":"#f5a520","_label":"Mining Lease"}},{"type":"Feature","geometry":{"type":"Polygon","coordinates":[[[119.15144265150049,-30.23206117100841],[119.1847757794013,-30.232060778508355],[119.18477560965978,-30.21539397941469],[119.1681090415342,-30.21539417950839],[119.13775491126962,-30.198661975295327],[119.14378772150663,-30.207085995456758],[119.14788358857707,-30.214349277931706],[119.1483311979986,-30.21514292019666],[119.14828278096702,-30.21541376325852],[119.15147560574493,-30.215411821644523],[119.15144265150049,-30.23206117100841]]]},"properties":{"fmt_tenid":"M 77/994-I","type":"MINING LEASE","tenstatus":"LIVE","holder1":"YILGARN IRON PTY LTD","holder2":" ","legal_area":762.4,"unit_of_me":"HA.","_colour":"#f5a520","_label":"Mining Lease"}},{"type":"Feature","geometry":{"type":"Polygon","coordinates":[[[119.20144186457198,-30.24872689488189],[119.20144234019196,-30.232060590050395],[119.1847757794013,-30.232060778508355],[119.18478813981689,-30.24872549962994],[119.20144186457198,-30.24872689488189]]]},"properties":{"fmt_tenid":"M 77/995-I","type":"MINING LEASE","tenstatus":"LIVE","holder1":"YILGARN IRON PTY LTD","holder2":" ","legal_area":296.2,"unit_of_me":"HA.","_colour":"#f5a520","_label":"Mining Lease"}},{"type":"Feature","geometry":{"type":"Polygon","coordinates":[[[119.2514430510586,-30.290412153110122],[119.2514427533153,-30.282078364912465],[119.25144238804084,-30.265393708963106],[119.22861673114659,-30.27680865725643],[119.2514430510586,-30.290412153110122]]]},"properties":{"fmt_tenid":"M 77/996-I","type":"MINING LEASE","tenstatus":"LIVE","holder1":"YILGARN IRON PTY LTD","holder2":" ","legal_area":304.6,"unit_of_me":"HA.","_colour":"#f5a520","_label":"Mining Lease"}},{"type":"Feature","geometry":{"type":"Polygon","coordinates":[[[119.21810938794026,-30.270543942125578],[119.22861673114659,-30.27680865725643],[119.25144238804084,-30.265393708963106],[119.25144219377027,-30.248726812467574],[119.21810907539786,-30.248727201930087],[119.21810938794026,-30.270543942125578]]]},"properties":{"fmt_tenid":"M 77/997-I","type":"MINING LEASE","tenstatus":"LIVE","holder1":"YILGARN IRON PTY LTD","holder2":" ","legal_area":824.75,"unit_of_me":"HA.","_colour":"#f5a520","_label":"Mining Lease"}},{"type":"Feature","geometry":{"type":"Polygon","coordinates":[[[119.25144219377027,-30.248726812467574],[119.25144238804084,-30.265393708963106],[119.26814687915072,-30.265390869381623],[119.28477234245027,-30.265386064471045],[119.28477534141255,-30.24872642836941],[119.26810873693779,-30.248726610329665],[119.26810856556617,-30.232059798967352],[119.25144201647743,-30.23206000553433],[119.25144219377027,-30.248726812467574]]]},"properties":{"fmt_tenid":"M 77/998-I","type":"MINING LEASE","tenstatus":"LIVE","holder1":"YILGARN IRON PTY LTD","holder2":" ","legal_area":888.85,"unit_of_me":"HA.","_colour":"#f5a520","_label":"Mining Lease"}},{"type":"Feature","geometry":{"type":"Polygon","coordinates":[[[119.3014818939809,-29.99844555443825],[119.30170303959402,-30.014827739046616],[119.34343844318175,-30.014960255426452],[119.3431964806258,-29.998154109271177],[119.3014818939809,-29.99844555443825]]]},"properties":{"fmt_tenid":"M 77/999-I","type":"MINING LEASE","tenstatus":"LIVE","holder1":"YILGARN IRON PTY LTD","holder2":" ","legal_area":740.65,"unit_of_me":"HA.","_colour":"#f5a520","_label":"Mining Lease"}}]}