{"type":"FeatureCollection","_source":"Multi-state Australian tenement registry","_holders":["TRIBUNE RESOURCES LIMITED"],"_ticker":"OBM.AX","features":[{"type":"Feature","geometry":{"type":"Polygon","coordinates":[[[121.40429219703789,-30.8833333345317],[121.41666666700051,-30.883333332651972],[121.42229241787535,-30.883333348947023],[121.42227721816312,-30.873840087937882],[121.40429719502143,-30.87388360360344],[121.40429219703789,-30.8833333345317]]]},"properties":{"fmt_tenid":"E 15/1664","type":"EXPLORATION LICENCE","tenstatus":"LIVE","holder1":"RAND MINING LIMITED","holder2":"TRIBUNE RESOURCES LIMITED","legal_area":2,"unit_of_me":"BL.","_colour":"#a0c4f0","_label":"Exploration Licence"}},{"type":"Feature","geometry":{"type":"Polygon","coordinates":[[[121.36811545576602,-30.889099995754155],[121.37261355365435,-30.898701183113715],[121.40145619024003,-30.898699659117295],[121.40144926859574,-30.88430013153692],[121.38614296287238,-30.884298379656823],[121.36811493028443,-30.88429399875796],[121.3681151023588,-30.88512912574401],[121.36811545576602,-30.889099995754155]]]},"properties":{"fmt_tenid":"M 15/1233","type":"MINING LEASE","tenstatus":"LIVE","holder1":"RAND EXPLORATION NL","holder2":"TRIBUNE RESOURCES LIMITED","legal_area":588.8223,"unit_of_me":"HA.","_colour":"#f5a520","_label":"Mining Lease"}},{"type":"Feature","geometry":{"type":"Polygon","coordinates":[[[121.33535394563822,-30.848704641078736],[121.33811221223266,-30.85561586039762],[121.34558252694093,-30.87432846233611],[121.34803457691798,-30.87432786416724],[121.36269527530732,-30.87432654880842],[121.36630345545426,-30.882035857563384],[121.36807585326594,-30.88203549895204],[121.3680768420784,-30.873933033784258],[121.36811453728278,-30.865370246154814],[121.35144743094338,-30.865369900423698],[121.3514467107402,-30.848704572026854],[121.33535394563822,-30.848704641078736]]]},"properties":{"fmt_tenid":"M 15/1234","type":"MINING LEASE","tenstatus":"LIVE","holder1":"RAND EXPLORATION NL","holder2":"TRIBUNE RESOURCES LIMITED","legal_area":486.0829,"unit_of_me":"HA.","_colour":"#f5a520","_label":"Mining Lease"}},{"type":"Feature","geometry":{"type":"Polygon","coordinates":[[[121.31811311089142,-30.765371613613407],[121.3181131300841,-30.76666668220927],[121.31811322224304,-30.774456400793404],[121.32082333438274,-30.780248754996503],[121.31904675717226,-30.781507745248888],[121.31040844395471,-30.787765825956683],[121.31304855978816,-30.794387328864893],[121.3131728029089,-30.794699190697532],[121.32254606374984,-30.816512375854643],[121.32991941227753,-30.81648875429969],[121.329917118615,-30.80624939344962],[121.33477901677287,-30.806249762860187],[121.33477958571333,-30.7653712764675],[121.31811311089142,-30.765371613613407]]]},"properties":{"fmt_tenid":"M 15/1291","type":"MINING LEASE","tenstatus":"LIVE","holder1":"RAND EXPLORATION NL","holder2":"TRIBUNE RESOURCES LIMITED","legal_area":913,"unit_of_me":"HA.","_colour":"#f5a520","_label":"Mining Lease"}},{"type":"Feature","geometry":{"type":"Polygon","coordinates":[[[121.37261355365435,-30.898701183113715],[121.37596881712999,-30.905862990977646],[121.38044023905081,-30.915404625128417],[121.38478150085523,-30.924666140529258],[121.38654303355516,-30.928423801940866],[121.38781407577116,-30.927944913123355],[121.40145067960509,-30.922455964828288],[121.40145610116929,-30.916666751509922],[121.40145619024003,-30.898699659117295],[121.37261355365435,-30.898701183113715]]]},"properties":{"fmt_tenid":"M 15/1388","type":"MINING LEASE","tenstatus":"LIVE","holder1":"RAND EXPLORATION NL","holder2":"TRIBUNE RESOURCES LIMITED","legal_area":595,"unit_of_me":"HA.","_colour":"#f5a520","_label":"Mining Lease"}},{"type":"Feature","geometry":{"type":"Polygon","coordinates":[[[121.33535394563822,-30.848704641078736],[121.3514467107402,-30.848704572026854],[121.35144743094338,-30.865369900423698],[121.36811453728278,-30.865370246154814],[121.36811368053435,-30.84870446678174],[121.36811340977027,-30.83203799790083],[121.35144634045052,-30.83203816421646],[121.33477929221586,-30.832038578983934],[121.33477942157695,-30.83987032125601],[121.3347797625229,-30.847266089442005],[121.33535394563822,-30.848704641078736]]]},"properties":{"fmt_tenid":"M 15/1394","type":"MINING LEASE","tenstatus":"LIVE","holder1":"RAND EXPLORATION NL","holder2":"TRIBUNE RESOURCES LIMITED","legal_area":883.1,"unit_of_me":"HA.","_colour":"#f5a520","_label":"Mining Lease"}},{"type":"Feature","geometry":{"type":"Polygon","coordinates":[[[121.33306208056159,-30.753991412954665],[121.33306204341335,-30.76108777097564],[121.3181130251499,-30.76108840922696],[121.31811311089142,-30.765371613613407],[121.33477958571333,-30.7653712764675],[121.33477901677287,-30.806249762860187],[121.329917118615,-30.80624939344962],[121.3299191600395,-30.81537128694663],[121.33477920540251,-30.815371700341203],[121.35144613939407,-30.815371950816825],[121.35144618202042,-30.805142781880402],[121.33507854024256,-30.76410279174594],[121.34205986353157,-30.764102627561897],[121.33587915396083,-30.757755607123595],[121.33636931618236,-30.757396308589232],[121.33306208056159,-30.753991412954665]]]},"properties":{"fmt_tenid":"M 15/1409","type":"MINING LEASE","tenstatus":"LIVE","holder1":"RAND EXPLORATION NL","holder2":"TRIBUNE RESOURCES LIMITED","legal_area":715,"unit_of_me":"HA.","_colour":"#f5a520","_label":"Mining Lease"}},{"type":"Feature","geometry":{"type":"Polygon","coordinates":[[[121.37682202460435,-30.832038059632183],[121.37682211327625,-30.835961320925293],[121.38147316410439,-30.836254290735475],[121.38118699341258,-30.849786033356736],[121.37682242933555,-30.849650960644436],[121.3768227475383,-30.865370529593868],[121.38478096480289,-30.865370789963997],[121.38478060342662,-30.848704451451358],[121.38478025087248,-30.832660305306653],[121.38430547449927,-30.83203811304477],[121.37682202460435,-30.832038059632183]]]},"properties":{"fmt_tenid":"M 15/1743","type":"MINING LEASE","tenstatus":"LIVE","holder1":"RAND EXPLORATION NL","holder2":"TRIBUNE RESOURCES LIMITED","legal_area":216,"unit_of_me":"HA.","_colour":"#f5a520","_label":"Mining Lease"}},{"type":"Feature","geometry":{"type":"Polygon","coordinates":[[[121.18185888226722,-30.689836608570914],[121.17200779018948,-30.689541744126462],[121.17361189351365,-30.691754453489104],[121.17858904026471,-30.6986192140954],[121.18267563901021,-30.70425480657148],[121.18452893052228,-30.706810363201864],[121.19436611679791,-30.720372856435386],[121.20494367951629,-30.73495080435716],[121.21324221968743,-30.729695540178465],[121.20247320741812,-30.715264181819855],[121.19187916592526,-30.703857994307594],[121.20076496947654,-30.700264750899805],[121.1946156082902,-30.691567676680346],[121.19313617170467,-30.689464567910804],[121.19057145509443,-30.68954921119587],[121.18185888226722,-30.689836608570914]]]},"properties":{"fmt_tenid":"M 16/213","type":"MINING LEASE","tenstatus":"LIVE","holder1":"GILT-EDGED MINING PTY LIMITED","holder2":"TRIBUNE RESOURCES LIMITED","legal_area":641.6,"unit_of_me":"HA.","_colour":"#f5a520","_label":"Mining Lease"}},{"type":"Feature","geometry":{"type":"Polygon","coordinates":[[[121.22570529910728,-30.685353505073365],[121.22569267544245,-30.68054029236833],[121.2236054762438,-30.680544186263962],[121.222780190002,-30.680545716222746],[121.22570529910728,-30.685353505073365]]]},"properties":{"fmt_tenid":"M 16/214","type":"MINING LEASE","tenstatus":"LIVE","holder1":"GILT-EDGED MINING PTY LIMITED","holder2":"TRIBUNE RESOURCES LIMITED","legal_area":7.4455,"unit_of_me":"HA.","_colour":"#f5a520","_label":"Mining Lease"}},{"type":"Feature","geometry":{"type":"Polygon","coordinates":[[[121.21324221968743,-30.729695540178465],[121.21640427905227,-30.7415728672853],[121.22657961504228,-30.73647622794833],[121.21858250480516,-30.724656246583134],[121.21324221968743,-30.729695540178465]]]},"properties":{"fmt_tenid":"M 16/218","type":"MINING LEASE","tenstatus":"LIVE","holder1":"GILT-EDGED MINING PTY LIMITED","holder2":"TRIBUNE RESOURCES LIMITED","legal_area":127.6,"unit_of_me":"HA.","_colour":"#f5a520","_label":"Mining Lease"}},{"type":"Feature","geometry":{"type":"Polygon","coordinates":[[[121.19059227272139,-30.680601319057327],[121.190590496383,-30.682969177323503],[121.19058744511048,-30.68703762265357],[121.19057145509443,-30.68954921119587],[121.19313617170467,-30.689464567910804],[121.20067367730726,-30.689620031987694],[121.20080106575433,-30.695290247457713],[121.21333071331577,-30.695082279398655],[121.21282676593309,-30.69431740765374],[121.2072531132987,-30.68573307289855],[121.20399290765535,-30.680579116383733],[121.20064478217577,-30.680584783549964],[121.19519992988914,-30.680593837324725],[121.19059227272139,-30.680601319057327]]]},"properties":{"fmt_tenid":"M 16/310","type":"MINING LEASE","tenstatus":"LIVE","holder1":"GILT-EDGED MINING PTY LIMITED","holder2":"TRIBUNE RESOURCES LIMITED","legal_area":219.15,"unit_of_me":"HA.","_colour":"#f5a520","_label":"Mining Lease"}}]}