{"type":"FeatureCollection","_source":"WA DMIRS via SLIP public API","_holders":["PILGANGOORA OPERATIONS PTY LTD","PILBARA MINERALS LIMITED"],"_ticker":"PLS.AX","features":[{"type":"Feature","geometry":{"type":"MultiPolygon","coordinates":[[[[118.88466701959467,-21.098652481424615],[118.88466719657546,-21.11531925925727],[118.88466726869609,-21.13198601898124],[118.90133385093199,-21.131985985608072],[118.9180005647518,-21.1319858245949],[118.92999533576753,-21.13198574183669],[118.90262733904804,-21.11954882288909],[118.89614759057615,-21.109041925850164],[118.89589879930911,-21.090547729053885],[118.90063922679265,-21.081985632005917],[118.88466684828279,-21.08198569151098],[118.88466701959467,-21.098652481424615]]],[[[118.90327774711618,-21.10399748495335],[118.90727081148384,-21.106331452681793],[118.91220227518855,-21.1092136938061],[118.91298906952032,-21.10967352104696],[118.91527917398457,-21.10622323111246],[118.9196807608179,-21.108795502459632],[118.92181726966152,-21.11004399011286],[118.93812979031021,-21.1196330599486],[118.94797103046643,-21.125416600176024],[118.943954481837,-21.13198564080002],[118.95133398879672,-21.13198558389283],[118.9513340907035,-21.115318821281647],[118.95133380013273,-21.098652061102186],[118.9346671248747,-21.098652190791004],[118.9180003877166,-21.098652305354953],[118.90609583070349,-21.09865239162531],[118.90327774711618,-21.10399748495335]]]]},"properties":{"fmt_tenid":"E 45/2241-I","type":"EXPLORATION LICENCE","tenstatus":"LIVE","holder1":"PILGANGOORA OPERATIONS PTY LTD","holder2":" ","legal_area":9,"unit_of_me":"BL.","_colour":"#a0c4f0","_label":"Exploration Licence"}},{"type":"Feature","geometry":{"type":"MultiPolygon","coordinates":[[[[118.88333333279738,-20.98333333279615],[118.88333333326453,-20.99999999985623],[118.91666666838955,-20.999999999479975],[118.91666666694573,-20.983333333317628],[118.90000000000067,-20.98333333274955],[118.88333333279738,-20.98333333279615]]],[[[118.84999999983795,-21.01666666682175],[118.85000000044208,-21.033333333237017],[118.86666666693174,-21.033333333034516],[118.86666666731307,-21.01666666654583],[118.84999999983795,-21.01666666682175]]],[[[118.88333333297149,-21.050000000379512],[118.8846663183266,-21.050000060210607],[118.88466630502408,-21.048652142078044],[118.90000000012566,-21.04865207207551],[118.89999999999525,-21.033333334473532],[118.88333333337401,-21.03333333281928],[118.88333333297149,-21.050000000379512]]],[[[118.86666666663696,-21.050000000035826],[118.86666666927225,-21.065313489826337],[118.8833333334361,-21.065318922826425],[118.88333333297149,-21.050000000379512],[118.86666666663696,-21.050000000035826]]]]},"properties":{"fmt_tenid":"E 45/2287","type":"EXPLORATION LICENCE","tenstatus":"LIVE","holder1":"PILGANGOORA OPERATIONS PTY LTD","holder2":" ","legal_area":5,"unit_of_me":"BL.","_colour":"#a0c4f0","_label":"Exploration Licence"}},{"type":"Feature","geometry":{"type":"Polygon","coordinates":[[[118.93333333284345,-20.983333332740028],[118.93333333298791,-20.995777041515513],[118.93991787981408,-20.99574952426352],[118.93988298969187,-20.99866316580976],[118.93509581609592,-21.00476838525647],[118.93333333272233,-21.004829531402603],[118.93333333337071,-21.016666666717956],[118.95000000004156,-21.016666667172807],[118.94999999958974,-20.999999999712376],[118.95000000024531,-20.983333332502635],[118.93333333284345,-20.983333332740028]]]},"properties":{"fmt_tenid":"E 45/3648","type":"EXPLORATION LICENCE","tenstatus":"LIVE","holder1":"PILGANGOORA OPERATIONS PTY LTD","holder2":" ","legal_area":2,"unit_of_me":"BL.","_colour":"#a0c4f0","_label":"Exploration Licence"}},{"type":"Feature","geometry":{"type":"Polygon","coordinates":[[[118.58333333318801,-21.383333332620193],[118.58333333275698,-21.36666666667145],[118.59999999976752,-21.366666667312124],[118.6000000000083,-21.35000000002264],[118.5999999999515,-21.33333333284173],[118.60000000000102,-21.31666666737484],[118.58333333297077,-21.316666666820744],[118.5666666669162,-21.316666666542115],[118.56666666661827,-21.333333332892142],[118.55000000026766,-21.333333333281477],[118.55000000009173,-21.35000000019279],[118.53333333322567,-21.350000000391887],[118.53333333325673,-21.366666667487028],[118.51666666740704,-21.366666667152554],[118.51666666691423,-21.38333333316022],[118.53333333251061,-21.383333333118525],[118.55000000015919,-21.3833333327705],[118.56666666714602,-21.383333332600124],[118.58333333318801,-21.383333332620193]]]},"properties":{"fmt_tenid":"E 45/4270-I","type":"EXPLORATION LICENCE","tenstatus":"LIVE","holder1":"ATLAS IRON PTY LTD","holder2":"PILBARA MINERALS LIMITED","legal_area":13,"unit_of_me":"BL.","_colour":"#a0c4f0","_label":"Exploration Licence"}},{"type":"Feature","geometry":{"type":"Polygon","coordinates":[[[118.93333333340145,-21.03333333293058],[118.93333333337071,-21.016666666717956],[118.93333333272233,-21.004829531402603],[118.93330735571685,-21.00483043239004],[118.93332792118261,-21.006539077143454],[118.92436020784355,-21.006537297567025],[118.9243605336089,-21.022408581288783],[118.92436071372252,-21.0330769706022],[118.92436094491299,-21.046531324798504],[118.92603702066359,-21.042167753704312],[118.92797206185585,-21.04226295838436],[118.9294093048659,-21.04219469711026],[118.92812426604765,-21.04664263453552],[118.93333333234936,-21.046796528505993],[118.93333333340145,-21.03333333293058]]]},"properties":{"fmt_tenid":"E 45/4523","type":"EXPLORATION LICENCE","tenstatus":"LIVE","holder1":"PILGANGOORA OPERATIONS PTY LTD","holder2":" ","legal_area":3,"unit_of_me":"BL.","_colour":"#a0c4f0","_label":"Exploration Licence"}},{"type":"Feature","geometry":{"type":"Polygon","coordinates":[[[118.96666666674574,-20.999999999953697],[118.96666666703618,-20.98333333329129],[118.96666666667143,-20.96666666722386],[118.94999999960363,-20.96666666686658],[118.95000000024531,-20.983333332502635],[118.94999999958974,-20.999999999712376],[118.96666666674574,-20.999999999953697]]]},"properties":{"fmt_tenid":"E 45/4624","type":"EXPLORATION LICENCE","tenstatus":"LIVE","holder1":"PILGANGOORA OPERATIONS PTY LTD","holder2":" ","legal_area":2,"unit_of_me":"BL.","_colour":"#a0c4f0","_label":"Exploration Licence"}},{"type":"Feature","geometry":{"type":"Polygon","coordinates":[[[118.90000000000067,-20.98333333274955],[118.9000000001829,-20.966666667230367],[118.90000000031384,-20.949999999916177],[118.90000000037055,-20.93333333281955],[118.91666666690462,-20.933333333485624],[118.91666666742124,-20.91666666672188],[118.93333333292446,-20.916666667452837],[118.93333333277808,-20.900000000144114],[118.91666666744358,-20.900000000261336],[118.9000000000329,-20.899999999728923],[118.88333333310632,-20.89999999965929],[118.88333333307492,-20.91666666676852],[118.88333333288081,-20.933333332723716],[118.88333333290225,-20.94999999972819],[118.88333333269544,-20.96666666664774],[118.88333333279738,-20.98333333279615],[118.90000000000067,-20.98333333274955]]]},"properties":{"fmt_tenid":"E 45/4633","type":"EXPLORATION LICENCE","tenstatus":"LIVE","holder1":"PILGANGOORA OPERATIONS PTY LTD","holder2":" ","legal_area":8,"unit_of_me":"BL.","_colour":"#a0c4f0","_label":"Exploration Licence"}},{"type":"Feature","geometry":{"type":"MultiPolygon","coordinates":[[[[118.81666666674495,-21.0666666670816],[118.81666666703467,-21.049999999994938],[118.8166666665644,-21.03333333275081],[118.81666666720965,-21.01666666747944],[118.81666666727979,-21.000000000447983],[118.80000000043233,-20.999999999805915],[118.78333333311096,-21.000000000115215],[118.76666666690805,-21.00000000040283],[118.75000000027043,-20.99999999981178],[118.73333333259535,-20.999999999606796],[118.7333333330936,-21.016666667439107],[118.73333333336957,-21.033333332947088],[118.72875258540235,-21.033333332674975],[118.7324401896366,-21.043223229615972],[118.73311729961479,-21.04477674008139],[118.7339294397652,-21.046380570093735],[118.73495363998185,-21.04812302002548],[118.73586847977315,-21.049487160010965],[118.73681776982588,-21.050754730037212],[118.73776639013929,-21.051900000101313],[118.73893833959336,-21.053176900226923],[118.74021174032256,-21.054417980413422],[118.75520971019817,-21.067578949520975],[118.75477925005231,-21.068196119991306],[118.7396681696471,-21.05493586971975],[118.73836579992755,-21.05366654953072],[118.73716715049862,-21.052360540408454],[118.73619512022057,-21.051187040351806],[118.73522380021686,-21.04989002033816],[118.73428657049125,-21.04849251037073],[118.73324029036752,-21.04671245046725],[118.73240889030468,-21.045070599594816],[118.73171611043465,-21.043481110319952],[118.72793239781,-21.03333333260678],[118.71666666667463,-21.033333332670086],[118.71666666718986,-21.050000000431364],[118.716666666963,-21.06008383097168],[118.71738920530295,-21.063281619684894],[118.71666666680215,-21.06287331073965],[118.7166666671438,-21.066666667424055],[118.71666666734332,-21.068544113267837],[118.71718127137581,-21.068807542213218],[118.71849046584954,-21.07459950558179],[118.71666666728333,-21.074617934762525],[118.7166666669685,-21.082121652364968],[118.7175488457422,-21.0817260313268],[118.72395003765477,-21.08735504441091],[118.72343281614046,-21.088323331552544],[118.72271998116507,-21.0896577167235],[118.72216583956853,-21.090018527716854],[118.72186921014047,-21.089614614619748],[118.72185984516759,-21.08963565962216],[118.72161168308014,-21.09019328663321],[118.72127773318213,-21.090449624567306],[118.7208102645654,-21.091473306406492],[118.72106037030734,-21.091730850409824],[118.72080603713984,-21.091919970360028],[118.72231374684641,-21.093685638359027],[118.72330129150139,-21.09524652731804],[118.72743190610727,-21.091465772195633],[118.73250547673916,-21.098464691009845],[118.73086386444115,-21.100000003934586],[118.73158090937547,-21.100000002341616],[118.7379101224978,-21.09386382562827],[118.73916209146134,-21.092066085247943],[118.73680795966766,-21.09051616787161],[118.73748856784775,-21.089806530602328],[118.7397069786856,-21.091273485625432],[118.74089941086193,-21.08950451893478],[118.73986011400105,-21.088995200312755],[118.7400673072385,-21.088782206066707],[118.7410468580827,-21.08930622484018],[118.74187340236759,-21.088271779358273],[118.74104475443502,-21.087844650996566],[118.7412670967235,-21.087645584772442],[118.74209871938545,-21.08833971970044],[118.74141796744728,-21.08903537929369],[118.73809010141287,-21.093890060309704],[118.73186046295993,-21.10000000411049],[118.733333332771,-21.099999999892553],[118.7500000003229,-21.099999999940284],[118.75000000001623,-21.116666667397453],[118.76666666707655,-21.116666666862926],[118.76666666739524,-21.099999999647412],[118.78302378040065,-21.09999999962212],[118.76342957040076,-21.076577510386507],[118.763302080015,-21.076425070457336],[118.76277399956102,-21.075793589748784],[118.76148229962035,-21.07430991988788],[118.76039970023155,-21.073193120029362],[118.75929901040891,-21.07216153025878],[118.75506956965229,-21.06845083973732],[118.75549754978262,-21.06783150029097],[118.75983709033214,-21.071638770375657],[118.76095993992311,-21.072691139575863],[118.76206887031141,-21.0738350803425],[118.76337841013597,-21.075339249739404],[118.76408812971566,-21.076187930346194],[118.76421575010119,-21.076340530274983],[118.78400833986584,-21.10000000046604],[118.8000000000557,-21.100000000075454],[118.81666666678892,-21.100000000425577],[118.81666666694505,-21.083333333050195],[118.81666666674495,-21.0666666670816]]],[[[118.71490915011678,-21.09999999982421],[118.69999999964067,-21.10000000022396],[118.69999999964568,-21.11176062535446],[118.70071987066767,-21.110679617218178],[118.70504546829427,-21.112659264096997],[118.70237678118092,-21.116666671582294],[118.71108014001854,-21.116666669838988],[118.7111697846891,-21.114443269752243],[118.71260511900434,-21.1164115787014],[118.71259484029414,-21.116666666709598],[118.7144932483862,-21.1166666685475],[118.71555465352347,-21.11583099549408],[118.71630194995527,-21.116666667503555],[118.71666666662232,-21.11666666650339],[118.71666666741521,-21.102612015752648],[118.7163715793765,-21.102820354694718],[118.71490915011678,-21.09999999982421]]],[[[118.72039014145332,-21.091400258364004],[118.72016445464172,-21.091133076364656],[118.72014367270424,-21.091144262361023],[118.72037318050901,-21.09141304436068],[118.72039014145332,-21.091400258364004]]],[[[118.72328270052627,-21.10000000283065],[118.72114117830701,-21.09662998391606],[118.72073530350062,-21.09603021692878],[118.72031248074586,-21.095440828938493],[118.71987311104242,-21.0948622679453],[118.71947549534362,-21.09436536894886],[118.71666666663113,-21.091000729962385],[118.71666666665425,-21.091018894960463],[118.71800561457079,-21.092624149953153],[118.72013900788714,-21.0952314379392],[118.72182209111358,-21.097742108884262],[118.72326374757085,-21.10000000282834],[118.72328270052627,-21.10000000283065]]],[[[118.72072449338472,-21.091172002427275],[118.72088169201605,-21.09117041144614],[118.72122447721823,-21.090379917568114],[118.72158062902886,-21.09009525563959],[118.7217811573164,-21.08949458959007],[118.72025046942215,-21.087409843124146],[118.71939261357358,-21.08797972712882],[118.72103379802277,-21.090665044516157],[118.72030059323154,-21.091059818388413],[118.72050899206789,-21.09131480638694],[118.72072449338472,-21.091172002427275]]]]},"properties":{"fmt_tenid":"E 45/4689","type":"EXPLORATION LICENCE","tenstatus":"LIVE","holder1":"PILGANGOORA OPERATIONS PTY LTD","holder2":" ","legal_area":36,"unit_of_me":"BL.","_colour":"#a0c4f0","_label":"Exploration Licence"}},{"type":"Feature","geometry":{"type":"Polygon","coordinates":[[[118.91666666694573,-20.983333333317628],[118.91666666715872,-20.966666667030175],[118.916666667315,-20.949999999732572],[118.91666666690462,-20.933333333485624],[118.90000000037055,-20.93333333281955],[118.90000000031384,-20.949999999916177],[118.9000000001829,-20.966666667230367],[118.90000000000067,-20.98333333274955],[118.91666666694573,-20.983333333317628]]]},"properties":{"fmt_tenid":"E 45/5332","type":"EXPLORATION LICENCE","tenstatus":"LIVE","holder1":"PILBARA MINERALS LIMITED","holder2":" ","legal_area":3,"unit_of_me":"BL.","_colour":"#a0c4f0","_label":"Exploration Licence"}},{"type":"Feature","geometry":{"type":"Polygon","coordinates":[[[118.88466647181201,-21.065318990417317],[118.88334175943217,-21.065318924830137],[118.8833333293561,-21.08333333190506],[118.88466685895231,-21.083333334573336],[118.88466684828279,-21.08198569151098],[118.90063922679265,-21.081985632005917],[118.90127004997986,-21.08084632951558],[118.901325318584,-21.06664860665437],[118.90383868161388,-21.066685801442464],[118.90380544316962,-21.06531883334579],[118.88466647181201,-21.065318990417317]]]},"properties":{"fmt_tenid":"M 45/1230","type":"MINING LEASE","tenstatus":"LIVE","holder1":"PILGANGOORA OPERATIONS PTY LTD","holder2":" ","legal_area":349.95,"unit_of_me":"HA.","_colour":"#f5a520","_label":"Mining Lease"}},{"type":"Feature","geometry":{"type":"Polygon","coordinates":[[[118.90127004997986,-21.08084632951558],[118.90409651288199,-21.08054218694502],[118.90411605169551,-21.078010514767808],[118.90407487849822,-21.07633457698307],[118.90399377249966,-21.073032992247555],[118.90385250997217,-21.06725176906843],[118.90383868161388,-21.066685801442464],[118.901325318584,-21.06664860665437],[118.90127004997986,-21.08084632951558]]]},"properties":{"fmt_tenid":"M 45/1231","type":"MINING LEASE","tenstatus":"LIVE","holder1":"PILGANGOORA OPERATIONS PTY LTD","holder2":" ","legal_area":43.635,"unit_of_me":"HA.","_colour":"#f5a520","_label":"Mining Lease"}},{"type":"Feature","geometry":{"type":"Polygon","coordinates":[[[118.9013318793352,-21.01531861587492],[118.9013053795686,-21.032946352795616],[118.90128198645108,-21.048652066042667],[118.88466630502408,-21.048652142078044],[118.88466647181201,-21.065318990417317],[118.90380544316962,-21.06531883334579],[118.9037952046504,-21.064897835624006],[118.91149371168655,-21.06344108423246],[118.91145406266307,-21.061778447457893],[118.91132816626069,-21.05649859818652],[118.91666309652759,-21.05638446932462],[118.91799962360409,-21.056356354875412],[118.91799935890664,-21.050000060092565],[118.91799860091332,-21.027318643943467],[118.91799824669955,-21.01531841962443],[118.91666666591154,-21.015318495763257],[118.9013318793352,-21.01531861587492]]]},"properties":{"fmt_tenid":"M 45/1256","type":"MINING LEASE","tenstatus":"LIVE","holder1":"PILGANGOORA OPERATIONS PTY LTD","holder2":" ","legal_area":1202.5,"unit_of_me":"HA.","_colour":"#f5a520","_label":"Mining Lease"}},{"type":"Feature","geometry":{"type":"Polygon","coordinates":[[[118.86666666927225,-21.065313489826337],[118.86666666763803,-21.083333332097272],[118.8833333293561,-21.08333333190506],[118.88334175943217,-21.065318924830137],[118.86666666927225,-21.065313489826337]]]},"properties":{"fmt_tenid":"M 45/1260","type":"MINING LEASE","tenstatus":"LIVE","holder1":"PILGANGOORA OPERATIONS PTY LTD","holder2":" ","legal_area":345.6,"unit_of_me":"HA.","_colour":"#f5a520","_label":"Mining Lease"}},{"type":"Feature","geometry":{"type":"Polygon","coordinates":[[[118.91666666838955,-20.999999998479986],[118.91666666591154,-21.015318495763257],[118.91799824669955,-21.01531841962443],[118.91799860091332,-21.027318643943467],[118.91799935890664,-21.050000060092565],[118.91891831049588,-21.050000096178003],[118.91883030689252,-21.04636758928497],[118.92436094491299,-21.046531324798504],[118.92436071372252,-21.0330769706022],[118.9243605336089,-21.022408581288783],[118.92436020784355,-21.006537297567025],[118.93332792118261,-21.006539077143454],[118.93330735571685,-21.00483043239004],[118.93270160271389,-21.004766965257506],[118.9327258268104,-21.000000031351927],[118.91666666838955,-20.999999998479986]]]},"properties":{"fmt_tenid":"M 45/1266","type":"MINING LEASE","tenstatus":"LIVE","holder1":"PILGANGOORA OPERATIONS PTY LTD","holder2":" ","legal_area":431.3,"unit_of_me":"HA.","_colour":"#f5a520","_label":"Mining Lease"}},{"type":"Feature","geometry":{"type":"Polygon","coordinates":[[[118.93268934390697,-20.99577972024673],[118.9327258268104,-21.000000031351927],[118.93270160271389,-21.004766965257506],[118.93330735571685,-21.00483043239004],[118.93509581609592,-21.00476838525647],[118.93988298969187,-20.99866316580976],[118.93991787981408,-20.99574952426352],[118.93268934390697,-20.99577972024673]]]},"properties":{"fmt_tenid":"M 45/1275","type":"MINING LEASE","tenstatus":"LIVE","holder1":"PILGANGOORA OPERATIONS PTY LTD","holder2":" ","legal_area":57.66,"unit_of_me":"HA.","_colour":"#f5a520","_label":"Mining Lease"}},{"type":"Feature","geometry":{"type":"Polygon","coordinates":[[[118.91883030689252,-21.04636758928497],[118.91891831049588,-21.050000096178003],[118.91904697695846,-21.055309613105745],[118.91907177627205,-21.05633288592605],[118.91799962360409,-21.056356354875412],[118.91666309652759,-21.05638446932462],[118.91633845265957,-21.06860120618512],[118.915960774577,-21.08281365008417],[118.91562645031632,-21.095394870263178],[118.9155803568244,-21.097124798891098],[118.92511187866437,-21.097355357453782],[118.92736189040913,-21.097409700269097],[118.92727565990766,-21.08175677993155],[118.93050225674847,-21.068601218906895],[118.93294750260779,-21.05862980480358],[118.9358308059322,-21.04687031245007],[118.93538460913575,-21.034025017727163],[118.93583850005565,-21.033333333031518],[118.93333333340145,-21.03333333293058],[118.93333333234936,-21.046796527506007],[118.92812426604765,-21.04664263453552],[118.9294093048659,-21.04219469711026],[118.92797206185585,-21.04226295838436],[118.92603702066359,-21.042167753704312],[118.92436094491299,-21.046531324798504],[118.91883030689252,-21.04636758928497]]]},"properties":{"fmt_tenid":"M 45/1307","type":"MINING LEASE","tenstatus":"LIVE","holder1":"PILGANGOORA OPERATIONS PTY LTD","holder2":" ","legal_area":846.82286,"unit_of_me":"HA.","_colour":"#f5a520","_label":"Mining Lease"}},{"type":"Feature","geometry":{"type":"Polygon","coordinates":[[[118.91666666738956,-21.000000000479957],[118.88333333326453,-20.99999999985623],[118.88333333337401,-21.03333333281928],[118.90130480238835,-21.033333333522812],[118.9013053795686,-21.032946352795616],[118.9013318793352,-21.01531861587492],[118.91666666591154,-21.015318495763257],[118.91666666738956,-21.000000000479957]]]},"properties":{"fmt_tenid":"M 45/1324","type":"MINING LEASE","tenstatus":"LIVE","holder1":"PILGANGOORA OPERATIONS PTY LTD","holder2":" ","legal_area":960.80565,"unit_of_me":"HA.","_colour":"#f5a520","_label":"Mining Lease"}},{"type":"Feature","geometry":{"type":"Polygon","coordinates":[[[118.9037952046504,-21.064897835624006],[118.90380544316962,-21.06531883334579],[118.90383868161388,-21.066685801442464],[118.90385250997217,-21.06725176906843],[118.90399377249966,-21.073032992247555],[118.90407487849822,-21.07633457698307],[118.90411605169551,-21.078010514767808],[118.90409651288199,-21.08054218694502],[118.90127004997986,-21.08084632951558],[118.90356337852552,-21.08211886998],[118.9039637029593,-21.082816187350737],[118.90580007227557,-21.086014829217127],[118.90626473643343,-21.08682417035994],[118.90628149765463,-21.091916006199874],[118.90753981770493,-21.09127973734117],[118.90764428170783,-21.091226914269185],[118.9084965157229,-21.090795972677522],[118.91416333485903,-21.087930315007863],[118.91279490615956,-21.085514708757994],[118.91098365524745,-21.08231727787661],[118.91086982634604,-21.0819061632566],[118.9099018580478,-21.078410061348663],[118.90959398614068,-21.077298057421995],[118.91181819682781,-21.077008569420286],[118.91181322893185,-21.076800886629577],[118.91152456892652,-21.0647322572741],[118.91152075602055,-21.064572702392812],[118.91149371168655,-21.06344108423246],[118.9037952046504,-21.064897835624006]]]},"properties":{"fmt_tenid":"M 45/333","type":"MINING LEASE","tenstatus":"LIVE","holder1":"PILGANGOORA OPERATIONS PTY LTD","holder2":" ","legal_area":220.75,"unit_of_me":"HA.","_colour":"#f5a520","_label":"Mining Lease"}},{"type":"Feature","geometry":{"type":"Polygon","coordinates":[[[118.91132816626069,-21.05649859818652],[118.91145406266307,-21.061778447457893],[118.91149371168655,-21.06344108423246],[118.91152075602055,-21.064572702392812],[118.91181322893185,-21.076800886629577],[118.91181819682781,-21.077008569420286],[118.90959398614068,-21.077298057421995],[118.9099018580478,-21.078410061348663],[118.91086982634604,-21.0819061632566],[118.91098365524745,-21.08231727787661],[118.91279490615956,-21.085514708757994],[118.91416333485903,-21.087930315007863],[118.90753981770493,-21.09127973734117],[118.90768869221577,-21.095631194175674],[118.91562644531636,-21.095394867263153],[118.91666309652759,-21.05638446932462],[118.91132816626069,-21.05649859818652]]]},"properties":{"fmt_tenid":"M 45/511","type":"MINING LEASE","tenstatus":"LIVE","holder1":"PILGANGOORA OPERATIONS PTY LTD","holder2":" ","legal_area":228.7,"unit_of_me":"HA.","_colour":"#f5a520","_label":"Mining Lease"}},{"type":"Feature","geometry":{"type":"Polygon","coordinates":[[[118.90063922679265,-21.081985632005917],[118.89589879930911,-21.090547729053885],[118.90628149765463,-21.091916006199874],[118.90626473643343,-21.08682417035994],[118.90580007227557,-21.086014829217127],[118.9039637029593,-21.082816187350737],[118.90356337852552,-21.08211886998],[118.90127004997986,-21.08084632951558],[118.90063922679265,-21.081985632005917]]]},"properties":{"fmt_tenid":"M 45/78","type":"MINING LEASE","tenstatus":"LIVE","holder1":"PILGANGOORA OPERATIONS PTY LTD","holder2":" ","legal_area":80.97,"unit_of_me":"HA.","_colour":"#f5a520","_label":"Mining Lease"}}]}