{"type":"FeatureCollection","_source":"Multi-state Australian tenement registry","_holders":["DARLOT MINING COMPANY PTY LTD","GREENSTONE RESOURCES (WA) PTY LTD"],"_ticker":"RED.AX","features":[{"type":"Feature","geometry":{"type":"Polygon","coordinates":[[[121.05000000036462,-28.050000000446303],[121.05000000011407,-28.033333332777378],[121.04999999974176,-28.016666666644117],[121.04999999951585,-28.00000000037099],[121.04999999980744,-27.983333333490748],[121.05000000033748,-27.966666667064878],[121.0333333334854,-27.966666666880617],[121.03333333328318,-27.983333333034313],[121.03333333581546,-27.998682510958847],[121.03333333250147,-27.999999999720202],[121.03333334294257,-28.011519616715145],[121.03333333315312,-28.01666666667775],[121.03333333298403,-28.03333333335738],[121.03333335032927,-28.042939492381826],[121.0333333362039,-28.04868467834303],[121.03333333275403,-28.05000000004467],[121.05000000036462,-28.050000000446303]]]},"properties":{"fmt_tenid":"E 36/1044","type":"EXPLORATION LICENCE","tenstatus":"LIVE","holder1":"DARLOT MINING COMPANY PTY LTD","holder2":" ","legal_area":5,"unit_of_me":"BL.","_colour":"#a0c4f0","_label":"Exploration Licence"}},{"type":"Feature","geometry":{"type":"MultiPolygon","coordinates":[[[[121.04999999986626,-27.833333332988854],[121.04999999998161,-27.849999999631105],[121.03333333338725,-27.850000000404503],[121.03333333259447,-27.866666667404726],[121.03333333323376,-27.883333333236415],[121.03333333344216,-27.89999999954397],[121.05000000044703,-27.899999999655407],[121.06666666675513,-27.900000000404308],[121.06666666677674,-27.883333333117655],[121.06666666748059,-27.866666666600352],[121.06666666681097,-27.849999999984803],[121.06666666725218,-27.833333333093158],[121.04999999986626,-27.833333332988854]]],[[[121.06666666725218,-27.833333333093158],[121.07085907991082,-27.833333332518915],[121.07085900283946,-27.82442769464145],[121.0769847033623,-27.82442766417716],[121.0769847209312,-27.83314128461214],[121.08433686302695,-27.833141250342457],[121.08433686298808,-27.833333333158134],[121.10000000012546,-27.83333333319759],[121.10000000006251,-27.816666666929418],[121.1000000001975,-27.80000000045594],[121.09999999954518,-27.783333332768954],[121.08333333328342,-27.7833333330699],[121.08333333272881,-27.766666666961473],[121.06666666664769,-27.766666666912403],[121.05000000020149,-27.766666667450437],[121.05000000032584,-27.78333333285174],[121.06666666662323,-27.78333333345667],[121.0666666669531,-27.800000000253146],[121.08333333288762,-27.79999999978488],[121.08333333258666,-27.81666666725588],[121.06666666664209,-27.816666667441954],[121.06666666725218,-27.833333333093158]]]]},"properties":{"fmt_tenid":"E 36/865","type":"EXPLORATION LICENCE","tenstatus":"LIVE","holder1":"DARLOT MINING COMPANY PTY LTD","holder2":" ","legal_area":14,"unit_of_me":"BL.","_colour":"#a0c4f0","_label":"Exploration Licence"}},{"type":"Feature","geometry":{"type":"Polygon","coordinates":[[[121.03333333296099,-27.91666666715392],[121.03333333344216,-27.89999999954397],[121.01666666736324,-27.900000000097943],[121.0166666672838,-27.916666667488368],[121.03333333296099,-27.91666666715392]]]},"properties":{"fmt_tenid":"E 36/940","type":"EXPLORATION LICENCE","tenstatus":"LIVE","holder1":"DARLOT MINING COMPANY PTY LTD","holder2":" ","legal_area":1,"unit_of_me":"BL.","_colour":"#a0c4f0","_label":"Exploration Licence"}},{"type":"Feature","geometry":{"type":"Polygon","coordinates":[[[121.0666666674537,-27.96666666732144],[121.066666666567,-27.950000000013436],[121.05000000023605,-27.950000000088455],[121.05000000033748,-27.966666667064878],[121.0666666674537,-27.96666666732144]]]},"properties":{"fmt_tenid":"E 36/941","type":"EXPLORATION LICENCE","tenstatus":"LIVE","holder1":"DARLOT MINING COMPANY PTY LTD","holder2":" ","legal_area":1,"unit_of_me":"BL.","_colour":"#a0c4f0","_label":"Exploration Licence"}},{"type":"Feature","geometry":{"type":"Polygon","coordinates":[[[121.06666666662323,-27.78333333345667],[121.05000000032584,-27.78333333285174],[121.0499999998525,-27.799999999580006],[121.04999999978398,-27.816666666764025],[121.03333333315341,-27.816666667019888],[121.01666666704674,-27.816666666804792],[121.01666666710236,-27.833333333040084],[121.03333333315128,-27.833333333254327],[121.03333333338725,-27.850000000404503],[121.04999999998161,-27.849999999631105],[121.04999999986626,-27.833333332988854],[121.06666666725218,-27.833333333093158],[121.06666666664209,-27.816666667441954],[121.08333333258666,-27.81666666725588],[121.08333333288762,-27.79999999978488],[121.0666666669531,-27.800000000253146],[121.06666666662323,-27.78333333345667]]]},"properties":{"fmt_tenid":"E 36/944","type":"EXPLORATION LICENCE","tenstatus":"LIVE","holder1":"DARLOT MINING COMPANY PTY LTD","holder2":" ","legal_area":7,"unit_of_me":"BL.","_colour":"#a0c4f0","_label":"Exploration Licence"}},{"type":"Feature","geometry":{"type":"Polygon","coordinates":[[[121.06666666707824,-28.016666666830236],[121.06666666711206,-28.00000000000208],[121.06666666669629,-27.983333333182824],[121.0666666674537,-27.96666666732144],[121.05000000033748,-27.966666667064878],[121.04999999980744,-27.983333333490748],[121.04999999951585,-28.00000000037099],[121.04999999974176,-28.016666666644117],[121.06666666707824,-28.016666666830236]]]},"properties":{"fmt_tenid":"E 36/945","type":"EXPLORATION LICENCE","tenstatus":"LIVE","holder1":"DARLOT MINING COMPANY PTY LTD","holder2":" ","legal_area":3,"unit_of_me":"BL.","_colour":"#a0c4f0","_label":"Exploration Licence"}},{"type":"Feature","geometry":{"type":"Polygon","coordinates":[[[121.04999999961109,-27.93333333332922],[121.05000000037379,-27.916666666763984],[121.05000000044703,-27.899999999655407],[121.03333333344216,-27.89999999954397],[121.03333333296099,-27.91666666715392],[121.03333333279342,-27.933333333304677],[121.04999999961109,-27.93333333332922]]]},"properties":{"fmt_tenid":"E 36/964","type":"EXPLORATION LICENCE","tenstatus":"LIVE","holder1":"DARLOT MINING COMPANY PTY LTD","holder2":" ","legal_area":2,"unit_of_me":"BL.","_colour":"#a0c4f0","_label":"Exploration Licence"}},{"type":"Feature","geometry":{"type":"Polygon","coordinates":[[[121.0500000004438,-28.233333332682566],[121.05183402889075,-28.233333325967426],[121.0666666600042,-28.233333326005805],[121.08333333261892,-28.233333333285813],[121.0833333313549,-28.21666667058588],[121.10000000246103,-28.21666667123054],[121.10000000019147,-28.199999999835782],[121.08333333122148,-28.199999999783078],[121.06666666655605,-28.199999999949775],[121.06666666745649,-28.183333332354405],[121.06423249063113,-28.18333333181135],[121.06416666046333,-28.190833429531736],[121.05668078012903,-28.190782209658604],[121.05655874001687,-28.204308829705614],[121.05141547018043,-28.204281430417407],[121.05141557058786,-28.21535391957476],[121.05141561002917,-28.220225466036112],[121.05586136953862,-28.219803472251588],[121.05736325237964,-28.23048308327887],[121.05142086015373,-28.231208575094783],[121.04727036891322,-28.231715291596057],[121.0474487597863,-28.232020877390053],[121.04277864895269,-28.232020972027616],[121.04331802938195,-28.233333325791257],[121.04821495927584,-28.233333326191612],[121.0500000004438,-28.233333332682566]]]},"properties":{"fmt_tenid":"E 36/980","type":"EXPLORATION LICENCE","tenstatus":"LIVE","holder1":"DARLOT MINING COMPANY PTY LTD","holder2":" ","legal_area":7,"unit_of_me":"BL.","_colour":"#a0c4f0","_label":"Exploration Licence"}},{"type":"Feature","geometry":{"type":"Polygon","coordinates":[[[121.01666666672774,-28.016666667012647],[121.01666666690672,-28.00000000029132],[121.00000000024421,-27.999999999658236],[120.98333333260778,-27.999999999922533],[120.98333333324348,-28.01666666661573],[121.00000000002817,-28.016666667007456],[120.99999999991132,-28.033333333000197],[121.01666666688482,-28.03333333324546],[121.01666666672774,-28.016666667012647]]]},"properties":{"fmt_tenid":"E 36/997","type":"EXPLORATION LICENCE","tenstatus":"LIVE","holder1":"DARLOT MINING COMPANY PTY LTD","holder2":" ","legal_area":3,"unit_of_me":"BL.","_colour":"#a0c4f0","_label":"Exploration Licence"}},{"type":"Feature","geometry":{"type":"Polygon","coordinates":[[[121.20000000008689,-27.966666666627535],[121.19999999977554,-27.949999999662772],[121.1833333327758,-27.949999999952038],[121.18333333307325,-27.96666666719027],[121.20000000008689,-27.966666666627535]]]},"properties":{"fmt_tenid":"E 37/1194","type":"EXPLORATION LICENCE","tenstatus":"LIVE","holder1":"DARLOT MINING COMPANY PTY LTD","holder2":" ","legal_area":1,"unit_of_me":"BL.","_colour":"#a0c4f0","_label":"Exploration Licence"}},{"type":"Feature","geometry":{"type":"MultiPolygon","coordinates":[[[[121.31666666712843,-27.816666667480195],[121.31666666700565,-27.833333333124237],[121.30384191963054,-27.83333333272108],[121.30078290033066,-27.855423070223505],[121.3102224095626,-27.85890170993591],[121.30615213993597,-27.867645919721838],[121.31666666721308,-27.869832198443312],[121.31666666712586,-27.866666667421214],[121.31666666743037,-27.85000000009003],[121.3333333334203,-27.85000000037251],[121.33333333324799,-27.833333333068623],[121.33333333287136,-27.81666666656187],[121.31666666712843,-27.816666667480195]]],[[[121.31666666715519,-27.872116790884423],[121.31579715960359,-27.873168549599892],[121.31532697226724,-27.88107644688445],[121.31666666792664,-27.881098978714466],[121.31666666715519,-27.872116790884423]]]]},"properties":{"fmt_tenid":"E 37/1247","type":"EXPLORATION LICENCE","tenstatus":"LIVE","holder1":"DARLOT MINING COMPANY PTY LTD","holder2":" ","legal_area":5,"unit_of_me":"BL.","_colour":"#a0c4f0","_label":"Exploration Licence"}},{"type":"Feature","geometry":{"type":"Polygon","coordinates":[[[121.18333333300109,-28.371984407749387],[121.18333333352797,-28.37215533289371],[121.194932620392,-28.374757439724938],[121.1988307104625,-28.376436139761257],[121.20162368999054,-28.377045650023977],[121.20079508037837,-28.378841999945074],[121.18684697958923,-28.376299820448573],[121.1862250418707,-28.389569074225765],[121.18333333296694,-28.389327232064538],[121.18333333304233,-28.40000000014569],[121.16808347962612,-28.400000000090284],[121.16808351991776,-28.405205670262262],[121.16808359993281,-28.415354849916913],[121.16808360882844,-28.41666666656792],[121.18333333315246,-28.416666666955024],[121.20000000027262,-28.416666667106096],[121.21666666749256,-28.41666666683227],[121.2166666674488,-28.400000000181738],[121.21666666727477,-28.38333333329998],[121.2166666694299,-28.371906019697757],[121.20384125310382,-28.371906671289565],[121.18960540293057,-28.371907889869824],[121.18960448919842,-28.371984176942185],[121.18333333300109,-28.371984407749387]]]},"properties":{"fmt_tenid":"E 37/1253","type":"EXPLORATION LICENCE","tenstatus":"LIVE","holder1":"DARLOT MINING COMPANY PTY LTD","holder2":" ","legal_area":7,"unit_of_me":"BL.","_colour":"#a0c4f0","_label":"Exploration Licence"}},{"type":"Feature","geometry":{"type":"Polygon","coordinates":[[[121.19999999953612,-27.883333332701504],[121.20000000001129,-27.900000000213065],[121.2166666672741,-27.89999999971926],[121.2234938588025,-27.899999999666345],[121.22346897345231,-27.89868042332294],[121.22331628957757,-27.890584790363597],[121.22194316974807,-27.887061590349873],[121.21432356995325,-27.88690672952441],[121.21436542569943,-27.88333333280903],[121.19999999953612,-27.883333332701504]]]},"properties":{"fmt_tenid":"E 37/1268","type":"EXPLORATION LICENCE","tenstatus":"LIVE","holder1":"DARLOT MINING COMPANY PTY LTD","holder2":" ","legal_area":2,"unit_of_me":"BL.","_colour":"#a0c4f0","_label":"Exploration Licence"}},{"type":"Feature","geometry":{"type":"Polygon","coordinates":[[[121.66666666651061,-28.350000000012326],[121.65000000017065,-28.34999999964346],[121.6333333333497,-28.349999999991997],[121.61666666740933,-28.35000000021376],[121.61666666699394,-28.36666666712112],[121.61666666724024,-28.383333332974154],[121.63333333279651,-28.38333333259281],[121.6500000004815,-28.383333332586897],[121.6666666667947,-28.383333332998884],[121.68333333344259,-28.38333333348679],[121.69999999960096,-28.38333333341208],[121.71666666713267,-28.38333333272207],[121.71666666727401,-28.39999999976456],[121.73333333303553,-28.400000000003672],[121.73333333324476,-28.41666666746014],[121.75000000043991,-28.41666666742902],[121.76666666714445,-28.416666667378855],[121.76666666671574,-28.399999999734796],[121.7499999996795,-28.400000000182537],[121.74999999958796,-28.38333333256639],[121.73333333278978,-28.383333332788702],[121.73333333309013,-28.36666666654034],[121.71666666661173,-28.366666666879702],[121.69999999999054,-28.36666666736995],[121.68333333300795,-28.36666666736773],[121.66666666673638,-28.366666666949136],[121.66666666651061,-28.350000000012326]]]},"properties":{"fmt_tenid":"E 37/1271","type":"EXPLORATION LICENCE","tenstatus":"LIVE","holder1":"ARDEA EXPLORATION PTY LTD","holder2":"DARLOT MINING COMPANY PTY LTD","legal_area":14,"unit_of_me":"BL.","_colour":"#a0c4f0","_label":"Exploration Licence"}},{"type":"Feature","geometry":{"type":"Polygon","coordinates":[[[121.24999999966867,-27.750000000025917],[121.24999999989228,-27.733333333410705],[121.24999999995396,-27.716666667139922],[121.23333333256757,-27.716666667476105],[121.23333333289612,-27.73333333284607],[121.23333333347334,-27.749999999838327],[121.24999999966867,-27.750000000025917]]]},"properties":{"fmt_tenid":"E 37/1296","type":"EXPLORATION LICENCE","tenstatus":"LIVE","holder1":"DARLOT MINING COMPANY PTY LTD","holder2":" ","legal_area":2,"unit_of_me":"BL.","_colour":"#a0c4f0","_label":"Exploration Licence"}},{"type":"Feature","geometry":{"type":"Polygon","coordinates":[[[121.25000000035814,-27.78333333289728],[121.25000000020692,-27.766666667323083],[121.23333333314103,-27.766666666809783],[121.23333333340504,-27.783333333379566],[121.25000000035814,-27.78333333289728]]]},"properties":{"fmt_tenid":"E 37/1297","type":"EXPLORATION LICENCE","tenstatus":"LIVE","holder1":"DARLOT MINING COMPANY PTY LTD","holder2":" ","legal_area":1,"unit_of_me":"BL.","_colour":"#a0c4f0","_label":"Exploration Licence"}},{"type":"Feature","geometry":{"type":"Polygon","coordinates":[[[121.2000000002188,-27.833333333297062],[121.2127691054275,-27.83333333273583],[121.21281558015636,-27.832013679446593],[121.25000000024394,-27.832013191666135],[121.24999999961094,-27.816666666669697],[121.25000000013935,-27.79999999953191],[121.25000000035814,-27.78333333289728],[121.23333333340504,-27.783333333379566],[121.21666666691397,-27.783333333034633],[121.2166666667914,-27.79999999971671],[121.2166666669724,-27.816666667339867],[121.19999999954352,-27.816666667189224],[121.18333333300485,-27.816666667259934],[121.1833333325982,-27.833333332645587],[121.2000000002188,-27.833333333297062]]]},"properties":{"fmt_tenid":"E 37/1298","type":"EXPLORATION LICENCE","tenstatus":"LIVE","holder1":"DARLOT MINING COMPANY PTY LTD","holder2":" ","legal_area":8,"unit_of_me":"BL.","_colour":"#a0c4f0","_label":"Exploration Licence"}},{"type":"Feature","geometry":{"type":"Polygon","coordinates":[[[121.16666666725685,-27.883333332550944],[121.16666666701549,-27.899999999597807],[121.1666666665455,-27.916666666931935],[121.18333333251405,-27.916666667416138],[121.18333333340011,-27.89999999952706],[121.20000000001129,-27.900000000213065],[121.19999999953612,-27.883333332701504],[121.21436542569943,-27.88333333280903],[121.21458380961643,-27.86468728994386],[121.21480998005457,-27.856933090099208],[121.21495599035923,-27.847719670111772],[121.21226613991122,-27.847614910485422],[121.2127691054275,-27.83333333273583],[121.2000000002188,-27.833333333297062],[121.1833333325982,-27.833333332645587],[121.18333333291862,-27.850000000022856],[121.1833333325912,-27.866666667312145],[121.18333333289056,-27.88333333276343],[121.16666666725685,-27.883333332550944]]]},"properties":{"fmt_tenid":"E 37/1319","type":"EXPLORATION LICENCE","tenstatus":"LIVE","holder1":"DARLOT MINING COMPANY PTY LTD","holder2":" ","legal_area":9,"unit_of_me":"BL.","_colour":"#a0c4f0","_label":"Exploration Licence"}},{"type":"Feature","geometry":{"type":"MultiPolygon","coordinates":[[[[121.15000000024291,-28.016666666637946],[121.13333333278209,-28.016666667190517],[121.13333333287387,-28.033333332709788],[121.1166666673156,-28.033333333012553],[121.11666666696742,-28.049999999730947],[121.13333333307821,-28.049999999754984],[121.13333333346466,-28.066666666577312],[121.15000000026835,-28.066666666551743],[121.14999999978014,-28.049999999893913],[121.16666666656201,-28.050000000111833],[121.16666666714268,-28.033333332554736],[121.15000000000411,-28.033333332542767],[121.15000000024291,-28.016666666637946]]],[[[121.19999999970743,-27.999999999638252],[121.21666666714171,-28.00000000032438],[121.2166666666588,-27.98333333320135],[121.19999999955934,-27.98333333282091],[121.1833333328388,-27.983333332545154],[121.18333333301396,-27.999999999696378],[121.19999999970743,-27.999999999638252]]]]},"properties":{"fmt_tenid":"E 37/1321","type":"EXPLORATION LICENCE","tenstatus":"LIVE","holder1":"DARLOT MINING COMPANY PTY LTD","holder2":" ","legal_area":7,"unit_of_me":"BL.","_colour":"#a0c4f0","_label":"Exploration Licence"}},{"type":"Feature","geometry":{"type":"Polygon","coordinates":[[[121.09999999964859,-28.033333332717167],[121.1166666673156,-28.033333333012553],[121.11666666687172,-28.016666666898516],[121.11666666710826,-28.00000000004054],[121.11666666687098,-27.983333332681653],[121.1166666670073,-27.96666666744803],[121.100000000321,-27.966666666846468],[121.08333333306985,-27.966666666628985],[121.08333333267628,-27.983333333362783],[121.08333333278092,-28.00000000030236],[121.08333333281243,-28.016666666530288],[121.0833333325053,-28.033333332936],[121.09999999964859,-28.033333332717167]]]},"properties":{"fmt_tenid":"E 37/1322","type":"EXPLORATION LICENCE","tenstatus":"LIVE","holder1":"DARLOT MINING COMPANY PTY LTD","holder2":" ","legal_area":8,"unit_of_me":"BL.","_colour":"#a0c4f0","_label":"Exploration Licence"}},{"type":"Feature","geometry":{"type":"Polygon","coordinates":[[[121.09999999974433,-27.95000000034568],[121.0999999999119,-27.93333333292075],[121.09999999980776,-27.916666667480012],[121.10000000037742,-27.89999999953968],[121.10000000018225,-27.88333333261661],[121.11666666696493,-27.883333332909974],[121.11666666742555,-27.866666666636846],[121.11666666658463,-27.85000000002662],[121.11666666667219,-27.83333333292724],[121.13333333266296,-27.833333333308868],[121.13333333280507,-27.8166666669084],[121.1333333330794,-27.799999999560075],[121.13333333289178,-27.783333333284737],[121.11666666696475,-27.783333333335076],[121.09999999954518,-27.783333332768954],[121.1000000001975,-27.80000000045594],[121.10000000006251,-27.816666666929418],[121.10000000012546,-27.83333333319759],[121.1000000004055,-27.8500000003144],[121.09999999988756,-27.866666666620254],[121.08333333346741,-27.866666667435297],[121.08333333278199,-27.88333333301937],[121.08333333281362,-27.89999999965525],[121.08333333309359,-27.916666666574752],[121.06666666739152,-27.916666667472576],[121.06666666698015,-27.93333333338099],[121.066666666567,-27.950000000013436],[121.08333333333495,-27.950000000093105],[121.08333333306985,-27.966666666628985],[121.100000000321,-27.966666666846468],[121.09999999974433,-27.95000000034568]]]},"properties":{"fmt_tenid":"E 37/1350","type":"EXPLORATION LICENCE","tenstatus":"LIVE","holder1":"DARLOT MINING COMPANY PTY LTD","holder2":" ","legal_area":17,"unit_of_me":"BL.","_colour":"#a0c4f0","_label":"Exploration Licence"}},{"type":"Feature","geometry":{"type":"Polygon","coordinates":[[[121.23449231095654,-27.933333333156646],[121.24239617434398,-27.93261328246886],[121.24240865177968,-27.93201375696695],[121.2427280289279,-27.9166666667708],[121.23474686835412,-27.916666666843938],[121.23333333275474,-27.916666666773686],[121.23333333309466,-27.933333333277226],[121.23449231095654,-27.933333333156646]]]},"properties":{"fmt_tenid":"E 37/1352","type":"EXPLORATION LICENCE","tenstatus":"LIVE","holder1":"DARLOT MINING COMPANY PTY LTD","holder2":" ","legal_area":1,"unit_of_me":"BL.","_colour":"#a0c4f0","_label":"Exploration Licence"}},{"type":"Feature","geometry":{"type":"Polygon","coordinates":[[[121.1166666673156,-28.033333333012553],[121.09999999964859,-28.033333332717167],[121.0833333325053,-28.033333332936],[121.08333333333952,-28.050000000298898],[121.08333333264825,-28.066666666795086],[121.08333333334296,-28.083333333391487],[121.10000000040029,-28.08333333259531],[121.11666666735097,-28.083333333397718],[121.13333333321943,-28.08333333263031],[121.13333333346466,-28.066666666577312],[121.13333333307821,-28.049999999754984],[121.11666666696742,-28.049999999730947],[121.1166666673156,-28.033333333012553]]]},"properties":{"fmt_tenid":"E 37/1369","type":"EXPLORATION LICENCE","tenstatus":"LIVE","holder1":"DARLOT MINING COMPANY PTY LTD","holder2":" ","legal_area":8,"unit_of_me":"BL.","_colour":"#a0c4f0","_label":"Exploration Licence"}},{"type":"Feature","geometry":{"type":"Polygon","coordinates":[[[121.19999999951148,-28.299999999670337],[121.20000000000832,-28.283333332646503],[121.18333333266456,-28.283333332784455],[121.18333333279229,-28.300000000228618],[121.19999999951148,-28.299999999670337]]]},"properties":{"fmt_tenid":"E 37/1391","type":"EXPLORATION LICENCE","tenstatus":"LIVE","holder1":"DARLOT MINING COMPANY PTY LTD","holder2":" ","legal_area":1,"unit_of_me":"BL.","_colour":"#a0c4f0","_label":"Exploration Licence"}},{"type":"Feature","geometry":{"type":"Polygon","coordinates":[[[121.21666666673285,-27.91666666706519],[121.23333333275474,-27.916666666773686],[121.23333333343064,-27.915364701712416],[121.22379668291995,-27.91532999251378],[121.22359838686913,-27.905542112102403],[121.2234938588025,-27.899999999666345],[121.2180799565915,-27.899999999768003],[121.2166666672741,-27.89999999971926],[121.21666666673285,-27.91666666706519]]]},"properties":{"fmt_tenid":"E 37/1398","type":"EXPLORATION LICENCE","tenstatus":"LIVE","holder1":"DARLOT MINING COMPANY PTY LTD","holder2":" ","legal_area":1,"unit_of_me":"BL.","_colour":"#a0c4f0","_label":"Exploration Licence"}},{"type":"Feature","geometry":{"type":"Polygon","coordinates":[[[121.2166666691417,-27.9999999933244],[121.23333333967554,-27.999999992687556],[121.24999999493632,-27.999999993204508],[121.26666666729125,-27.999999992599978],[121.26666666684429,-27.983333336758264],[121.28333333791073,-27.983333336710505],[121.29999999263359,-27.98333333740821],[121.31666666546492,-27.983333337064614],[121.31666666548328,-27.966666665625656],[121.31666666473596,-27.949999995240738],[121.30202826234004,-27.950000000225973],[121.30198934493028,-27.950965197935222],[121.29792684368897,-27.950986276350534],[121.29789285083537,-27.956146070041765],[121.29364444326552,-27.95603693740307],[121.28840212067973,-27.95590209697245],[121.2800531861894,-27.955686922920677],[121.27991076846513,-27.96360114725434],[121.25927659009358,-27.96312090712307],[121.2472581182539,-27.962103922750668],[121.23434640287951,-27.95794332830164],[121.21897363151885,-27.95307314455112],[121.22309033629095,-27.945665010711494],[121.22852759482558,-27.93387673215686],[121.23449231095654,-27.933333333156646],[121.23333334009469,-27.93333334027721],[121.21666666884767,-27.933333339535142],[121.21666666873283,-27.916666668065176],[121.21666666927419,-27.899999996719234],[121.19999999801122,-27.899999997213044],[121.18333332640006,-27.899999996527093],[121.18333332551404,-27.91666666841612],[121.16666667054557,-27.916666667931924],[121.16666667116354,-27.93333334017449],[121.15000000035486,-27.933333339662994],[121.15000000037433,-27.949999994823045],[121.16666667085991,-27.949999994965665],[121.18333332577589,-27.94999999495201],[121.19999999777546,-27.94999999466281],[121.19999999808692,-27.966666665627542],[121.19999999755933,-27.98333333682092],[121.21666666865876,-27.983333337201312],[121.2166666691417,-27.9999999933244]]]},"properties":{"fmt_tenid":"E 37/1400","type":"EXPLORATION LICENCE","tenstatus":"LIVE","holder1":"DARLOT MINING COMPANY PTY LTD","holder2":" ","legal_area":28,"unit_of_me":"BL.","_colour":"#a0c4f0","_label":"Exploration Licence"}},{"type":"Feature","geometry":{"type":"Polygon","coordinates":[[[121.0333333334789,-28.466666659532088],[121.0166666620308,-28.466666659861524],[121.00509160242876,-28.46666688296803],[121.0050017895586,-28.47514168958108],[121.00654576980294,-28.475154399766556],[121.00654577072359,-28.47813043495968],[121.00348218018543,-28.478104023435503],[121.00348218237029,-28.47512716037489],[121.00000000177485,-28.475093864487874],[120.99999999990598,-28.476009082079365],[121.00118459811972,-28.476009137736966],[121.00118459755,-28.48142297166549],[121.00000000025902,-28.481422974916505],[121.00000000696957,-28.48333333080178],[121.01666666247236,-28.483333330767085],[121.01666666224965,-28.500000003201222],[121.03333333316837,-28.500000002720355],[121.03333333331508,-28.48333333119257],[121.0333333334789,-28.466666659532088]]]},"properties":{"fmt_tenid":"E 37/1409","type":"EXPLORATION LICENCE","tenstatus":"LIVE","holder1":"GREENSTONE RESOURCES (WA) PTY LTD","holder2":" ","legal_area":3,"unit_of_me":"BL.","_colour":"#a0c4f0","_label":"Exploration Licence"}},{"type":"Feature","geometry":{"type":"Polygon","coordinates":[[[121.01666666694196,-28.616666667354604],[121.03333333339154,-28.616666666869584],[121.03333333276754,-28.600000000224547],[121.03333333317794,-28.583333333452536],[121.03333333273727,-28.566666667217174],[121.03333333289591,-28.549999999651245],[121.03333333258203,-28.533333333053204],[121.01666666675675,-28.533333333414088],[121.01666666654253,-28.54999999973579],[121.0000000002362,-28.549999999832565],[120.99999999967523,-28.566666666804682],[120.99999999989873,-28.583333333163786],[120.99999999961602,-28.599999999846872],[121.00000000010567,-28.61666666720257],[121.01666666694196,-28.616666667354604]]]},"properties":{"fmt_tenid":"E 37/1410","type":"EXPLORATION LICENCE","tenstatus":"LIVE","holder1":"GREENSTONE RESOURCES (WA) PTY LTD","holder2":" ","legal_area":9,"unit_of_me":"BL.","_colour":"#a0c4f0","_label":"Exploration Licence"}},{"type":"Feature","geometry":{"type":"MultiPolygon","coordinates":[[[[121.10000000021691,-28.31666666717721],[121.1014178576213,-28.31666666721811],[121.10141800500195,-28.315250375996754],[121.11666666667962,-28.315331755883268],[121.11666666728357,-28.300000000212982],[121.11666666706205,-28.283333332757742],[121.11666666702149,-28.266666667029956],[121.09999999955065,-28.266666667372906],[121.08333333339075,-28.2666666666884],[121.08333333261896,-28.283333332782004],[121.08333333277538,-28.300000000055274],[121.08333333281547,-28.316666667491795],[121.10000000021691,-28.31666666717721]]],[[[121.11666666656214,-28.31666666663188],[121.11666666656583,-28.315692836815277],[121.11349037875502,-28.316161589720586],[121.11381880487474,-28.316666666620904],[121.11666666656214,-28.31666666663188]]]]},"properties":{"fmt_tenid":"E 37/1428","type":"EXPLORATION LICENCE","tenstatus":"LIVE","holder1":"DARLOT MINING COMPANY PTY LTD","holder2":" ","legal_area":6,"unit_of_me":"BL.","_colour":"#a0c4f0","_label":"Exploration Licence"}},{"type":"Feature","geometry":{"type":"Polygon","coordinates":[[[121.8333333334017,-28.366666666925305],[121.8333333328291,-28.38333333300408],[121.85000000030526,-28.383333333122707],[121.84999999976077,-28.366666667305694],[121.8499999997956,-28.35000000045478],[121.84999999968497,-28.33333333264271],[121.83333333342287,-28.33333333290181],[121.83333333256422,-28.316666667298364],[121.83333333304036,-28.29999999962333],[121.8166666665226,-28.29999999965362],[121.81666666719872,-28.28333333330135],[121.7999999998704,-28.283333332966674],[121.78333333273511,-28.283333333444663],[121.7666666670026,-28.283333333046077],[121.7666666667796,-28.300000000026404],[121.7833333332706,-28.2999999995681],[121.80000000009308,-28.30000000046491],[121.79999999952821,-28.3166666674712],[121.7999999998336,-28.333333332808394],[121.80000000028289,-28.349999999543403],[121.81666666736194,-28.3500000002757],[121.83333333319631,-28.350000000498145],[121.8333333334017,-28.366666666925305]]]},"properties":{"fmt_tenid":"E 39/1706","type":"EXPLORATION LICENCE","tenstatus":"LIVE","holder1":"ARDEA EXPLORATION PTY LTD","holder2":"DARLOT MINING COMPANY PTY LTD","legal_area":12,"unit_of_me":"BL.","_colour":"#a0c4f0","_label":"Exploration Licence"}},{"type":"Feature","geometry":{"type":"Polygon","coordinates":[[[121.80000000028289,-28.349999999543403],[121.7999999998336,-28.333333332808394],[121.79999999952821,-28.3166666674712],[121.78333333250292,-28.31666666655015],[121.76666666665042,-28.316666666762625],[121.75000000020657,-28.31666666678908],[121.75000000023343,-28.33333333340874],[121.73333333320197,-28.333333332739542],[121.73333333290819,-28.349999999722257],[121.7499999997336,-28.34999999957275],[121.7499999998205,-28.366666667166434],[121.74999999958796,-28.38333333256639],[121.7499999996795,-28.400000000182537],[121.76666666671574,-28.399999999734796],[121.76666666714445,-28.416666667378855],[121.78333333263727,-28.416666667088446],[121.79999999983943,-28.416666666967657],[121.8000000001442,-28.43333333285132],[121.8166666669545,-28.4333333328865],[121.81666666665484,-28.45000000028917],[121.83333333253427,-28.450000000189853],[121.83333333319796,-28.466666667219375],[121.85000000025356,-28.466666667437117],[121.84999999991517,-28.449999999824904],[121.85000000009488,-28.4333333331865],[121.84999999974364,-28.416666667287707],[121.85000000047177,-28.400000000346722],[121.83333333310789,-28.40000000040482],[121.8333333328291,-28.38333333300408],[121.81666666704916,-28.383333333452285],[121.80000000005906,-28.383333332922582],[121.79999999995736,-28.366666667168335],[121.80000000028289,-28.349999999543403]]]},"properties":{"fmt_tenid":"E 39/1854","type":"EXPLORATION LICENCE","tenstatus":"LIVE","holder1":"ARDEA EXPLORATION PTY LTD","holder2":"DARLOT MINING COMPANY PTY LTD","legal_area":29,"unit_of_me":"BL.","_colour":"#a0c4f0","_label":"Exploration Licence"}},{"type":"Feature","geometry":{"type":"Polygon","coordinates":[[[121.32217357169635,-27.935332534914785],[121.3221048208567,-27.944547989355605],[121.33228902328804,-27.94449083713101],[121.33104937752704,-27.936144296754737],[121.32217357169635,-27.935332534914785]]]},"properties":{"fmt_tenid":"M 37/1045","type":"MINING LEASE","tenstatus":"LIVE","holder1":"DARLOT MINING COMPANY PTY LTD","holder2":"SOUTH DARLOT MINES PTY LTD","legal_area":91.039,"unit_of_me":"HA.","_colour":"#f5a520","_label":"Mining Lease"}},{"type":"Feature","geometry":{"type":"Polygon","coordinates":[[[121.12963363770143,-28.57799518789644],[121.12962213285833,-28.587187042341267],[121.12963899195884,-28.591082553144574],[121.13473474748865,-28.591135463569096],[121.13469599864088,-28.58535536884266],[121.13464886457317,-28.5780048446401],[121.13458266875152,-28.574031531954837],[121.13368903054358,-28.57461564919248],[121.12885688766673,-28.568648797268875],[121.12763364949572,-28.56927451110443],[121.12762050967926,-28.56925311713017],[121.12003921035041,-28.57385771353033],[121.11322451245975,-28.577995492566327],[121.12963363770143,-28.57799518789644]]]},"properties":{"fmt_tenid":"M 37/1050","type":"MINING LEASE","tenstatus":"LIVE","holder1":"GREENSTONE RESOURCES (WA) PTY LTD","holder2":" ","legal_area":189.35,"unit_of_me":"HA.","_colour":"#f5a520","_label":"Mining Lease"}},{"type":"Feature","geometry":{"type":"Polygon","coordinates":[[[121.11752228019922,-28.60523329295986],[121.11801413661384,-28.618604056415265],[121.11815316849125,-28.622381596423924],[121.13113776877277,-28.6224183552789],[121.1380438514213,-28.62239272829496],[121.13802070858591,-28.60465642748436],[121.12533468752936,-28.605012961642245],[121.11752228019922,-28.60523329295986]]]},"properties":{"fmt_tenid":"M 37/1051","type":"MINING LEASE","tenstatus":"LIVE","holder1":"GREENSTONE RESOURCES (WA) PTY LTD","holder2":" ","legal_area":382.25,"unit_of_me":"HA.","_colour":"#f5a520","_label":"Mining Lease"}},{"type":"Feature","geometry":{"type":"Polygon","coordinates":[[[121.13802070858591,-28.60465642748436],[121.1380438514213,-28.62239272829496],[121.15626493581738,-28.61334504982721],[121.17237145835328,-28.61230703306843],[121.17238444932437,-28.60366265084221],[121.15415205822062,-28.60420135088136],[121.13802070858591,-28.60465642748436]]]},"properties":{"fmt_tenid":"M 37/1081","type":"MINING LEASE","tenstatus":"LIVE","holder1":"GREENSTONE RESOURCES (WA) PTY LTD","holder2":" ","legal_area":422.15,"unit_of_me":"HA.","_colour":"#f5a520","_label":"Mining Lease"}},{"type":"Feature","geometry":{"type":"Polygon","coordinates":[[[121.19614996588953,-28.668113550008187],[121.19755369704208,-28.671459678777666],[121.19976307858948,-28.670494701254725],[121.19844891453299,-28.667363345848575],[121.19811093515297,-28.667473640012325],[121.19614996588953,-28.668113550008187]]]},"properties":{"fmt_tenid":"M 37/1105","type":"MINING LEASE","tenstatus":"LIVE","holder1":"GREENSTONE RESOURCES (WA) PTY LTD","holder2":" ","legal_area":9.713000000000001,"unit_of_me":"HA.","_colour":"#f5a520","_label":"Mining Lease"}},{"type":"Feature","geometry":{"type":"Polygon","coordinates":[[[121.10915840320551,-28.587234432208753],[121.10936941054004,-28.59321140650189],[121.10948301605335,-28.596417494536695],[121.12960893445617,-28.596452372646073],[121.12963899195884,-28.591082553144574],[121.12962213285833,-28.587187042341267],[121.11940774333158,-28.587208973054775],[121.10915840320551,-28.587234432208753]]]},"properties":{"fmt_tenid":"M 37/1165","type":"MINING LEASE","tenstatus":"LIVE","holder1":"GREENSTONE RESOURCES (WA) PTY LTD","holder2":" ","legal_area":203.1,"unit_of_me":"HA.","_colour":"#f5a520","_label":"Mining Lease"}},{"type":"Feature","geometry":{"type":"Polygon","coordinates":[[[121.29403753511572,-27.942407552569644],[121.27442892080087,-27.940760661300768],[121.2750387552005,-27.94224538201928],[121.29403753511572,-27.942407552569644]]]},"properties":{"fmt_tenid":"M 37/1217","type":"MINING LEASE","tenstatus":"LIVE","holder1":"DARLOT MINING COMPANY PTY LTD","holder2":" ","legal_area":15.33,"unit_of_me":"HA.","_colour":"#f5a520","_label":"Mining Lease"}},{"type":"Feature","geometry":{"type":"Polygon","coordinates":[[[121.2639825647768,-27.866752748172924],[121.25503056737747,-27.8882039855402],[121.25397097907934,-27.890742125109043],[121.28159483717563,-27.89944409183726],[121.28487927709915,-27.895107539252034],[121.28506112521521,-27.89486742563932],[121.28796610675776,-27.90146257447788],[121.28638402524321,-27.902466684299295],[121.29819057735652,-27.906651418723545],[121.30081515938699,-27.90006920011101],[121.29971556767644,-27.899650214713464],[121.3014836207591,-27.892751156710908],[121.30196277791096,-27.890881301345104],[121.29453112269813,-27.88799872246185],[121.2796585134894,-27.8822281374676],[121.28254113411695,-27.87480786814605],[121.28343607250885,-27.872504004385107],[121.27181007816004,-27.869067278792482],[121.2639825647768,-27.866752748172924]]]},"properties":{"fmt_tenid":"M 37/155","type":"MINING LEASE","tenstatus":"LIVE","holder1":"DARLOT MINING COMPANY PTY LTD","holder2":" ","legal_area":1000,"unit_of_me":"HA.","_colour":"#f5a520","_label":"Mining Lease"}},{"type":"Feature","geometry":{"type":"Polygon","coordinates":[[[121.1744365052445,-28.700334160396544],[121.18129859377395,-28.709388523272036],[121.18983602080043,-28.704352782070163],[121.18869158274138,-28.70284401464108],[121.18640299760766,-28.69982680593505],[121.18297264337964,-28.69530400825757],[121.17836897010783,-28.69801699982213],[121.1744365052445,-28.700334160396544]],[[121.18234763989906,-28.697633007476853],[121.18539442369077,-28.700978346789046],[121.18459030936644,-28.70152321077916],[121.18608463968519,-28.70323755350631],[121.18444012591597,-28.704351843724925],[121.18294579826315,-28.702637488237418],[121.18212994041119,-28.70319027567842],[121.17915087655673,-28.699898613325225],[121.18234763989906,-28.697633007476853]]]},"properties":{"fmt_tenid":"M 37/179","type":"MINING LEASE","tenstatus":"LIVE","holder1":"GREENSTONE RESOURCES (WA) PTY LTD","holder2":" ","legal_area":97.345,"unit_of_me":"HA.","_colour":"#f5a520","_label":"Mining Lease"}},{"type":"Feature","geometry":{"type":"MultiPolygon","coordinates":[[[[121.16245909406732,-28.658762512469227],[121.15229830899912,-28.6627856893172],[121.15546764028164,-28.668957211540164],[121.15599003927338,-28.669974382185664],[121.1573595600483,-28.668573980707528],[121.16004862519343,-28.66583047462431],[121.16126332809243,-28.666756234825176],[121.16191361866514,-28.667251829040474],[121.1592245582269,-28.66999568565784],[121.15997656720928,-28.67056739705016],[121.16152293390094,-28.67042352023065],[121.16149582903853,-28.670883055728936],[121.16177802638194,-28.670963817185505],[121.16346332469145,-28.673218074269435],[121.16344884788369,-28.673207044265585],[121.16076953725134,-28.67608283611128],[121.15830337201538,-28.674478438300593],[121.16183664311485,-28.68135688633688],[121.1631992400271,-28.680807423075017],[121.16932255301298,-28.678337977909468],[121.17119398787975,-28.677583177571737],[121.17413845703344,-28.67639552149525],[121.17022845689677,-28.676397385388295],[121.1651791340556,-28.67594413355422],[121.1656938634511,-28.67491733659941],[121.16664974418636,-28.675645520617383],[121.17296119500492,-28.669086239810206],[121.1701035271951,-28.667263906217606],[121.1686143445023,-28.666314198226768],[121.16613067768373,-28.664589707536965],[121.16453593936569,-28.66341573138446],[121.16445146662112,-28.663501958860795],[121.16348400293128,-28.662764616729937],[121.1620207173339,-28.66186387248781],[121.16245909406732,-28.658762512469227]]],[[[121.16713895543371,-28.656911122997098],[121.16363995179306,-28.658295005445453],[121.17019144361143,-28.66302062574395],[121.16713895543371,-28.656911122997098]]]]},"properties":{"fmt_tenid":"M 37/201","type":"MINING LEASE","tenstatus":"LIVE","holder1":"GREENSTONE RESOURCES (WA) PTY LTD","holder2":" ","legal_area":227.5,"unit_of_me":"HA.","_colour":"#f5a520","_label":"Mining Lease"}},{"type":"Feature","geometry":{"type":"Polygon","coordinates":[[[121.18234763989906,-28.697633007476853],[121.17915087655673,-28.699898613325225],[121.18212994041119,-28.70319027567842],[121.18294579826315,-28.702637488237418],[121.18444012591597,-28.704351843724925],[121.18608463968519,-28.70323755350631],[121.18459030936644,-28.70152321077916],[121.18539442369077,-28.700978346789046],[121.18234763989906,-28.697633007476853]]]},"properties":{"fmt_tenid":"M 37/21","type":"MINING LEASE","tenstatus":"LIVE","holder1":"GREENSTONE RESOURCES (WA) PTY LTD","holder2":" ","legal_area":23.77,"unit_of_me":"HA.","_colour":"#f5a520","_label":"Mining Lease"}},{"type":"Feature","geometry":{"type":"Polygon","coordinates":[[[121.12390656559106,-28.678183653625005],[121.12716509509357,-28.690550435539077],[121.13066095203052,-28.703816930788694],[121.1369287538348,-28.702532390336334],[121.138671451107,-28.70217517975806],[121.14577714542759,-28.700718423813825],[121.14668163031709,-28.700532962590778],[121.14318245076208,-28.68726261828807],[121.13942768303734,-28.688033632927894],[121.1371943258081,-28.67627667012773],[121.12390656559106,-28.678183653625005]]]},"properties":{"fmt_tenid":"M 37/222","type":"MINING LEASE","tenstatus":"LIVE","holder1":"GREENSTONE RESOURCES (WA) PTY LTD","holder2":" ","legal_area":416.25,"unit_of_me":"HA.","_colour":"#f5a520","_label":"Mining Lease"}},{"type":"Feature","geometry":{"type":"Polygon","coordinates":[[[121.3061837070588,-27.907594108555344],[121.30632741566353,-27.91442018623744],[121.3065546098281,-27.9168885234911],[121.31752688694601,-27.917224194557267],[121.32295851314825,-27.917415312846078],[121.32233306761096,-27.90997876514481],[121.3061837070588,-27.907594108555344]]]},"properties":{"fmt_tenid":"M 37/246","type":"MINING LEASE","tenstatus":"LIVE","holder1":"BAKER, ROBERT ALBERT LAWRENCE","holder2":"DARLOT MINING COMPANY PTY LTD","legal_area":148.25,"unit_of_me":"HA.","_colour":"#f5a520","_label":"Mining Lease"}},{"type":"Feature","geometry":{"type":"Polygon","coordinates":[[[121.15997656720928,-28.67056739705016],[121.16344884788369,-28.673207044265585],[121.16346332469145,-28.673218074269435],[121.16177802638194,-28.670963817185505],[121.16149582903853,-28.670883055728936],[121.16152293390094,-28.67042352023065],[121.15997656720928,-28.67056739705016]]]},"properties":{"fmt_tenid":"M 37/248","type":"MINING LEASE","tenstatus":"LIVE","holder1":"GREENSTONE RESOURCES (WA) PTY LTD","holder2":" ","legal_area":2.239,"unit_of_me":"HA.","_colour":"#f5a520","_label":"Mining Lease"}},{"type":"Feature","geometry":{"type":"Polygon","coordinates":[[[121.2235983788692,-27.90554211310239],[121.22675112152233,-27.912175084304177],[121.22878400347336,-27.911459388153546],[121.23214030397818,-27.910277833185834],[121.24065359040411,-27.90728065652299],[121.24413785478309,-27.9149726039296],[121.24465073627188,-27.91610443356542],[121.24540373153607,-27.91582098730517],[121.24954537507942,-27.91426176837684],[121.25849453128808,-27.910892069478734],[121.25924324391869,-27.913041923945208],[121.28638402524321,-27.902466684299295],[121.28796610675776,-27.90146257447788],[121.28506112521521,-27.89486742563932],[121.28487927709915,-27.895107539252034],[121.28159483717563,-27.89944409183726],[121.25397097907934,-27.890742125109043],[121.25102055596572,-27.89148682417125],[121.24920603596813,-27.89144250240189],[121.25194971745066,-27.897076450103413],[121.23794451244474,-27.90246354553624],[121.23668099095462,-27.90022112738248],[121.2235983788692,-27.90554211310239]]]},"properties":{"fmt_tenid":"M 37/252","type":"MINING LEASE","tenstatus":"LIVE","holder1":"DARLOT MINING COMPANY PTY LTD","holder2":" ","legal_area":829.05,"unit_of_me":"HA.","_colour":"#f5a520","_label":"Mining Lease"}},{"type":"Feature","geometry":{"type":"Polygon","coordinates":[[[121.24323424089414,-27.956741317475156],[121.24882944820068,-27.95884311365086],[121.25400765064536,-27.946784709783817],[121.24926344604873,-27.94521647464816],[121.24323424089414,-27.956741317475156]]]},"properties":{"fmt_tenid":"M 37/265","type":"MINING LEASE","tenstatus":"LIVE","holder1":"BAKER, ROBERT ALBERT LAWRENCE","holder2":"DARLOT MINING COMPANY PTY LTD","legal_area":77.7,"unit_of_me":"HA.","_colour":"#f5a520","_label":"Mining Lease"}},{"type":"Feature","geometry":{"type":"Polygon","coordinates":[[[121.2773459851394,-27.914296223628384],[121.29669151260198,-27.915414957065],[121.29819057735652,-27.906651418723545],[121.28638402524321,-27.902466684299295],[121.25924324391869,-27.913041923945208],[121.2546673279335,-27.915156380467018],[121.2773459851394,-27.914296223628384]]]},"properties":{"fmt_tenid":"M 37/320","type":"MINING LEASE","tenstatus":"LIVE","holder1":"BAKER, ROBERT ALBERT LAWRENCE","holder2":"DARLOT MINING COMPANY PTY LTD","legal_area":337.25,"unit_of_me":"HA.","_colour":"#f5a520","_label":"Mining Lease"}},{"type":"Feature","geometry":{"type":"Polygon","coordinates":[[[121.15460825548101,-28.671387269746415],[121.1371943258081,-28.67627667012773],[121.13942768303734,-28.688033632927894],[121.14318245076208,-28.68726261828807],[121.14668163031709,-28.700532962590778],[121.15469047712298,-28.698890503599706],[121.15118848210442,-28.685618209693224],[121.15519428000599,-28.68479700315454],[121.14733322697747,-28.678480101026977],[121.15089155149118,-28.67518737825476],[121.15460825548101,-28.671387269746415]]]},"properties":{"fmt_tenid":"M 37/330","type":"MINING LEASE","tenstatus":"LIVE","holder1":"GREENSTONE RESOURCES (WA) PTY LTD","holder2":" ","legal_area":299.35,"unit_of_me":"HA.","_colour":"#f5a520","_label":"Mining Lease"}},{"type":"Feature","geometry":{"type":"Polygon","coordinates":[[[121.22878400347336,-27.911459388153546],[121.22886037751908,-27.912858121569105],[121.24413785478309,-27.9149726039296],[121.24065359040411,-27.90728065652299],[121.23214030397818,-27.910277833185834],[121.22878400347336,-27.911459388153546]]]},"properties":{"fmt_tenid":"M 37/343","type":"MINING LEASE","tenstatus":"LIVE","holder1":"BAKER, ROBERT ALBERT LAWRENCE","holder2":"DARLOT MINING COMPANY PTY LTD","legal_area":69.32,"unit_of_me":"HA.","_colour":"#f5a520","_label":"Mining Lease"}},{"type":"Feature","geometry":{"type":"Polygon","coordinates":[[[121.31240838604697,-27.934333180815454],[121.31387813944083,-27.934778404878116],[121.31384794137686,-27.93024118742064],[121.31240838604697,-27.934333180815454]]]},"properties":{"fmt_tenid":"M 37/345","type":"MINING LEASE","tenstatus":"LIVE","holder1":"BAKER, ROBERT ALBERT LAWRENCE","holder2":"DARLOT MINING COMPANY PTY LTD","legal_area":3.63,"unit_of_me":"HA.","_colour":"#f5a520","_label":"Mining Lease"}},{"type":"Feature","geometry":{"type":"Polygon","coordinates":[[[121.21495598635913,-27.847719673111733],[121.21480998505466,-27.856933090099215],[121.23097520600852,-27.85735774743991],[121.23096483164267,-27.848342267089283],[121.21495598635913,-27.847719673111733]]]},"properties":{"fmt_tenid":"M 37/373","type":"MINING LEASE","tenstatus":"LIVE","holder1":"DARLOT MINING COMPANY PTY LTD","holder2":" ","legal_area":160.1,"unit_of_me":"HA.","_colour":"#f5a520","_label":"Mining Lease"}},{"type":"Feature","geometry":{"type":"Polygon","coordinates":[[[121.24954537507942,-27.91426176837684],[121.24540373153607,-27.91582098730517],[121.24450391366271,-27.92424070912708],[121.26453953454394,-27.924657921948228],[121.26442672427152,-27.93319981973074],[121.27683715526142,-27.932930910711413],[121.2773459851394,-27.914296223628384],[121.2546673279335,-27.915156380467018],[121.25924324391869,-27.913041923945208],[121.25849453128808,-27.910892069478734],[121.24954537507942,-27.91426176837684]]]},"properties":{"fmt_tenid":"M 37/393","type":"MINING LEASE","tenstatus":"LIVE","holder1":"BAKER, ROBERT ALBERT LAWRENCE","holder2":"DARLOT MINING COMPANY PTY LTD","legal_area":477.5,"unit_of_me":"HA.","_colour":"#f5a520","_label":"Mining Lease"}},{"type":"Feature","geometry":{"type":"Polygon","coordinates":[[[121.12013670074339,-28.664036039301877],[121.12367051892875,-28.677287691217863],[121.12390656559106,-28.678183653625005],[121.1371943258081,-28.67627667012773],[121.13556097647977,-28.667289527510956],[121.12984086019439,-28.66802058251715],[121.12814207814368,-28.662388522824394],[121.12013670074339,-28.664036039301877]]]},"properties":{"fmt_tenid":"M 37/394","type":"MINING LEASE","tenstatus":"LIVE","holder1":"GREENSTONE RESOURCES (WA) PTY LTD","holder2":" ","legal_area":187.75,"unit_of_me":"HA.","_colour":"#f5a520","_label":"Mining Lease"}},{"type":"Feature","geometry":{"type":"Polygon","coordinates":[[[121.12531957085304,-28.71558704946223],[121.14030477298033,-28.712755707403947],[121.13909299000588,-28.709086375679135],[121.1369287538348,-28.702532390336334],[121.13066095203052,-28.703816930788694],[121.12716509509357,-28.690550435539077],[121.11915280328206,-28.69219407583294],[121.12191682518971,-28.702680474957504],[121.12264913987637,-28.705458420798177],[121.12531957085304,-28.71558704946223]]]},"properties":{"fmt_tenid":"M 37/407","type":"MINING LEASE","tenstatus":"LIVE","holder1":"GREENSTONE RESOURCES (WA) PTY LTD","holder2":" ","legal_area":292.05,"unit_of_me":"HA.","_colour":"#f5a520","_label":"Mining Lease"}},{"type":"Feature","geometry":{"type":"Polygon","coordinates":[[[121.16713895543371,-28.656911122997098],[121.17019144361143,-28.66302062574395],[121.17183333538082,-28.665970776546537],[121.18115876959344,-28.66043675614263],[121.18799031458613,-28.66944343938325],[121.17764775018604,-28.675537416466362],[121.18264367118465,-28.67917167569106],[121.18326306960597,-28.679044758224073],[121.19134703317782,-28.67738796634573],[121.19677333814994,-28.676322602606803],[121.19503175331673,-28.67303052014667],[121.19374543029835,-28.67059885909932],[121.19120401908427,-28.66579421447888],[121.1822371768686,-28.650221875392916],[121.16713895543371,-28.656911122997098]]]},"properties":{"fmt_tenid":"M 37/410","type":"MINING LEASE","tenstatus":"LIVE","holder1":"GREENSTONE RESOURCES (WA) PTY LTD","holder2":" ","legal_area":360.15,"unit_of_me":"HA.","_colour":"#f5a520","_label":"Mining Lease"}},{"type":"Feature","geometry":{"type":"Polygon","coordinates":[[[121.09453169474769,-28.643255788509396],[121.09421885333519,-28.6553862981151],[121.10063319078026,-28.654068651591455],[121.10413709817672,-28.66732715967366],[121.10764148855547,-28.680584039593825],[121.1156399316771,-28.67893943030823],[121.11565896267548,-28.67893551623498],[121.12367051892875,-28.677287691217863],[121.12013670074339,-28.664036039301877],[121.1166315639671,-28.650778030037536],[121.10998161277388,-28.65214024612365],[121.10926987278582,-28.643311664338523],[121.09453169474769,-28.643255788509396]]]},"properties":{"fmt_tenid":"M 37/416","type":"MINING LEASE","tenstatus":"LIVE","holder1":"GREENSTONE RESOURCES (WA) PTY LTD","holder2":" ","legal_area":658.5,"unit_of_me":"HA.","_colour":"#f5a520","_label":"Mining Lease"}},{"type":"Feature","geometry":{"type":"Polygon","coordinates":[[[121.21281558015636,-27.832013679446593],[121.21226613691114,-27.84761490648541],[121.21495598635913,-27.847719673111733],[121.23096483164267,-27.848342267089283],[121.23097520600852,-27.85735774743991],[121.25355643245346,-27.857549349411297],[121.25467195408942,-27.842241193613567],[121.25112989692711,-27.832013177168683],[121.21281558015636,-27.832013679446593]]]},"properties":{"fmt_tenid":"M 37/417","type":"MINING LEASE","tenstatus":"LIVE","holder1":"DARLOT MINING COMPANY PTY LTD","holder2":" ","legal_area":950.6,"unit_of_me":"HA.","_colour":"#f5a520","_label":"Mining Lease"}},{"type":"Feature","geometry":{"type":"Polygon","coordinates":[[[121.25112989692711,-27.832013177168683],[121.25467195408942,-27.842241193613567],[121.27328315377271,-27.847563818804144],[121.28165855491362,-27.849958170113553],[121.30078290433059,-27.855423065223505],[121.3040248691447,-27.832012224661952],[121.28474661017621,-27.832012501349624],[121.26807955138149,-27.83201281162404],[121.25112989692711,-27.832013177168683]]]},"properties":{"fmt_tenid":"M 37/418","type":"MINING LEASE","tenstatus":"LIVE","holder1":"DARLOT MINING COMPANY PTY LTD","holder2":" ","legal_area":908,"unit_of_me":"HA.","_colour":"#f5a520","_label":"Mining Lease"}},{"type":"Feature","geometry":{"type":"Polygon","coordinates":[[[121.28165855491362,-27.849958170113553],[121.27328315377271,-27.847563818804144],[121.25467195408942,-27.842241193613567],[121.25355643245346,-27.857549349411297],[121.27194926142987,-27.862774002024825],[121.27181007816004,-27.869067278792482],[121.28343607250885,-27.872504004385107],[121.28701822071396,-27.86403365792207],[121.3051530637285,-27.869792169723087],[121.30615214393593,-27.867645917721863],[121.31022241356256,-27.858901707935935],[121.30078290433059,-27.855423065223505],[121.28165855491362,-27.849958170113553]]]},"properties":{"fmt_tenid":"M 37/419","type":"MINING LEASE","tenstatus":"LIVE","holder1":"DARLOT MINING COMPANY PTY LTD","holder2":" ","legal_area":936.05,"unit_of_me":"HA.","_colour":"#f5a520","_label":"Mining Lease"}},{"type":"Feature","geometry":{"type":"Polygon","coordinates":[[[121.28343607250885,-27.872504004385107],[121.28254113411695,-27.87480786814605],[121.2973930958951,-27.880586520305247],[121.29453112269813,-27.88799872246185],[121.30196277791096,-27.890881301345104],[121.3014836207591,-27.892751156710908],[121.29971556767644,-27.899650214713464],[121.30081515938699,-27.90006920011101],[121.30126928133929,-27.90022615226921],[121.30249087320406,-27.89733035912788],[121.30971226494604,-27.899101621494943],[121.30628825743932,-27.907342462829142],[121.31534351880701,-27.906882942081115],[121.31532652627348,-27.881083877879107],[121.31579715560363,-27.873168547599914],[121.3182783433564,-27.870167313274703],[121.30615214393593,-27.867645917721863],[121.3051530637285,-27.869792169723087],[121.28701822071396,-27.86403365792207],[121.28343607250885,-27.872504004385107]]]},"properties":{"fmt_tenid":"M 37/420","type":"MINING LEASE","tenstatus":"LIVE","holder1":"DARLOT MINING COMPANY PTY LTD","holder2":" ","legal_area":817.85,"unit_of_me":"HA.","_colour":"#f5a520","_label":"Mining Lease"}},{"type":"Feature","geometry":{"type":"Polygon","coordinates":[[[121.25453372890817,-27.932881938254095],[121.25439737613576,-27.941998089776785],[121.25948544507732,-27.94192309542923],[121.26981702055495,-27.942200404476715],[121.2750387552005,-27.94224538201928],[121.27442892080087,-27.940760661300768],[121.29403753511572,-27.942407552569644],[121.29461883689241,-27.93441484559128],[121.29800811465724,-27.93446847567453],[121.2980073945581,-27.933542497119753],[121.27683715526142,-27.932930910711413],[121.26442672427152,-27.93319981973074],[121.25453372890817,-27.932881938254095]]]},"properties":{"fmt_tenid":"M 37/421","type":"MINING LEASE","tenstatus":"LIVE","holder1":"DARLOT MINING COMPANY PTY LTD","holder2":" ","legal_area":383.65,"unit_of_me":"HA.","_colour":"#f5a520","_label":"Mining Lease"}},{"type":"Feature","geometry":{"type":"Polygon","coordinates":[[[121.17183333538082,-28.665970776546537],[121.17250417153639,-28.667176021299483],[121.17546913071074,-28.667482697065385],[121.17543144382161,-28.67243486555828],[121.17699486576069,-28.67524330136916],[121.17727941080476,-28.675754418778606],[121.17764775018604,-28.675537416466362],[121.18799031458613,-28.66944343938325],[121.18115876959344,-28.66043675614263],[121.17183333538082,-28.665970776546537]]]},"properties":{"fmt_tenid":"M 37/429","type":"MINING LEASE","tenstatus":"LIVE","holder1":"GREENSTONE RESOURCES (WA) PTY LTD","holder2":" ","legal_area":133.4,"unit_of_me":"HA.","_colour":"#f5a520","_label":"Mining Lease"}},{"type":"Feature","geometry":{"type":"Polygon","coordinates":[[[121.14577714542759,-28.700718423813825],[121.138671451107,-28.70217517975806],[121.1369287538348,-28.702532390336334],[121.13909299000588,-28.709086375679135],[121.15330171069886,-28.71753359101528],[121.17024505475551,-28.727602904260163],[121.17587495650675,-28.720374153176778],[121.15947898994952,-28.709672341821936],[121.14577714542759,-28.700718423813825]]]},"properties":{"fmt_tenid":"M 37/449","type":"MINING LEASE","tenstatus":"LIVE","holder1":"GREENSTONE RESOURCES (WA) PTY LTD","holder2":" ","legal_area":419.5,"unit_of_me":"HA.","_colour":"#f5a520","_label":"Mining Lease"}},{"type":"Feature","geometry":{"type":"Polygon","coordinates":[[[121.19073278285518,-28.691485682835506],[121.19033271762922,-28.690965888082086],[121.18297264337964,-28.69530400825757],[121.18640299760766,-28.69982680593505],[121.18869158274138,-28.70284401464108],[121.19151369610084,-28.701637330508447],[121.19199297155984,-28.70256267233884],[121.19671641273501,-28.70048768568674],[121.19931966251833,-28.69934398492502],[121.20353529084714,-28.70715297687742],[121.20364692839651,-28.705567417371366],[121.2116396101481,-28.705999539483898],[121.21096631032216,-28.712273412877128],[121.21487917972479,-28.709933221751132],[121.20859488212797,-28.70176880053579],[121.20621234936266,-28.69867306713103],[121.20340906918682,-28.69503036127184],[121.19932201850239,-28.689718934966425],[121.1948548914078,-28.69063787096874],[121.19073278285518,-28.691485682835506]]]},"properties":{"fmt_tenid":"M 37/451","type":"MINING LEASE","tenstatus":"LIVE","holder1":"GREENSTONE RESOURCES (WA) PTY LTD","holder2":" ","legal_area":264.7,"unit_of_me":"HA.","_colour":"#f5a520","_label":"Mining Lease"}},{"type":"Feature","geometry":{"type":"Polygon","coordinates":[[[121.18200897510482,-28.649803483939692],[121.1822371768686,-28.650221875392916],[121.19120401908427,-28.66579421447888],[121.19589176636623,-28.663931372579],[121.19811093515297,-28.667473640012325],[121.19844891453299,-28.667363345848575],[121.19976307858948,-28.670494701254725],[121.20569452100533,-28.68152860184693],[121.20637938484666,-28.681248049586095],[121.21868200544652,-28.676207938805042],[121.20073922560492,-28.642706027701962],[121.18200897510482,-28.649803483939692]]]},"properties":{"fmt_tenid":"M 37/457","type":"MINING LEASE","tenstatus":"LIVE","holder1":"GREENSTONE RESOURCES (WA) PTY LTD","holder2":" ","legal_area":689.95,"unit_of_me":"HA.","_colour":"#f5a520","_label":"Mining Lease"}},{"type":"Feature","geometry":{"type":"Polygon","coordinates":[[[121.09504878379975,-28.619451122115777],[121.09551408766995,-28.632685256680087],[121.09346787750688,-28.632741483493657],[121.09418130316212,-28.639529120155434],[121.09498339912845,-28.63955845083927],[121.09453169474769,-28.643255788509396],[121.10926987278582,-28.643311664338523],[121.10912964960296,-28.641572170200064],[121.10839726269437,-28.63247754487017],[121.1031757633505,-28.632626648384072],[121.10317255829906,-28.63247473197459],[121.10289332635266,-28.6192409146962],[121.09504878379975,-28.619451122115777]]]},"properties":{"fmt_tenid":"M 37/496","type":"MINING LEASE","tenstatus":"LIVE","holder1":"GREENSTONE RESOURCES (WA) PTY LTD","holder2":" ","legal_area":281.55,"unit_of_me":"HA.","_colour":"#f5a520","_label":"Mining Lease"}},{"type":"Feature","geometry":{"type":"Polygon","coordinates":[[[121.25948544507732,-27.94192309542923],[121.25928744038755,-27.95507962769526],[121.26948714639377,-27.95542038587927],[121.26981702055495,-27.942200404476715],[121.25948544507732,-27.94192309542923]]]},"properties":{"fmt_tenid":"M 37/503","type":"MINING LEASE","tenstatus":"LIVE","holder1":"DARLOT MINING COMPANY PTY LTD","holder2":" ","legal_area":147.75,"unit_of_me":"HA.","_colour":"#f5a520","_label":"Mining Lease"}},{"type":"Feature","geometry":{"type":"Polygon","coordinates":[[[121.08461327506696,-28.657357240657714],[121.088111913473,-28.67061905418808],[121.09612342507593,-28.668973293110067],[121.09261883607395,-28.65571498864224],[121.08461327506696,-28.657357240657714]]]},"properties":{"fmt_tenid":"M 37/529","type":"MINING LEASE","tenstatus":"LIVE","holder1":"GREENSTONE RESOURCES (WA) PTY LTD","holder2":" ","legal_area":121.3,"unit_of_me":"HA.","_colour":"#f5a520","_label":"Mining Lease"}},{"type":"Feature","geometry":{"type":"Polygon","coordinates":[[[121.18559112083517,-28.315668047483676],[121.17503329846849,-28.314098962720134],[121.17473788917566,-28.315473101468594],[121.17610502183378,-28.31559464286431],[121.17562695099079,-28.317553398907975],[121.17419913043386,-28.317426530351685],[121.17521452740694,-28.319797655526315],[121.18566006280805,-28.321379982431054],[121.18604661338496,-28.320107708485963],[121.18415605534739,-28.319657852805424],[121.18315661451362,-28.319420024983632],[121.18398588479258,-28.31754923387053],[121.18517049046066,-28.317831094115427],[121.18559112083517,-28.315668047483676]]]},"properties":{"fmt_tenid":"M 37/54","type":"MINING LEASE","tenstatus":"LIVE","holder1":"DARLOT MINING COMPANY PTY LTD","holder2":" ","legal_area":59.815,"unit_of_me":"HA.","_colour":"#f5a520","_label":"Mining Lease"}},{"type":"Feature","geometry":{"type":"Polygon","coordinates":[[[121.19779154413654,-28.68769561769075],[121.19932201850239,-28.689718934966425],[121.20340906918682,-28.69503036127184],[121.21057558965329,-28.690707255974562],[121.20759629555943,-28.683893747127055],[121.19779154413654,-28.68769561769075]]]},"properties":{"fmt_tenid":"M 37/544","type":"MINING LEASE","tenstatus":"LIVE","holder1":"GREENSTONE RESOURCES (WA) PTY LTD","holder2":" ","legal_area":84.02,"unit_of_me":"HA.","_colour":"#f5a520","_label":"Mining Lease"}},{"type":"Feature","geometry":{"type":"Polygon","coordinates":[[[121.15947898994952,-28.709672341821936],[121.17587495650675,-28.720374153176778],[121.17861742475114,-28.722163793887233],[121.17494037960529,-28.71731697095603],[121.17414386408333,-28.717665800521235],[121.16709709183138,-28.705179654326606],[121.17009834674899,-28.70282734241353],[121.16962667371438,-28.70201803473061],[121.17254814841172,-28.701446759724334],[121.17407073085703,-28.701148997787055],[121.17936194054774,-28.710530726092507],[121.18129859377395,-28.709388523272036],[121.1744365052445,-28.700334160396544],[121.17836897010783,-28.69801699982213],[121.18297264337964,-28.69530400825757],[121.19033271762922,-28.690965888082086],[121.18326306960597,-28.679044758224073],[121.18264367118465,-28.67917167569106],[121.17764775018604,-28.675537416466362],[121.17727941080476,-28.675754418778606],[121.17763534403974,-28.67639375866848],[121.17413845703344,-28.67639552149525],[121.17119398787975,-28.677583177571737],[121.16932255301298,-28.678337977909468],[121.1631992400271,-28.680807423075017],[121.16423705120927,-28.682942721287503],[121.1591977346921,-28.683976148410927],[121.15519428000599,-28.68479700315454],[121.15118848210442,-28.685618209693224],[121.15469047712298,-28.698890503599706],[121.15947898994952,-28.709672341821936]]]},"properties":{"fmt_tenid":"M 37/547","type":"MINING LEASE","tenstatus":"LIVE","holder1":"GREENSTONE RESOURCES (WA) PTY LTD","holder2":" ","legal_area":901.35,"unit_of_me":"HA.","_colour":"#f5a520","_label":"Mining Lease"}},{"type":"Feature","geometry":{"type":"Polygon","coordinates":[[[121.19120401908427,-28.66579421447888],[121.19374543029835,-28.67059885909932],[121.19503175331673,-28.67303052014667],[121.19677333814994,-28.676322602606803],[121.19134703317782,-28.67738796634573],[121.18326306960597,-28.679044758224073],[121.19033271762922,-28.690965888082086],[121.19073278285518,-28.691485682835506],[121.1948548914078,-28.69063787096874],[121.19932201850239,-28.689718934966425],[121.19779154413654,-28.68769561769075],[121.20759629555943,-28.683893747127055],[121.20721896320784,-28.683073385714255],[121.20637938484666,-28.681248049586095],[121.20569452100533,-28.68152860184693],[121.19976307858948,-28.670494701254725],[121.19755369704208,-28.671459678777666],[121.19614996588953,-28.668113550008187],[121.19811093515297,-28.667473640012325],[121.19589176636623,-28.663931372579],[121.19120401908427,-28.66579421447888]]]},"properties":{"fmt_tenid":"M 37/548","type":"MINING LEASE","tenstatus":"LIVE","holder1":"GREENSTONE RESOURCES (WA) PTY LTD","holder2":" ","legal_area":312.8,"unit_of_me":"HA.","_colour":"#f5a520","_label":"Mining Lease"}},{"type":"Feature","geometry":{"type":"Polygon","coordinates":[[[121.12534437529034,-28.598693383248605],[121.12533468752936,-28.605012961642245],[121.13802070858591,-28.60465642748436],[121.15415205822062,-28.60420135088136],[121.15141473962849,-28.59867526935468],[121.1347514985831,-28.598690497840643],[121.12964014373297,-28.59866789521979],[121.12534437529034,-28.598693383248605]]]},"properties":{"fmt_tenid":"M 37/551","type":"MINING LEASE","tenstatus":"LIVE","holder1":"GREENSTONE RESOURCES (WA) PTY LTD","holder2":" ","legal_area":176.9,"unit_of_me":"HA.","_colour":"#f5a520","_label":"Mining Lease"}},{"type":"Feature","geometry":{"type":"Polygon","coordinates":[[[121.24450391366271,-27.92424070912708],[121.24423058715855,-27.932445999166827],[121.25453372890817,-27.932881938254095],[121.26442672427152,-27.93319981973074],[121.26453953454394,-27.924657921948228],[121.24450391366271,-27.92424070912708]]]},"properties":{"fmt_tenid":"M 37/552","type":"MINING LEASE","tenstatus":"LIVE","holder1":"DARLOT MINING COMPANY PTY LTD","holder2":"SOUTH DARLOT MINES PTY LTD","legal_area":184.45,"unit_of_me":"HA.","_colour":"#f5a520","_label":"Mining Lease"}},{"type":"Feature","geometry":{"type":"Polygon","coordinates":[[[121.07223742306851,-28.60819446193331],[121.07243066850077,-28.61371530448093],[121.08672235264696,-28.613325299367062],[121.08669224212703,-28.61604586232461],[121.0866520616443,-28.61967562893442],[121.0866953381651,-28.620588560615644],[121.08703784010203,-28.627812912934317],[121.08727959591548,-28.63291145196224],[121.08727888424397,-28.639528164110065],[121.09418130316212,-28.639529120155434],[121.09346787750688,-28.632741483493657],[121.09551408766995,-28.632685256680087],[121.09504878379975,-28.619451122115777],[121.10289332635266,-28.6192409146962],[121.10288902842245,-28.619037151036242],[121.1026066767357,-28.605642851568316],[121.09457046567206,-28.605863272565685],[121.08680242399488,-28.606075884140473],[121.07457252566384,-28.606409662109602],[121.07223742306851,-28.60819446193331]]]},"properties":{"fmt_tenid":"M 37/570","type":"MINING LEASE","tenstatus":"LIVE","holder1":"GREENSTONE RESOURCES (WA) PTY LTD","holder2":" ","legal_area":514.6,"unit_of_me":"HA.","_colour":"#f5a520","_label":"Mining Lease"}},{"type":"Feature","geometry":{"type":"Polygon","coordinates":[[[121.10998161277388,-28.65214024612365],[121.1166315639671,-28.650778030037536],[121.12013670074339,-28.664036039301877],[121.12814207814368,-28.662388522824394],[121.13113776877277,-28.6224183552789],[121.11815316849125,-28.622381596423924],[121.11851466988135,-28.632187882099235],[121.11053684439028,-28.632416366275965],[121.10839726269437,-28.63247754487017],[121.10912964960296,-28.641572170200064],[121.10926987278582,-28.643311664338523],[121.10998161277388,-28.65214024612365]]]},"properties":{"fmt_tenid":"M 37/571","type":"MINING LEASE","tenstatus":"LIVE","holder1":"GREENSTONE RESOURCES (WA) PTY LTD","holder2":" ","legal_area":688.65,"unit_of_me":"HA.","_colour":"#f5a520","_label":"Mining Lease"}},{"type":"Feature","geometry":{"type":"Polygon","coordinates":[[[121.13113776877277,-28.6224183552789],[121.12814207814368,-28.662388522824394],[121.12984086019439,-28.66802058251715],[121.13556097647977,-28.667289527510956],[121.1371943258081,-28.67627667012773],[121.15460825548101,-28.671387269746415],[121.1559900392734,-28.669974381185607],[121.15546764028164,-28.668957210540114],[121.15229830899912,-28.6627856893172],[121.1380438514213,-28.62239272829496],[121.13113776877277,-28.6224183552789]]]},"properties":{"fmt_tenid":"M 37/572","type":"MINING LEASE","tenstatus":"LIVE","holder1":"GREENSTONE RESOURCES (WA) PTY LTD","holder2":" ","legal_area":936.95,"unit_of_me":"HA.","_colour":"#f5a520","_label":"Mining Lease"}},{"type":"Feature","geometry":{"type":"Polygon","coordinates":[[[121.1380438514213,-28.62239272829496],[121.15229830899912,-28.6627856893172],[121.16245909406732,-28.658762512469227],[121.16262832049915,-28.657565243152934],[121.16363995179306,-28.658295005445453],[121.16713895543371,-28.656911122997098],[121.16215575279128,-28.63695021316808],[121.15626493581738,-28.61334504982721],[121.1380438514213,-28.62239272829496]]]},"properties":{"fmt_tenid":"M 37/573","type":"MINING LEASE","tenstatus":"LIVE","holder1":"GREENSTONE RESOURCES (WA) PTY LTD","holder2":" ","legal_area":853.2,"unit_of_me":"HA.","_colour":"#f5a520","_label":"Mining Lease"}},{"type":"Feature","geometry":{"type":"Polygon","coordinates":[[[121.15626493581738,-28.61334504982721],[121.16215575279128,-28.63695021316808],[121.16713895543371,-28.656911122997098],[121.1822371768686,-28.650221875392916],[121.18200897510482,-28.649803482939706],[121.1732505166537,-28.633250381845144],[121.17234220509481,-28.631533405744708],[121.17237145835328,-28.61230703306843],[121.15626493581738,-28.61334504982721]]]},"properties":{"fmt_tenid":"M 37/574","type":"MINING LEASE","tenstatus":"LIVE","holder1":"GREENSTONE RESOURCES (WA) PTY LTD","holder2":" ","legal_area":628.95,"unit_of_me":"HA.","_colour":"#f5a520","_label":"Mining Lease"}},{"type":"Feature","geometry":{"type":"Polygon","coordinates":[[[121.29818694135926,-27.924583150370303],[121.2980073945581,-27.933542497119753],[121.30240750914395,-27.93378424840194],[121.31240838604697,-27.934333180815454],[121.31384794137686,-27.93024118742064],[121.3156528161118,-27.92510983272303],[121.29818694135926,-27.924583150370303]]]},"properties":{"fmt_tenid":"M 37/584","type":"MINING LEASE","tenstatus":"LIVE","holder1":"DARLOT MINING COMPANY PTY LTD","holder2":" ","legal_area":159.25,"unit_of_me":"HA.","_colour":"#f5a520","_label":"Mining Lease"}},{"type":"Feature","geometry":{"type":"Polygon","coordinates":[[[121.21480998505466,-27.856933090099215],[121.21458381361651,-27.86468728894382],[121.23358568390792,-27.86487443065265],[121.23358748672932,-27.882423736938705],[121.24835801039472,-27.88260635739673],[121.25503056737747,-27.8882039855402],[121.2639825647768,-27.866752748172924],[121.27181007816004,-27.869067278792482],[121.27194926142987,-27.862774002024825],[121.25355643245346,-27.857549349411297],[121.23097520600852,-27.85735774743991],[121.21480998505466,-27.856933090099215]]]},"properties":{"fmt_tenid":"M 37/592","type":"MINING LEASE","tenstatus":"LIVE","holder1":"DARLOT MINING COMPANY PTY LTD","holder2":" ","legal_area":996.15,"unit_of_me":"HA.","_colour":"#f5a520","_label":"Mining Lease"}},{"type":"Feature","geometry":{"type":"Polygon","coordinates":[[[121.21458381361651,-27.86468728894382],[121.21432357295322,-27.8869067305244],[121.2219431667481,-27.887061586349866],[121.22331629457766,-27.89058478836357],[121.2235983788692,-27.90554211310239],[121.23668099095462,-27.90022112738248],[121.23794451244474,-27.90246354553624],[121.25194971745066,-27.897076450103413],[121.24920603596813,-27.89144250240189],[121.25102055596572,-27.89148682417125],[121.25397097907934,-27.890742125109043],[121.25503056737747,-27.8882039855402],[121.24835801039472,-27.88260635739673],[121.23358748672932,-27.882423736938705],[121.23358568390792,-27.86487443065265],[121.21458381361651,-27.86468728894382]]]},"properties":{"fmt_tenid":"M 37/608","type":"MINING LEASE","tenstatus":"LIVE","holder1":"DARLOT MINING COMPANY PTY LTD","holder2":" ","legal_area":998.8,"unit_of_me":"HA.","_colour":"#f5a520","_label":"Mining Lease"}},{"type":"Feature","geometry":{"type":"Polygon","coordinates":[[[121.22852759982564,-27.933876725156836],[121.22309033729094,-27.945665006711465],[121.23620076773237,-27.951648430984893],[121.23434640087953,-27.957943335301632],[121.24725812425382,-27.962103924750643],[121.25927659209358,-27.96312090112307],[121.25928744038755,-27.95507962769526],[121.25948544507732,-27.94192309542923],[121.25439737613576,-27.941998089776785],[121.25453372890817,-27.932881938254095],[121.24423058715855,-27.932445999166827],[121.24239617434398,-27.93261328246886],[121.22852759982564,-27.933876725156836]],[[121.24323424089414,-27.956741317475156],[121.24926344604873,-27.94521647464816],[121.25400765064536,-27.946784709783817],[121.24882944820068,-27.95884311365086],[121.24323424089414,-27.956741317475156]],[[121.23995240648544,-27.93835325362406],[121.24411700123042,-27.938519640200866],[121.24423952676248,-27.94063467261625],[121.24245593370297,-27.94049780611139],[121.23974058149079,-27.940287186828385],[121.23995240648544,-27.93835325362406]]]},"properties":{"fmt_tenid":"M 37/631","type":"MINING LEASE","tenstatus":"LIVE","holder1":"DARLOT MINING COMPANY PTY LTD","holder2":"SOUTH DARLOT MINES PTY LTD","legal_area":776.75,"unit_of_me":"HA.","_colour":"#f5a520","_label":"Mining Lease"}},{"type":"Feature","geometry":{"type":"Polygon","coordinates":[[[121.26981702055495,-27.942200404476715],[121.26948714639377,-27.95542038587927],[121.25928744038755,-27.95507962769526],[121.25927659209358,-27.96312090112307],[121.27991076646514,-27.963601141254262],[121.28005317918937,-27.955686928920716],[121.2978928508354,-27.95614606504176],[121.29792684468897,-27.950986271350533],[121.29798272267512,-27.942493837818162],[121.29403753511572,-27.942407552569644],[121.2750387552005,-27.94224538201928],[121.26981702055495,-27.942200404476715]]]},"properties":{"fmt_tenid":"M 37/632","type":"MINING LEASE","tenstatus":"LIVE","holder1":"DARLOT MINING COMPANY PTY LTD","holder2":" ","legal_area":594.95,"unit_of_me":"HA.","_colour":"#f5a520","_label":"Mining Lease"}},{"type":"Feature","geometry":{"type":"Polygon","coordinates":[[[121.28254113411695,-27.87480786814605],[121.2796585134894,-27.8822281374676],[121.29453112269813,-27.88799872246185],[121.2973930958951,-27.880586520305247],[121.28254113411695,-27.87480786814605]]]},"properties":{"fmt_tenid":"M 37/667","type":"MINING LEASE","tenstatus":"LIVE","holder1":"DARLOT MINING COMPANY PTY LTD","holder2":" ","legal_area":138.4,"unit_of_me":"HA.","_colour":"#f5a520","_label":"Mining Lease"}},{"type":"Feature","geometry":{"type":"Polygon","coordinates":[[[121.17019144361143,-28.66302062574395],[121.16363995179306,-28.658295005445453],[121.16262832049915,-28.657565243152934],[121.16245909406732,-28.658762512469227],[121.1620207173339,-28.66186387248781],[121.16348400293128,-28.662764616729937],[121.16445146662112,-28.663501958860795],[121.16453593936569,-28.66341573138446],[121.16613067768373,-28.664589707536965],[121.1686143445023,-28.666314198226768],[121.1701035271951,-28.667263906217606],[121.17019144361143,-28.66302062574395]]]},"properties":{"fmt_tenid":"M 37/67","type":"MINING LEASE","tenstatus":"LIVE","holder1":"GREENSTONE RESOURCES (WA) PTY LTD","holder2":" ","legal_area":38.095,"unit_of_me":"HA.","_colour":"#f5a520","_label":"Mining Lease"}},{"type":"Feature","geometry":{"type":"Polygon","coordinates":[[[121.2235983788692,-27.90554211310239],[121.22379668291995,-27.91532999251378],[121.24275440991732,-27.915398990636305],[121.24239617434398,-27.93261328246886],[121.24423058715855,-27.932445999166827],[121.24450391366271,-27.92424070912708],[121.24540373153607,-27.91582098730517],[121.24465073627188,-27.91610443356542],[121.24413785478309,-27.9149726039296],[121.22886037751908,-27.912858121569105],[121.22878400347336,-27.911459388153546],[121.22675112152233,-27.912175084304177],[121.2235983788692,-27.90554211310239]]]},"properties":{"fmt_tenid":"M 37/709","type":"MINING LEASE","tenstatus":"LIVE","holder1":"DARLOT MINING COMPANY PTY LTD","holder2":"SOUTH DARLOT MINES PTY LTD","legal_area":92.44,"unit_of_me":"HA.","_colour":"#f5a520","_label":"Mining Lease"}},{"type":"Feature","geometry":{"type":"Polygon","coordinates":[[[121.17546913071074,-28.667482697065385],[121.17250417153639,-28.667176021299483],[121.17183333538082,-28.665970776546537],[121.17019144361143,-28.66302062574395],[121.1701035271951,-28.667263906217606],[121.17296119500492,-28.669086239810206],[121.16664974418636,-28.675645520617383],[121.1656938634511,-28.67491733659941],[121.1651791340556,-28.67594413355422],[121.17022845689677,-28.676397385388295],[121.17413845703344,-28.67639552149525],[121.17763534403974,-28.67639375866848],[121.17699486576069,-28.67524330136916],[121.17543144382161,-28.67243486555828],[121.17546913071074,-28.667482697065385]]]},"properties":{"fmt_tenid":"M 37/76","type":"MINING LEASE","tenstatus":"LIVE","holder1":"GREENSTONE RESOURCES (WA) PTY LTD","holder2":" ","legal_area":65.555,"unit_of_me":"HA.","_colour":"#f5a520","_label":"Mining Lease"}},{"type":"Feature","geometry":{"type":"Polygon","coordinates":[[[121.2980073945581,-27.933542497119753],[121.29800811465724,-27.93446847567453],[121.29461883689241,-27.93441484559128],[121.29403753511572,-27.942407552569644],[121.29798272267512,-27.942493837818162],[121.29792684468897,-27.950986271350533],[121.30198933793018,-27.950965202935226],[121.30231753426773,-27.942826788852532],[121.2963191311275,-27.941374304529827],[121.29880827670726,-27.934723993764056],[121.30239168415739,-27.93593213683913],[121.30240750914395,-27.93378424840194],[121.2980073945581,-27.933542497119753]]]},"properties":{"fmt_tenid":"M 37/774","type":"MINING LEASE","tenstatus":"LIVE","holder1":"DARLOT MINING COMPANY PTY LTD","holder2":" ","legal_area":75.815,"unit_of_me":"HA.","_colour":"#f5a520","_label":"Mining Lease"}},{"type":"Feature","geometry":{"type":"Polygon","coordinates":[[[121.2773459851394,-27.914296223628384],[121.27683715526142,-27.932930910711413],[121.2980073945581,-27.933542497119753],[121.29818694135926,-27.924583150370303],[121.3156528161118,-27.92510983272303],[121.31825499545471,-27.9253166811582],[121.31752688694601,-27.917224194557267],[121.3065546098281,-27.9168885234911],[121.30632741566353,-27.91442018623744],[121.29669151260198,-27.915414957065],[121.2773459851394,-27.914296223628384]]]},"properties":{"fmt_tenid":"M 37/775","type":"MINING LEASE","tenstatus":"LIVE","holder1":"DARLOT MINING COMPANY PTY LTD","holder2":" ","legal_area":609.95,"unit_of_me":"HA.","_colour":"#f5a520","_label":"Mining Lease"}},{"type":"Feature","geometry":{"type":"Polygon","coordinates":[[[121.30249087320406,-27.89733035912788],[121.30126928133929,-27.90022615226921],[121.30081515938699,-27.90006920011101],[121.29819057735652,-27.906651418723545],[121.29669151260198,-27.915414957065],[121.30632741566353,-27.91442018623744],[121.3061837070588,-27.907594108555344],[121.30628825743932,-27.907342462829142],[121.30971226494604,-27.899101621494943],[121.30249087320406,-27.89733035912788]]]},"properties":{"fmt_tenid":"M 37/776","type":"MINING LEASE","tenstatus":"LIVE","holder1":"BAKER, ROBERT ALBERT LAWRENCE","holder2":"DARLOT MINING COMPANY PTY LTD","legal_area":155.95,"unit_of_me":"HA.","_colour":"#f5a520","_label":"Mining Lease"}},{"type":"Feature","geometry":{"type":"Polygon","coordinates":[[[121.15460825548101,-28.671387269746415],[121.15089155149118,-28.67518737825476],[121.14733322697747,-28.678480101026977],[121.15519428000599,-28.68479700315454],[121.1591977346921,-28.683976148410927],[121.16423705120927,-28.682942721287503],[121.1631992400271,-28.680807423075017],[121.16183664311485,-28.68135688633688],[121.15830337201538,-28.674478438300593],[121.16076953725134,-28.67608283611128],[121.16344884788369,-28.673207044265585],[121.15997656720928,-28.67056739705016],[121.1592245582269,-28.66999568565784],[121.16191361866514,-28.667251829040474],[121.16126332809243,-28.666756234825176],[121.16004862519343,-28.66583047462431],[121.1573595600483,-28.668573980707528],[121.15599003927338,-28.669974382185664],[121.15460825548101,-28.671387269746415]]]},"properties":{"fmt_tenid":"M 37/90","type":"MINING LEASE","tenstatus":"LIVE","holder1":"GREENSTONE RESOURCES (WA) PTY LTD","holder2":" ","legal_area":166.85,"unit_of_me":"HA.","_colour":"#f5a520","_label":"Mining Lease"}},{"type":"Feature","geometry":{"type":"Polygon","coordinates":[[[121.08427699936131,-28.651921233957168],[121.08461327506696,-28.657357240657714],[121.09261883607395,-28.65571498864224],[121.09268290205026,-28.651725154795948],[121.08427699936131,-28.651921233957168]]]},"properties":{"fmt_tenid":"M 37/905","type":"MINING LEASE","tenstatus":"LIVE","holder1":"GREENSTONE RESOURCES (WA) PTY LTD","holder2":" ","legal_area":42.045,"unit_of_me":"HA.","_colour":"#f5a520","_label":"Mining Lease"}}]}