{"type":"FeatureCollection","_source":"WA DMIRS via SLIP public API","_holders":["HAMERSLEY IRON PTY. LIMITED","ROBE RIVER MINING CO. PTY. LTD.","HAMERSLEY IRON PTY LIMITED"],"_ticker":"RIO.AX","features":[{"type":"Feature","geometry":{"type":"Polygon","coordinates":[[[120.20000000005884,-23.333333332520798],[120.20000000044503,-23.316666666619486],[120.21666666655761,-23.316666667148695],[120.23333333289614,-23.316666667178136],[120.24999999991284,-23.316666667077804],[120.25000000023086,-23.2999999998008],[120.23333333301257,-23.299999999805824],[120.23333333292402,-23.283333332791223],[120.21666666703875,-23.28333333288522],[120.21666666659726,-23.266666666506147],[120.19999999961047,-23.266666667367033],[120.18333333313176,-23.266666667281573],[120.18333333323824,-23.249999999593463],[120.16666666720944,-23.249999999649408],[120.14999999983378,-23.250000000050772],[120.15000000000538,-23.233333332634636],[120.13333333292935,-23.233333332963745],[120.13333333306986,-23.21666666666819],[120.1166666673431,-23.216666667366354],[120.09999999967603,-23.216666666988235],[120.08333333333435,-23.216666667303173],[120.06666666717761,-23.216666666690134],[120.05000000031117,-23.216666667195675],[120.0333333332001,-23.21666666703904],[120.01666666657293,-23.216666667400972],[120.01666666712326,-23.200000000203058],[120.01666666721329,-23.183333333078753],[120.01666666716748,-23.16666666740191],[120.00000000046694,-23.166666667350317],[119.98333333279056,-23.166666667351514],[119.98333333329342,-23.150000000296085],[119.96666666749478,-23.14999999992023],[119.96666666672046,-23.133333333060296],[119.9500000001662,-23.133333332620143],[119.93333333325172,-23.133333333409684],[119.93333333296667,-23.11666666666326],[119.91666666749526,-23.116666666686655],[119.91666666705441,-23.100000000149954],[119.89999999971965,-23.100000000172038],[119.88333333317757,-23.099999999935232],[119.88333333271201,-23.116666666647887],[119.88333333339403,-23.13333333310185],[119.88333333325915,-23.149999999603544],[119.8833333328058,-23.166666667057722],[119.9000000004445,-23.166666667041532],[119.91666666652817,-23.166666667498156],[119.916666667153,-23.183333333139228],[119.93333333306954,-23.183333332949694],[119.93333333313376,-23.200000000077004],[119.94999999976748,-23.200000000428194],[119.96666666667691,-23.200000000288927],[119.96666666700828,-23.216666667498465],[119.98333333311294,-23.216666667227983],[120.00000000007088,-23.216666666690628],[119.99999999989006,-23.23333333260047],[120.01666666666885,-23.233333333041568],[120.03333333295218,-23.233333332834757],[120.04999999950273,-23.233333332740187],[120.06666666745694,-23.233333333451366],[120.06666666661086,-23.24999999991364],[120.08333333263539,-23.249999999808118],[120.09999999953445,-23.249999999720767],[120.09999999988014,-23.266666666748147],[120.1166666667278,-23.266666667023387],[120.11666666722137,-23.283333333222288],[120.11666666780766,-23.28947425049591],[120.13339279544098,-23.289473900274018],[120.16059218933773,-23.28946945104144],[120.16059282986295,-23.31584652677251],[120.16059272378995,-23.333333354255988],[120.16666666700988,-23.333333332755355],[120.18333333295182,-23.333333332887328],[120.20000000005884,-23.333333332520798]]]},"properties":{"fmt_tenid":"E 46/580-I","type":"EXPLORATION LICENCE","tenstatus":"LIVE","holder1":"HAMERSLEY IRON PTY. LIMITED","holder2":" ","legal_area":70,"unit_of_me":"BL.","_colour":"#a0c4f0","_label":"Exploration Licence"}},{"type":"Feature","geometry":{"type":"Polygon","coordinates":[[[120.23333333292402,-23.283333332791223],[120.23333333301257,-23.299999999805824],[120.25000000023086,-23.2999999998008],[120.26666666737727,-23.300000000335636],[120.26666666681672,-23.283333333001966],[120.25000000014862,-23.28333333315498],[120.24999999964596,-23.266666667164507],[120.23333333342376,-23.266666667026534],[120.23333333327419,-23.2500000001225],[120.21666666658699,-23.249999999620027],[120.19999999999932,-23.249999999861203],[120.19999999985133,-23.233333332604275],[120.18333333306481,-23.233333333077937],[120.16666666657699,-23.23333333251996],[120.16666666694991,-23.21666666683979],[120.15000000020117,-23.216666667458615],[120.14999999970813,-23.199999999768494],[120.13333333274747,-23.200000000361904],[120.1166666674133,-23.200000000453183],[120.11666666726913,-23.183333333104308],[120.09999999961974,-23.183333332640448],[120.08333333342358,-23.183333333211216],[120.08333333329917,-23.166666666709343],[120.0666666672155,-23.166666666508352],[120.05000000027029,-23.166666666536546],[120.03333333270984,-23.16666666654721],[120.01666666716748,-23.16666666740191],[120.01666666721329,-23.183333333078753],[120.01666666712326,-23.200000000203058],[120.01666666657293,-23.216666667400972],[120.0333333332001,-23.21666666703904],[120.05000000031117,-23.216666667195675],[120.06666666717761,-23.216666666690134],[120.08333333333435,-23.216666667303173],[120.09999999967603,-23.216666666988235],[120.1166666673431,-23.216666667366354],[120.13333333306986,-23.21666666666819],[120.13333333292935,-23.233333332963745],[120.15000000000538,-23.233333332634636],[120.14999999983378,-23.250000000050772],[120.16666666720944,-23.249999999649408],[120.18333333323824,-23.249999999593463],[120.18333333313176,-23.266666667281573],[120.19999999961047,-23.266666667367033],[120.21666666659726,-23.266666666506147],[120.21666666703875,-23.28333333288522],[120.23333333292402,-23.283333332791223]]]},"properties":{"fmt_tenid":"E 46/662-I","type":"EXPLORATION LICENCE","tenstatus":"LIVE","holder1":"HAMERSLEY IRON PTY. LIMITED","holder2":" ","legal_area":30,"unit_of_me":"BL.","_colour":"#a0c4f0","_label":"Exploration Licence"}},{"type":"Feature","geometry":{"type":"Polygon","coordinates":[[[117.46800582973108,-22.34867760755527],[117.45133928731428,-22.34867784821161],[117.43467276653344,-22.348678309155357],[117.43333333341138,-22.3486784088732],[117.43333333326518,-22.350000000079298],[117.4333333333381,-22.366666667471442],[117.44999999975046,-22.36666666748539],[117.46666666710983,-22.366666666659757],[117.4680061240569,-22.366666729592108],[117.46800610158694,-22.365345145743706],[117.4846726480769,-22.3653449143143],[117.50133919285952,-22.3653446820832],[117.51800570774277,-22.36534435509732],[117.53467222233628,-22.36534402653651],[117.55133873629313,-22.365343699455345],[117.55133865269303,-22.34867649351619],[117.53467207385586,-22.348676705613226],[117.5180054945763,-22.348676918053698],[117.50133891633546,-22.348677128715735],[117.48467237282479,-22.34867736852477],[117.46800582973108,-22.34867760755527]]]},"properties":{"fmt_tenid":"E 47/1054-I","type":"EXPLORATION LICENCE","tenstatus":"LIVE","holder1":"HAMERSLEY IRON PTY. LIMITED","holder2":" ","legal_area":7,"unit_of_me":"BL.","_colour":"#a0c4f0","_label":"Exploration Licence"}},{"type":"Feature","geometry":{"type":"Polygon","coordinates":[[[116.66666666731517,-22.64999999994153],[116.66666666706227,-22.666666666553215],[116.68333333327683,-22.66666666683573],[116.69999999983602,-22.666666666766037],[116.70000000047631,-22.65000000027279],[116.68333333304231,-22.65000000000106],[116.68333333252278,-22.63333333318097],[116.68333333318004,-22.616666667379953],[116.66666666748222,-22.616666667067598],[116.64999999981336,-22.616666667459594],[116.63333333344323,-22.61666666728476],[116.61666666741588,-22.616666666999865],[116.59999999964039,-22.616666666957997],[116.6000000004095,-22.59999999963131],[116.58333333313554,-22.60000000038062],[116.5833333331497,-22.616666666831637],[116.58333333327735,-22.633333333273747],[116.60000000020969,-22.633333332578832],[116.59999999986066,-22.65000000037445],[116.60000000004804,-22.66666666722753],[116.61666666689943,-22.66666666737108],[116.63333333250513,-22.666666666824653],[116.633333332522,-22.649999999669593],[116.65000000047057,-22.650000000196506],[116.66666666731517,-22.64999999994153]]]},"properties":{"fmt_tenid":"E 47/1218-I","type":"EXPLORATION LICENCE","tenstatus":"LIVE","holder1":"HAMERSLEY IRON PTY. LIMITED","holder2":" ","legal_area":16,"unit_of_me":"BL.","_colour":"#a0c4f0","_label":"Exploration Licence"}},{"type":"Feature","geometry":{"type":"Polygon","coordinates":[[[119.4999999996839,-23.083333333165154],[119.49859973675437,-23.08333333297054],[119.5053068202858,-23.086943372598192],[119.47736309650422,-23.13333332992693],[119.48333333284458,-23.13333333309107],[119.48333333247886,-23.14237268156799],[119.48870252238761,-23.144632058590247],[119.48525960168259,-23.150000010211595],[119.49177031970648,-23.150000001189806],[119.49801622592906,-23.136191708491495],[119.50754109744956,-23.115127930375404],[119.53159180434908,-23.124577412771693],[119.54799039088438,-23.131017585816938],[119.5538892827228,-23.133333331251897],[119.56600525177728,-23.13333336669196],[119.56666666682985,-23.1318925402064],[119.56666666730318,-23.116666666822358],[119.56666666703963,-23.10000000036048],[119.56666666701754,-23.083333333040148],[119.54999999998992,-23.083333333126188],[119.5333333328147,-23.083333333052693],[119.5166666674144,-23.083333333499244],[119.4999999996839,-23.083333333165154]]]},"properties":{"fmt_tenid":"E 47/1228-I","type":"EXPLORATION LICENCE","tenstatus":"LIVE","holder1":"HAMERSLEY IRON PTY. LIMITED","holder2":" ","legal_area":17,"unit_of_me":"BL.","_colour":"#a0c4f0","_label":"Exploration Licence"}},{"type":"Feature","geometry":{"type":"Polygon","coordinates":[[[118.7000000002864,-22.699999999789224],[118.69999999978185,-22.68333333345293],[118.69999999989682,-22.666666666854034],[118.6999999998346,-22.65000000008903],[118.68333333313383,-22.650000000305933],[118.68333333257945,-22.633333333112425],[118.6666666674483,-22.63333333313949],[118.66666666706602,-22.650000000112748],[118.66666666745651,-22.66666666662887],[118.6500000002974,-22.666666666652674],[118.64999999968968,-22.683333333275655],[118.63333333343652,-22.683333332992685],[118.61666666724986,-22.68333333291603],[118.61666666748219,-22.69999999983262],[118.63333333289138,-22.699999999950293],[118.64999999960597,-22.700000000293485],[118.66666666694287,-22.700000000230666],[118.68333333274143,-22.70000000025628],[118.7000000002864,-22.699999999789224]]]},"properties":{"fmt_tenid":"E 47/1243-I","type":"EXPLORATION LICENCE","tenstatus":"LIVE","holder1":"HAMERSLEY IRON PTY. LIMITED","holder2":" ","legal_area":11,"unit_of_me":"BL.","_colour":"#a0c4f0","_label":"Exploration Licence"}},{"type":"Feature","geometry":{"type":"Polygon","coordinates":[[[116.78333333343446,-22.68333333290383],[116.78333333314461,-22.700000000161765],[116.78333333282238,-22.715360737161813],[116.783333332553,-22.766666609112857],[116.80000000036183,-22.76666666733245],[116.8166666665394,-22.76666666707581],[116.81666666743912,-22.78333333279875],[116.83333333346994,-22.78333333273923],[116.85000000038205,-22.783333332702394],[116.8499999996135,-22.800000000093245],[116.86666666687228,-22.800000000137562],[116.8833333326134,-22.79999999978496],[116.90000000031378,-22.800000000467012],[116.91666666659502,-22.79999999960789],[116.91666666736148,-22.78333333341636],[116.91800763521158,-22.78333334498325],[116.91800762240841,-22.7820256939422],[116.94156540060486,-22.782024794391806],[116.96800750905389,-22.782024348875],[116.98467412121461,-22.78202355820124],[117.00134073354023,-22.782022767979317],[117.00134073769863,-22.783333345080674],[117.01666666662581,-22.783333333364613],[117.01666666681871,-22.766666666771858],[117.01666666676209,-22.750000000053937],[117.00000000030424,-22.74999999990641],[117.00000000012216,-22.733333333359244],[116.98333333320566,-22.733333333248755],[116.98333333336485,-22.716666666526212],[116.96666666726505,-22.71666666745994],[116.96666666651782,-22.699999999764554],[116.95000000009271,-22.699999999907362],[116.93333333291027,-22.700000000148272],[116.93333333339287,-22.716666667155902],[116.91666666730673,-22.716666666670438],[116.89999999980762,-22.716666666619506],[116.88333333328175,-22.71666666709884],[116.8666666669611,-22.716666666901848],[116.84999999957073,-22.716666666678247],[116.83333333345244,-22.7166666671156],[116.83333333317934,-22.700000000343277],[116.81666666684544,-22.700000000069416],[116.8166666668072,-22.683333332834415],[116.79999999963546,-22.683333332660364],[116.78333333343446,-22.68333333290383]]]},"properties":{"fmt_tenid":"E 47/1277-I","type":"EXPLORATION LICENCE","tenstatus":"LIVE","holder1":"HAMERSLEY IRON PTY. LIMITED","holder2":" ","legal_area":62,"unit_of_me":"BL.","_colour":"#a0c4f0","_label":"Exploration Licence"}},{"type":"Feature","geometry":{"type":"Polygon","coordinates":[[[117.50000000030731,-21.94166666724774],[117.49999999981921,-21.933333333438235],[117.50000000027754,-21.916666667372795],[117.49999999977979,-21.8999999998194],[117.51666666726086,-21.89999999966489],[117.5166666673738,-21.883333333083804],[117.51666666670326,-21.866666666774535],[117.49999999955746,-21.866666667423203],[117.5000000002237,-21.849999999612233],[117.48333333326202,-21.84999999953892],[117.46666666735288,-21.849999999955983],[117.44999999989626,-21.849999999976486],[117.43333333310714,-21.84999999991393],[117.43333333335838,-21.866666667418897],[117.43333333307216,-21.883333332546854],[117.43333333329402,-21.900000000300157],[117.44999999964553,-21.90000000042269],[117.4500000004915,-21.916666666504987],[117.44999999961293,-21.933333332533756],[117.44999999961566,-21.947093537142777],[117.45085504922287,-21.94760563465358],[117.45342377175115,-21.943962202149702],[117.50000000047677,-21.943963505022055],[117.50000000030731,-21.94166666724774]]]},"properties":{"fmt_tenid":"E 47/1322-I","type":"EXPLORATION LICENCE","tenstatus":"LIVE","holder1":"HAMERSLEY IRON PTY. LIMITED","holder2":" ","legal_area":23,"unit_of_me":"BL.","_colour":"#a0c4f0","_label":"Exploration Licence"}},{"type":"Feature","geometry":{"type":"Polygon","coordinates":[[[118.80000000015886,-22.816666667074617],[118.80000000043216,-22.833333333444358],[118.79999999963061,-22.85000000035035],[118.80000000031961,-22.85425135914067],[118.80000000031018,-22.866666667354924],[118.79999999968697,-22.882005911191282],[118.80915426963267,-22.88200633989228],[118.8095925061725,-22.88333333268572],[118.81666666675856,-22.883333333462488],[118.81666666653919,-22.904754212574964],[118.81961982956042,-22.913696519583663],[118.91666666707155,-22.902657490235356],[118.91666666710209,-22.89999999996671],[118.9333333334906,-22.900000000166642],[118.94002760218193,-22.90000019360743],[118.98333333265816,-22.895074187595938],[118.98333333340146,-22.88333333348581],[118.99999999995816,-22.883333333182456],[118.9999999997567,-22.866666667247635],[119.00000000011381,-22.850000000252173],[119.0000000004523,-22.833333332792918],[118.9999999996974,-22.816666666512734],[118.9833333332615,-22.816666667264375],[118.96666666663441,-22.81666666734477],[118.94999999984006,-22.816666666534854],[118.93333333347285,-22.816666667438348],[118.91666666696086,-22.816666666913164],[118.90186115191901,-22.816666756131703],[118.90000000188707,-22.81666666705573],[118.88333333363695,-22.81666666372059],[118.86666667122518,-22.816666667694275],[118.85000000396191,-22.816666667906663],[118.83333333290022,-22.81666666709693],[118.81666666696248,-22.816666667042526],[118.80000000015886,-22.816666667074617]]]},"properties":{"fmt_tenid":"E 47/1329-I","type":"EXPLORATION LICENCE","tenstatus":"LIVE","holder1":"HAMERSLEY IRON PTY. LIMITED","holder2":" ","legal_area":64,"unit_of_me":"BL.","_colour":"#a0c4f0","_label":"Exploration Licence"}},{"type":"Feature","geometry":{"type":"MultiPolygon","coordinates":[[[[117.82083333303795,-23.199999999810352],[117.8237768496466,-23.200000010995662],[117.82743964130326,-23.16777423098669],[117.82930834745294,-23.15133125197651],[117.83333333279309,-23.150540787318544],[117.83333333278595,-23.149999999730397],[117.83608659144625,-23.150000012058467],[117.89326201295994,-23.138758248565054],[117.95578171435274,-23.136738743729243],[117.9666666669159,-23.133469046770283],[117.96666666732656,-23.133333333078888],[117.95000000006054,-23.133333332972978],[117.93333333345707,-23.13333333284022],[117.93333333285672,-23.116666667408662],[117.91666666668094,-23.11666666673997],[117.90000000003151,-23.116666667080555],[117.88333333265523,-23.116666666722367],[117.86666666673717,-23.11666666722197],[117.84999999960675,-23.116666666517574],[117.85000000039881,-23.133333332530604],[117.8333333333538,-23.133333332579223],[117.81666666669662,-23.133333332942332],[117.8166666672993,-23.15000000025992],[117.81666666733429,-23.166666666651075],[117.8000000000429,-23.16666666660438],[117.79999999956092,-23.183333332986006],[117.7833333334233,-23.18333333285343],[117.78333333288639,-23.199999999985305],[117.80000000032813,-23.200000000393274],[117.81666666659181,-23.199999999963683],[117.82083333303795,-23.199999999810352]]],[[[117.99998555816494,-23.15067801040375],[117.95258013394523,-23.164918442537733],[117.90000000047509,-23.166618767078663],[117.9000000003859,-23.166666667422977],[117.91666666744855,-23.166666666510356],[117.91666666666352,-23.183333332710568],[117.93333333308497,-23.183333332637957],[117.95000000022705,-23.183333332593577],[117.96666666745696,-23.18333333269201],[117.98333333298136,-23.183333332617195],[117.99998582312878,-23.18333332983714],[117.99999999969036,-23.166666667242406],[117.99998555816494,-23.15067801040375]]]]},"properties":{"fmt_tenid":"E 47/1478-I","type":"EXPLORATION LICENCE","tenstatus":"LIVE","holder1":"HAMERSLEY IRON PTY. LIMITED","holder2":" ","legal_area":31,"unit_of_me":"BL.","_colour":"#a0c4f0","_label":"Exploration Licence"}},{"type":"Feature","geometry":{"type":"Polygon","coordinates":[[[118.23333333337446,-22.16666666650261],[118.23333333316661,-22.1833333333884],[118.23333333279342,-22.20000000032771],[118.23333333264127,-22.21666666713615],[118.23333333262457,-22.23333333309434],[118.2500000000243,-22.233333332942706],[118.26666666714942,-22.233333332703],[118.28333333282671,-22.233333333106827],[118.3000000002689,-22.233333333232018],[118.29999999992259,-22.24999999960841],[118.3166666673239,-22.249999999603425],[118.33333333277618,-22.250000000374232],[118.35000000038201,-22.25000000019971],[118.35000000020125,-22.26666666695308],[118.3666666671814,-22.266666666518358],[118.36666666720733,-22.28333333276734],[118.37686269077192,-22.283333345812263],[118.37686275491578,-22.279751029531518],[118.37297868743848,-22.279751671670006],[118.37297890728468,-22.26843809906708],[118.38126341707911,-22.268436986913088],[118.38126350965037,-22.262963259736253],[118.43141060001264,-22.281514749500264],[118.43653772703532,-22.2833333431623],[118.45000000027267,-22.283333333233553],[118.44999999942097,-22.289117654891598],[118.46400266029649,-22.297913189928252],[118.46805703973418,-22.298199539817684],[118.47165458016426,-22.2988777497954],[118.47337712678149,-22.300000012927264],[118.48333333251045,-22.300000000474025],[118.483333333265,-22.283333333275987],[118.49999999975839,-22.2833333330644],[118.4999999996976,-22.2666666673762],[118.51666666737009,-22.266666667351814],[118.53333333279801,-22.266666667053],[118.53333333288403,-22.249999999548873],[118.51666666699921,-22.249999999999233],[118.49999999968882,-22.249999999890928],[118.49999999963022,-22.233333332646442],[118.48333333259707,-22.23333333327246],[118.46666666730755,-22.233333332775306],[118.45000000032364,-22.2333333332408],[118.43333333298033,-22.233333332782152],[118.43333333295737,-22.216666667019094],[118.41666666699487,-22.216666667125285],[118.39999999999317,-22.21666666665751],[118.38333333293602,-22.21666666730538],[118.38333333327752,-22.200000000155285],[118.36666666695976,-22.20000000043581],[118.36666666737636,-22.183333332915712],[118.36666666656183,-22.166666666525636],[118.34999999980867,-22.16666666706078],[118.33333333346641,-22.16666666740121],[118.31666666652433,-22.16666666684303],[118.2999999996466,-22.166666666847703],[118.2833333333078,-22.166666667295992],[118.26666666723696,-22.16666666656637],[118.2500000003504,-22.166666666873276],[118.23333333337446,-22.16666666650261]]]},"properties":{"fmt_tenid":"E 47/1490-I","type":"EXPLORATION LICENCE","tenstatus":"LIVE","holder1":"HAMERSLEY IRON PTY. LIMITED","holder2":" ","legal_area":70,"unit_of_me":"BL.","_colour":"#a0c4f0","_label":"Exploration Licence"}},{"type":"Feature","geometry":{"type":"Polygon","coordinates":[[[119.4791666672951,-23.13333333349021],[119.47736309650422,-23.13333332992693],[119.47422648643628,-23.138540483310766],[119.48333333247886,-23.14237268156799],[119.48333333284458,-23.13333333309107],[119.4791666672951,-23.13333333349021]]]},"properties":{"fmt_tenid":"E 47/1522-I","type":"EXPLORATION LICENCE","tenstatus":"LIVE","holder1":"HAMERSLEY IRON PTY. LIMITED","holder2":" ","legal_area":1,"unit_of_me":"BL.","_colour":"#a0c4f0","_label":"Exploration Licence"}},{"type":"Feature","geometry":{"type":"Polygon","coordinates":[[[118.83333333299566,-22.516666666895066],[118.84999999971203,-22.516666667488558],[118.86666666749709,-22.516666667008906],[118.86666666689442,-22.533333332730592],[118.88333333250219,-22.533333333417847],[118.90000000022613,-22.533333333045356],[118.89999999950628,-22.550000000006452],[118.9166666668885,-22.5500000003452],[118.93333333263402,-22.55000000046816],[118.93333333340307,-22.566666667414964],[118.95000000037928,-22.566666666919584],[118.96666666693237,-22.56666666676028],[118.9666666671395,-22.583333333219855],[118.9833333329749,-22.583333333229568],[118.99999999952732,-22.583333333121125],[119.0166666672902,-22.583333333157643],[119.01666666677609,-22.600000000028174],[119.0166666669697,-22.61666666657266],[119.016666666704,-22.633333333438785],[119.03333333328798,-22.63333333348521],[119.05000000014117,-22.633333332648736],[119.04999999966762,-22.65000000022434],[119.06666666669871,-22.650000000282446],[119.0833333334123,-22.64999999987323],[119.10000000003333,-22.64999999952036],[119.11666666749827,-22.650000000222427],[119.11666666668323,-22.666666667335676],[119.13333333278649,-22.66666666718587],[119.14999999987307,-22.666666666706586],[119.16666666686989,-22.666666667425005],[119.16666666695782,-22.68333333273346],[119.18333333255619,-22.68333333263361],[119.2000000004072,-22.68333333300511],[119.21666666662374,-22.68333333298508],[119.21666666724889,-22.66788507537868],[119.21491443599675,-22.666666666664927],[119.20000000042333,-22.666666666605494],[119.20000000002716,-22.65629216177776],[119.19545281583632,-22.65312910900124],[119.19095643792383,-22.650000000346502],[119.18333333295261,-22.65000000001848],[119.1833333325672,-22.644694947380415],[119.1738166104144,-22.638072091879092],[119.1827298248977,-22.621107642200837],[119.1724649795336,-22.61666666674573],[119.16666666690773,-22.616666667344955],[119.16666666713319,-22.614158089102364],[119.16051357984533,-22.611496022273407],[119.140934559264,-22.60302152756611],[119.14147167002027,-22.602771549664286],[119.1456621863107,-22.60000000661072],[119.14390777616511,-22.600000006670065],[119.1409029403992,-22.60198887997812],[119.1397691439115,-22.602516986773797],[119.13698485342327,-22.60131153932336],[119.13395631191734,-22.59999999984588],[119.13333333316457,-22.599999999770958],[119.13333333719156,-22.599730214904866],[119.11388899603072,-22.591309654364803],[119.09048590387785,-22.581168917162973],[119.08693453580867,-22.588239794262616],[119.07494507685429,-22.583333333230236],[119.06666666650128,-22.58333333323588],[119.06666666711799,-22.57994554884704],[119.06543957491085,-22.579443384613747],[119.04114049706668,-22.56949427831667],[119.03423811471842,-22.566666667286178],[119.01666666736298,-22.56666666674451],[119.01666666735126,-22.55946839554032],[119.01493061949839,-22.55875721072687],[118.99356616594267,-22.54999999975319],[118.98333333321305,-22.54999999962187],[118.98333333342872,-22.54580408145495],[118.96659113915938,-22.53893805697353],[118.96736005661516,-22.537406625908197],[118.95819107056826,-22.53333333311307],[118.9500000002729,-22.533333332749702],[118.95000000017183,-22.52969447594565],[118.94703845344038,-22.528378818110127],[118.9240932627616,-22.518180634636664],[118.92068853099086,-22.516666666576675],[118.91666666729884,-22.516666667351405],[118.91666666744996,-22.51487828238982],[118.90390518001543,-22.509203684865106],[118.8841285422508,-22.50063927569347],[118.8826531514354,-22.499999999554383],[118.86666666675305,-22.49999999986421],[118.86666666699314,-22.493073174793178],[118.85832654869965,-22.489459464316877],[118.84419529802938,-22.483333332530904],[118.83333333285432,-22.483333333166115],[118.83333333341791,-22.50000000014308],[118.83333333299566,-22.516666666895066]],[[119.12902638317182,-22.60402582793046],[119.12978447696914,-22.603742509238145],[119.13000935076906,-22.604538090836545],[119.12924457295952,-22.60485044750071],[119.12902638317182,-22.60402582793046]],[[119.12771400840673,-22.60676016710653],[119.12902207298335,-22.606002236798524],[119.12904942096168,-22.606634190445217],[119.12803490229587,-22.607295160871136],[119.12771400840673,-22.60676016710653]],[[119.09712436689301,-22.616730200544325],[119.10003478178835,-22.61561316079964],[119.10356704573144,-22.614317892189305],[119.1039677791902,-22.61533942477129],[119.09732085075416,-22.61704755040924],[119.09712436689301,-22.616730200544325]],[[119.10352374746049,-22.617870953432345],[119.10147833262977,-22.61744935615901],[119.10136177382093,-22.616984650372263],[119.10341500801073,-22.616491921086656],[119.10352374746049,-22.617870953432345]],[[119.08245749271015,-22.63731579167121],[119.08351142739025,-22.633581780935927],[119.08428533397213,-22.633905952978395],[119.08343271292459,-22.637342245018306],[119.08245749271015,-22.63731579167121]]]},"properties":{"fmt_tenid":"E 47/1539-I","type":"EXPLORATION LICENCE","tenstatus":"LIVE","holder1":"HAMERSLEY IRON PTY. LIMITED","holder2":" ","legal_area":70,"unit_of_me":"BL.","_colour":"#a0c4f0","_label":"Exploration Licence"}},{"type":"Feature","geometry":{"type":"Polygon","coordinates":[[[116.79999999962041,-22.499999999700293],[116.81666666723366,-22.50000000033319],[116.81666666684966,-22.48333333293651],[116.79999999967445,-22.483333333381516],[116.7885155430037,-22.483333332940077],[116.78602576980188,-22.487531409592258],[116.77071572419875,-22.482036801070706],[116.77147620969534,-22.476635569937603],[116.7833333327413,-22.47933442445747],[116.78333333290735,-22.46666666702075],[116.76666666707372,-22.46666666745067],[116.75133699188157,-22.466666730039737],[116.75133705115681,-22.471886101967595],[116.75964945818768,-22.47365689215348],[116.75886867715204,-22.47805847691376],[116.7513370901165,-22.47676515787234],[116.7513373385097,-22.49869216911097],[116.75000000015034,-22.498692176541347],[116.7499999995901,-22.500000000034948],[116.76666666667022,-22.500000000403908],[116.78333333299896,-22.50000000043674],[116.79999999962041,-22.499999999700293]],[[116.79693959733315,-22.489484466977647],[116.79945698672964,-22.485101829039632],[116.81579571577011,-22.490057988059633],[116.81283531002813,-22.494428701870753],[116.79693959733315,-22.489484466977647]]]},"properties":{"fmt_tenid":"E 47/1783-I","type":"EXPLORATION LICENCE","tenstatus":"LIVE","holder1":"HAMERSLEY IRON PTY. LIMITED","holder2":" ","legal_area":6,"unit_of_me":"BL.","_colour":"#a0c4f0","_label":"Exploration Licence"}},{"type":"Feature","geometry":{"type":"Polygon","coordinates":[[[116.66800374088187,-22.465359088306702],[116.66800385071824,-22.47267685469366],[116.67556215907763,-22.47196512618457],[116.68469539086672,-22.471104517754547],[116.68566920074294,-22.47786819338466],[116.6767967811627,-22.478909229720827],[116.66666666651916,-22.480097208164388],[116.66666666700716,-22.48333333332684],[116.666666667439,-22.50000000021941],[116.68333333251378,-22.499999999548887],[116.70000000045539,-22.50000000045537],[116.7166666670665,-22.49999999975953],[116.7333333327771,-22.4999999998054],[116.73333333341049,-22.49869234598855],[116.73333333347618,-22.478310492030246],[116.72890121526594,-22.482053493564933],[116.7243070990785,-22.47821372818496],[116.73333333263497,-22.47053597028305],[116.73333333272888,-22.466666667414813],[116.71666666650103,-22.466666667306097],[116.69999999956616,-22.46666666745632],[116.69999999960623,-22.450000000154514],[116.68333333338705,-22.44999999998631],[116.66800351262232,-22.449999997883168],[116.66800374088187,-22.465359088306702]],[[116.68469539086672,-22.471104517754547],[116.68560478467143,-22.46300512713521],[116.69789913939634,-22.466667787296153],[116.71143100691422,-22.469721236501467],[116.72565382113577,-22.471649644540733],[116.723076360495,-22.480313476905604],[116.70982221790835,-22.47784797603272],[116.69556025754716,-22.473334111803183],[116.68469539086672,-22.471104517754547]]]},"properties":{"fmt_tenid":"E 47/1784-I","type":"EXPLORATION LICENCE","tenstatus":"LIVE","holder1":"HAMERSLEY IRON PTY. LIMITED","holder2":" ","legal_area":10,"unit_of_me":"BL.","_colour":"#a0c4f0","_label":"Exploration Licence"}},{"type":"Feature","geometry":{"type":"Polygon","coordinates":[[[116.64999999984134,-22.44583333344395],[116.6499999998434,-22.433333332772843],[116.63467021842908,-22.433333332894996],[116.63467035358897,-22.4486924965563],[116.64999999964647,-22.4486923952634],[116.64999999984134,-22.44583333344395]]]},"properties":{"fmt_tenid":"E 47/1785-I","type":"EXPLORATION LICENCE","tenstatus":"LIVE","holder1":"HAMERSLEY IRON PTY. LIMITED","holder2":" ","legal_area":1,"unit_of_me":"BL.","_colour":"#a0c4f0","_label":"Exploration Licence"}},{"type":"Feature","geometry":{"type":"Polygon","coordinates":[[[116.60000000016721,-22.400000000254877],[116.58333333298896,-22.399999999709056],[116.56666666668212,-22.39999999950451],[116.55000000015153,-22.39999999965174],[116.54999999958434,-22.416666666961703],[116.55000000012724,-22.433333332569614],[116.56666666745517,-22.433333333311115],[116.58333333342044,-22.433333332625235],[116.58333333286407,-22.416666667309066],[116.58467027133523,-22.416666666680864],[116.58467025397677,-22.415359244643902],[116.59999999989557,-22.415359104910106],[116.60000000016721,-22.400000000254877]]]},"properties":{"fmt_tenid":"E 47/1786-I","type":"EXPLORATION LICENCE","tenstatus":"LIVE","holder1":"HAMERSLEY IRON PTY. LIMITED","holder2":" ","legal_area":5,"unit_of_me":"BL.","_colour":"#a0c4f0","_label":"Exploration Licence"}},{"type":"Feature","geometry":{"type":"Polygon","coordinates":[[[116.78333333337376,-22.783333333306476],[116.7833333325529,-22.76666666711286],[116.78333333325814,-22.75000000022674],[116.78333333254295,-22.73333333348152],[116.78333333303128,-22.716666666671355],[116.76666666719524,-22.71666666692235],[116.75000000016415,-22.716666666762148],[116.74999999963977,-22.733333333081514],[116.76666666666925,-22.733333332547808],[116.76666666659811,-22.749999999696715],[116.76666666743236,-22.76666666677316],[116.75000000043745,-22.76666666694402],[116.73333333315574,-22.766666667021063],[116.73333333303663,-22.78333333270858],[116.75000000012922,-22.783333332764645],[116.7666666669639,-22.78333333300289],[116.78333333337376,-22.783333333306476]]]},"properties":{"fmt_tenid":"E 47/1787-I","type":"EXPLORATION LICENCE","tenstatus":"LIVE","holder1":"HAMERSLEY IRON PTY. LIMITED","holder2":" ","legal_area":7,"unit_of_me":"BL.","_colour":"#a0c4f0","_label":"Exploration Licence"}},{"type":"Feature","geometry":{"type":"MultiPolygon","coordinates":[[[[116.98333333341614,-22.649999999510072],[116.98467251283884,-22.65000006432942],[117.00000000042019,-22.64999999961125],[117.01666666697524,-22.649999999704217],[117.03333333340622,-22.65000000047452],[117.03333333347021,-22.66666666690024],[117.03333333263085,-22.683333332896577],[117.01666666718829,-22.683333333230948],[117.01666666724708,-22.690357900127257],[117.01666666684781,-22.690454808112076],[117.01671963507006,-22.690397541112407],[117.02605179501455,-22.697381078370643],[117.02391577706094,-22.7000000031007],[117.03333333343554,-22.699999999575905],[117.03333333282394,-22.716666666865105],[117.0500000000123,-22.716666666953884],[117.06666666684774,-22.716666666705464],[117.0666666672957,-22.699999999732665],[117.06666666686803,-22.686158117761643],[117.06162092848598,-22.687692265958248],[117.05285406203869,-22.67533891797862],[117.04706529656188,-22.66262170676088],[117.03909860913028,-22.645115648698606],[117.04848144493455,-22.643457536919843],[117.05168608028266,-22.653798583845706],[117.07407948306444,-22.645039685014865],[117.07044909446651,-22.639319475702827],[117.08516042219938,-22.631186182775608],[117.08953687369802,-22.638549809292762],[117.07525085364016,-22.647075731366883],[117.07720511842045,-22.648688047972943],[117.08467219096937,-22.648687895756048],[117.0895368699484,-22.64868798079104],[117.10000000030634,-22.648687658372296],[117.10000000011604,-22.638549851736936],[117.10133866850418,-22.638549808862948],[117.10133857868618,-22.632020772572783],[117.11795268107025,-22.63202045479943],[117.13080843882204,-22.632020368336846],[117.13080794131231,-22.600000110844963],[117.11666666729023,-22.6000000001263],[117.1166666668883,-22.61666666740524],[117.11640755143628,-22.616666667431492],[117.11666666681607,-22.616900523271564],[117.12306679353804,-22.62267673201103],[117.11528923966847,-22.628682631315467],[117.10976021703058,-22.62284516175961],[117.11637113037276,-22.616666666435194],[117.0999999995802,-22.616666667455217],[117.08333333268698,-22.616666667039443],[117.0666666667041,-22.616666667152796],[117.04999999965537,-22.616666666563177],[117.03333333294722,-22.616666667424536],[117.03333333274904,-22.633333332932345],[117.01666666661056,-22.63333333334388],[116.9999999996567,-22.633333333355523],[116.98333333334992,-22.633333333031768],[116.98333333341614,-22.649999999510072]],[[117.03924523641695,-22.7000144126765],[117.04272861387196,-22.698050339948846],[117.04895220508035,-22.706428445858744],[117.04369789212527,-22.709797924045176],[117.03924523641695,-22.7000144126765]]],[[[116.96666666668736,-22.64999999965705],[116.96666666663376,-22.666666666780486],[116.96666666661712,-22.683333332657664],[116.98333333300954,-22.68333333332748],[116.98333333257744,-22.666666667315763],[116.98333333341614,-22.649999999510072],[116.96666666668736,-22.64999999965705]]],[[[117.05386182357171,-22.6596269610626],[117.06666666731408,-22.6829047811097],[117.06666666674948,-22.666666667039426],[117.06666666695061,-22.65398363931294],[117.05386182357171,-22.6596269610626]]],[[[117.01666666656001,-22.70000000030882],[117.02178592994083,-22.70000000044558],[117.01666666724937,-22.697132397786422],[117.01666666656001,-22.70000000030882]]]]},"properties":{"fmt_tenid":"E 47/1788-I","type":"EXPLORATION LICENCE","tenstatus":"LIVE","holder1":"HAMERSLEY IRON PTY. LIMITED","holder2":" ","legal_area":26,"unit_of_me":"BL.","_colour":"#a0c4f0","_label":"Exploration Licence"}},{"type":"Feature","geometry":{"type":"MultiPolygon","coordinates":[[[[117.73333333339224,-22.6666666668446],[117.73333333254064,-22.671118508336402],[117.74468824580845,-22.682075895553904],[117.74485207468398,-22.688666179915018],[117.73333333277198,-22.68026757012358],[117.73333333335822,-22.699999999668623],[117.73333333276979,-22.71666666740668],[117.73825905100583,-22.71666667489039],[117.74537314876518,-22.709622489914448],[117.75840818240968,-22.715444802448733],[117.76066079729175,-22.716666866609895],[117.76666666705562,-22.71666666664861],[117.78333333331145,-22.71666666655788],[117.7833333330883,-22.700000000035192],[117.76666666678614,-22.70000000015454],[117.76666666657617,-22.683333332952653],[117.75000000038602,-22.683333333212623],[117.75000000035075,-22.666666666595223],[117.73333333339224,-22.6666666668446]]],[[[117.78333333331145,-22.71666666655788],[117.78333333296395,-22.72896427055861],[117.79139118065355,-22.73333354979601],[117.80000000017348,-22.733333333140553],[117.80000000040802,-22.716666666575],[117.78333333331145,-22.71666666655788]]]]},"properties":{"fmt_tenid":"E 47/1789-I","type":"EXPLORATION LICENCE","tenstatus":"LIVE","holder1":"HAMERSLEY IRON PTY. LIMITED","holder2":" ","legal_area":7,"unit_of_me":"BL.","_colour":"#a0c4f0","_label":"Exploration Licence"}},{"type":"Feature","geometry":{"type":"MultiPolygon","coordinates":[[[[118.74999999964781,-22.733333332885223],[118.74999999989346,-22.71666666713111],[118.73333333277779,-22.71666666726996],[118.71666666730532,-22.71666666705606],[118.71666666689798,-22.733333333154174],[118.7166666674546,-22.749999999750486],[118.71666666709594,-22.766666667112634],[118.73333333280382,-22.766666666829458],[118.75000000005731,-22.766666666684753],[118.74999999998569,-22.783333332906764],[118.7666666668071,-22.783333332875806],[118.76666666725113,-22.799999999842342],[118.7666666667057,-22.816666666562142],[118.78333333312455,-22.816666667067324],[118.80000000015886,-22.816666667074617],[118.81666666696248,-22.816666667042526],[118.83333333290022,-22.81666666709693],[118.85000000396191,-22.816666667906663],[118.85000000068278,-22.800000002927685],[118.86666666350493,-22.799999996491703],[118.8666666704428,-22.79465376929392],[118.86666666679396,-22.78333333316286],[118.8666666674265,-22.766666667090302],[118.86666666667213,-22.750000000148813],[118.883333332959,-22.750000000222034],[118.88333333297372,-22.738655893764637],[118.87143910024874,-22.734964529865525],[118.88010924991165,-22.710935480300755],[118.86970800100386,-22.69999999979067],[118.86666666700515,-22.70000000006252],[118.8666666666606,-22.696802455233584],[118.86096171026819,-22.69080447990317],[118.85385820128221,-22.683333332877382],[118.85000000007929,-22.683333332694115],[118.8499999996259,-22.679275454626584],[118.8462254004049,-22.67530550003699],[118.83801465238972,-22.666666666631784],[118.83333333296426,-22.666666666824373],[118.83333333281116,-22.66174127548543],[118.82898106987,-22.657162089893735],[118.81666666748491,-22.644200825212348],[118.81666666705405,-22.649999999820338],[118.79999999991342,-22.650000000146036],[118.79999999966816,-22.666666667388693],[118.81666666667242,-22.666666666561422],[118.81666666687826,-22.683333333374723],[118.83333333272451,-22.68333333333453],[118.8333333332644,-22.699999999778598],[118.85000000022644,-22.700000000253812],[118.8500000003713,-22.71666666722481],[118.85000000048625,-22.73333333287874],[118.83333333275667,-22.733333333363788],[118.81666666737864,-22.73333333300872],[118.81666666691586,-22.75000000039822],[118.79999999971132,-22.749999999709285],[118.78333333327869,-22.750000000356298],[118.76666666660674,-22.749999999883826],[118.76666666669036,-22.733333332700667],[118.74999999964781,-22.733333332885223]]],[[[118.81666666738445,-22.63333333256945],[118.81666666667363,-22.635826493330832],[118.81970293700014,-22.633333332740406],[118.81666666738445,-22.63333333256945]]]]},"properties":{"fmt_tenid":"E 47/1790-I","type":"EXPLORATION LICENCE","tenstatus":"LIVE","holder1":"HAMERSLEY IRON PTY. LIMITED","holder2":" ","legal_area":47,"unit_of_me":"BL.","_colour":"#a0c4f0","_label":"Exploration Licence"}},{"type":"Feature","geometry":{"type":"Polygon","coordinates":[[[119.56415522701258,-23.13736346162168],[119.56600525177728,-23.13333336669196],[119.5538892827228,-23.133333331251897],[119.56415522701258,-23.13736346162168]]]},"properties":{"fmt_tenid":"E 47/1922-I","type":"EXPLORATION LICENCE","tenstatus":"LIVE","holder1":"HAMERSLEY IRON PTY. LIMITED","holder2":" ","legal_area":1,"unit_of_me":"BL.","_colour":"#a0c4f0","_label":"Exploration Licence"}},{"type":"Feature","geometry":{"type":"Polygon","coordinates":[[[119.00368488595876,-23.312376451653453],[119.00391308915145,-23.268481920283488],[118.99999999819846,-23.268482019010705],[118.9999999997684,-23.283333332835692],[119.00000000019892,-23.3000000002518],[119.00000000028838,-23.316666666588144],[119.01666666708313,-23.316666666510333],[119.03333333272492,-23.316666666789736],[119.05000000000226,-23.316666666578914],[119.06666666742665,-23.316666667247514],[119.08333333309496,-23.316666667197552],[119.09999999992053,-23.316666666925446],[119.11666666747807,-23.31666666745239],[119.11666666684862,-23.312145625616584],[119.00368488595876,-23.312376451653453]]]},"properties":{"fmt_tenid":"E 47/1924-I","type":"EXPLORATION LICENCE","tenstatus":"LIVE","holder1":"HAMERSLEY IRON PTY. LIMITED","holder2":" ","legal_area":9,"unit_of_me":"BL.","_colour":"#a0c4f0","_label":"Exploration Licence"}},{"type":"Feature","geometry":{"type":"Polygon","coordinates":[[[117.4500000000174,-21.9500000001596],[117.4415446254908,-21.949999999773127],[117.44237133930746,-21.96246290529742],[117.4289089742036,-21.96245246799061],[117.42869660441157,-21.950000001595882],[117.41666666731955,-21.949999999660378],[117.41666666710663,-21.963424120707167],[117.4203515618075,-21.96560639055789],[117.41666666688351,-21.969568232235318],[117.4166666672899,-21.97728094628133],[117.41703473003203,-21.977556408529065],[117.41666666678512,-21.978011512070275],[117.41666666740069,-21.98333333281713],[117.43333333285466,-21.983333332899868],[117.44999999954736,-21.983333333069346],[117.44999999951085,-21.966666666869415],[117.4500000000174,-21.9500000001596]]]},"properties":{"fmt_tenid":"E 47/2769-I","type":"EXPLORATION LICENCE","tenstatus":"LIVE","holder1":"HAMERSLEY IRON PTY. LIMITED","holder2":" ","legal_area":4,"unit_of_me":"BL.","_colour":"#a0c4f0","_label":"Exploration Licence"}},{"type":"Feature","geometry":{"type":"MultiPolygon","coordinates":[[[[117.4500000004915,-21.916666666504987],[117.43333333306447,-21.91666666714201],[117.4217093995352,-21.916666666844463],[117.41666666719587,-21.923002542449275],[117.41666666699106,-21.93333333268071],[117.41666666683273,-21.93619217549546],[117.42168650343952,-21.943273384270686],[117.41666666701772,-21.946365654003795],[117.41666666731955,-21.949999999660378],[117.4286966184116,-21.9499999995959],[117.4285305604068,-21.940262379881446],[117.44099409922293,-21.94169930024081],[117.44154468049074,-21.949999999773162],[117.4500000000174,-21.9500000001596],[117.44999999961293,-21.933333332533756],[117.4500000004915,-21.916666666504987]],[[117.42513603200648,-21.929508323184546],[117.43299971799104,-21.919771448958898],[117.44345732273962,-21.92781174230633],[117.43559434249984,-21.937548615218432],[117.42513603200648,-21.929508323184546]]],[[[117.40631843522499,-21.916666667428178],[117.40390747888905,-21.915039634330554],[117.40000000003633,-21.912357448069326],[117.40000000036895,-21.91666666696919],[117.40631843522499,-21.916666667428178]]],[[[117.41666666715703,-21.899999999786466],[117.41256367298901,-21.899999999892614],[117.41666666718754,-21.902843647402253],[117.41666666715703,-21.899999999786466]]]]},"properties":{"fmt_tenid":"E 47/2770-I","type":"EXPLORATION LICENCE","tenstatus":"LIVE","holder1":"HAMERSLEY IRON PTY. LIMITED","holder2":" ","legal_area":5,"unit_of_me":"BL.","_colour":"#a0c4f0","_label":"Exploration Licence"}},{"type":"Feature","geometry":{"type":"Polygon","coordinates":[[[117.38333333261546,-22.066666666741344],[117.38333333302928,-22.083333333283903],[117.39999999998041,-22.083333332991977],[117.4166666667801,-22.083333333239487],[117.4166666668845,-22.06666666685493],[117.3999999997598,-22.06666666715268],[117.38333333261546,-22.066666666741344]]]},"properties":{"fmt_tenid":"E 47/2950-I","type":"EXPLORATION LICENCE","tenstatus":"LIVE","holder1":"HAMERSLEY IRON PTY. LIMITED","holder2":" ","legal_area":2,"unit_of_me":"BL.","_colour":"#a0c4f0","_label":"Exploration Licence"}},{"type":"Feature","geometry":{"type":"MultiPolygon","coordinates":[[[[117.42255389623416,-22.680652650248756],[117.44861465223524,-22.66886813932646],[117.47837152306346,-22.66783665288159],[117.48999412800399,-22.66559205547936],[117.50566354114967,-22.662617786996094],[117.51856130834913,-22.662568595392738],[117.53333333321105,-22.66259085517297],[117.53333333339761,-22.649999999827827],[117.51666666706556,-22.650000000116766],[117.4999999999678,-22.649999999929214],[117.48333333282977,-22.64999999953066],[117.46666666682023,-22.6500000001924],[117.4666666666225,-22.666666666856422],[117.4499999998014,-22.666666667067727],[117.43333333307534,-22.66666666735648],[117.41666666749214,-22.666666666981502],[117.39999999963403,-22.666666666798942],[117.3999999999103,-22.668680204712242],[117.40054430857755,-22.667871894787844],[117.42255389623416,-22.680652650248756]]],[[[117.4500000004191,-22.696578958648658],[117.44999999959461,-22.683333332598014],[117.45476462019145,-22.68333333270465],[117.45369620858447,-22.680630198390908],[117.44216838580336,-22.685940928548884],[117.43642756211692,-22.688706171148283],[117.4500000004191,-22.696578958648658]]],[[[117.49626058865883,-22.683333333123528],[117.49999999997101,-22.683333333106564],[117.51666666677897,-22.683333333093827],[117.53333333299454,-22.68333333298006],[117.5333333331745,-22.67819899409877],[117.49626058865883,-22.683333333123528]]],[[[117.4744198473785,-22.74093117566304],[117.48291057892006,-22.74448187177024],[117.48637609995012,-22.73384744350723],[117.47797916172007,-22.731566391892915],[117.4744198473785,-22.74093117566304]]],[[[117.46666666715508,-22.73784451224848],[117.466666666481,-22.74251677537659],[117.47316744535716,-22.743803654408744],[117.4744198473785,-22.74093117566304],[117.46666666715508,-22.73784451224848]]],[[[117.46666666737906,-22.750000000270663],[117.46824281542966,-22.749999999844427],[117.46666666729331,-22.749086894015736],[117.46666666737906,-22.750000000270663]]]]},"properties":{"fmt_tenid":"E 47/2951-I","type":"EXPLORATION LICENCE","tenstatus":"LIVE","holder1":"HAMERSLEY IRON PTY. LIMITED","holder2":" ","legal_area":17,"unit_of_me":"BL.","_colour":"#a0c4f0","_label":"Exploration Licence"}},{"type":"Feature","geometry":{"type":"Polygon","coordinates":[[[117.5500000003675,-22.733333333031233],[117.53333333291205,-22.733333333273936],[117.5190208624464,-22.733333333002992],[117.53804595960031,-22.740807744768645],[117.53542079251697,-22.747250646725718],[117.5521455955324,-22.75514874726929],[117.55171769661904,-22.755547682190667],[117.5666666673445,-22.764200259449165],[117.5666666668931,-22.749999999955744],[117.56666666710345,-22.733333333150593],[117.5500000003675,-22.733333333031233]]]},"properties":{"fmt_tenid":"E 47/2952-I","type":"EXPLORATION LICENCE","tenstatus":"LIVE","holder1":"HAMERSLEY IRON PTY. LIMITED","holder2":" ","legal_area":5,"unit_of_me":"BL.","_colour":"#a0c4f0","_label":"Exploration Licence"}},{"type":"Feature","geometry":{"type":"Polygon","coordinates":[[[117.51666666675101,-22.433333333326043],[117.51666666725771,-22.416666666628192],[117.53333333270024,-22.416666667358122],[117.5500000000613,-22.416666667014233],[117.55000000003747,-22.400000000374],[117.53333333286422,-22.399999999875288],[117.51666666742035,-22.39999999975063],[117.50000000040976,-22.39999999990887],[117.48333333275352,-22.40000000013941],[117.46666666700465,-22.399999999854266],[117.45000000009358,-22.39999999975677],[117.4500000000405,-22.41119528408454],[117.46353687220636,-22.411979270143682],[117.46471490332573,-22.412581670097268],[117.46500073510684,-22.41272783108735],[117.47270409813879,-22.416666679975833],[117.48333333270878,-22.416666666766005],[117.48333333261675,-22.42210059370554],[117.48841829036195,-22.424699741695],[117.49643803691174,-22.433333340076857],[117.50000000032082,-22.433333333151566],[117.51666666675101,-22.433333333326043]]]},"properties":{"fmt_tenid":"E 47/3995","type":"EXPLORATION LICENCE","tenstatus":"LIVE","holder1":"HAMERSLEY IRON PTY. LIMITED","holder2":" ","legal_area":8,"unit_of_me":"BL.","_colour":"#a0c4f0","_label":"Exploration Licence"}},{"type":"Feature","geometry":{"type":"Polygon","coordinates":[[[118.83333333431831,-22.43333332591855],[118.83333333390817,-22.41666667114909],[118.8166666628645,-22.41666667138588],[118.80000000691736,-22.41666667071698],[118.80000000658778,-22.399999998623496],[118.78333333579937,-22.39999999901531],[118.7666666651059,-22.399999998512918],[118.74999999394724,-22.39999999902639],[118.74999999396871,-22.416666671357557],[118.74999999369602,-22.433333326155104],[118.75847302654412,-22.433333325512642],[118.75847300039409,-22.43196683988071],[118.758473009024,-22.42664714220667],[118.77780271515772,-22.435031337765476],[118.80137231109714,-22.445249845170085],[118.81978125999491,-22.4532278473288],[118.83971094854263,-22.4618614759936],[118.84887456260579,-22.44193867615323],[118.8499999859851,-22.442426841338744],[118.85000000486257,-22.4333333259868],[118.83333333431831,-22.43333332591855]]]},"properties":{"fmt_tenid":"E 47/4122","type":"EXPLORATION LICENCE","tenstatus":"LIVE","holder1":"HAMERSLEY IRON PTY. LIMITED","holder2":" ","legal_area":16,"unit_of_me":"BL.","_colour":"#a0c4f0","_label":"Exploration Licence"}},{"type":"Feature","geometry":{"type":"Polygon","coordinates":[[[119.46666666733769,-23.29999999980438],[119.48333333341598,-23.29999999961768],[119.4999999995411,-23.300000000348508],[119.49999999985766,-23.28333333309638],[119.48333333259554,-23.283333332950917],[119.4666666665005,-23.283333332645],[119.44999999994889,-23.28333333282034],[119.43333333325346,-23.283333333137833],[119.43333333297863,-23.26666666742512],[119.41666666684048,-23.266666667133883],[119.41666666701241,-23.250000000429086],[119.40000000041356,-23.250000000001446],[119.40000000003947,-23.26666666679669],[119.39999999949939,-23.267627922369435],[119.41415429807824,-23.266371367205316],[119.40923696425777,-23.300000008617957],[119.41666666711205,-23.299999999639976],[119.4333333326294,-23.30000000045951],[119.4500000000431,-23.299999999874977],[119.46666666733769,-23.29999999980438]]]},"properties":{"fmt_tenid":"E 47/4217","type":"EXPLORATION LICENCE","tenstatus":"LIVE","holder1":"HAMERSLEY IRON PTY. LIMITED","holder2":" ","legal_area":9,"unit_of_me":"BL.","_colour":"#a0c4f0","_label":"Exploration Licence"}},{"type":"Feature","geometry":{"type":"Polygon","coordinates":[[[119.61666666710006,-23.066666667113168],[119.59999999959616,-23.066666667251763],[119.59999999950678,-23.08333333291493],[119.6031016003161,-23.083333333487925],[119.60223521636937,-23.08297637380205],[119.60818963180594,-23.070602859422593],[119.61665646025203,-23.074093403153785],[119.6166666427136,-23.071957972671377],[119.61666666710006,-23.066666667113168]]]},"properties":{"fmt_tenid":"E 47/4594","type":"EXPLORATION LICENCE","tenstatus":"LIVE","holder1":"HAMERSLEY IRON PTY. LIMITED","holder2":" ","legal_area":1,"unit_of_me":"BL.","_colour":"#a0c4f0","_label":"Exploration Licence"}},{"type":"Feature","geometry":{"type":"Polygon","coordinates":[[[117.91666666744855,-23.166666666510356],[117.9000000003859,-23.166666667422977],[117.89850862289805,-23.166666739567216],[117.89005955118351,-23.166938244240786],[117.88928154022686,-23.173781754894687],[117.8833333271222,-23.173204996726263],[117.8833333330796,-23.183333333469136],[117.90000000038494,-23.183333332599044],[117.91666666666352,-23.183333332710568],[117.91666666744855,-23.166666666510356]]]},"properties":{"fmt_tenid":"E 47/4824","type":"EXPLORATION LICENCE","tenstatus":"LIVE","holder1":"HAMERSLEY IRON PTY. LIMITED","holder2":" ","legal_area":2,"unit_of_me":"BL.","_colour":"#a0c4f0","_label":"Exploration Licence"}},{"type":"Feature","geometry":{"type":"Polygon","coordinates":[[[117.46666666826339,-22.455215753909705],[117.46666666674201,-22.450000000319648],[117.46666666698498,-22.447348563004567],[117.4650947007241,-22.44726160255816],[117.45210912387715,-22.438572654928592],[117.4499999968995,-22.437944307136263],[117.45000000013017,-22.450000000283346],[117.45000000022199,-22.466666666897623],[117.4333333326482,-22.46666666703409],[117.43333333332727,-22.483333332891277],[117.43333333324568,-22.487556409810352],[117.43463988719148,-22.48848361071021],[117.46666666826339,-22.455215753909705]]]},"properties":{"fmt_tenid":"E 47/5347","type":"EXPLORATION LICENCE","tenstatus":"LIVE","holder1":"HAMERSLEY IRON PTY. LIMITED","holder2":" ","legal_area":5,"unit_of_me":"BL.","_colour":"#a0c4f0","_label":"Exploration Licence"}},{"type":"Feature","geometry":{"type":"MultiPolygon","coordinates":[[[[117.33333333348429,-22.466666667458817],[117.31666666716106,-22.46666666651093],[117.31666666727915,-22.449999999852874],[117.31666666453,-22.44717478904326],[117.30517084737815,-22.44717243149008],[117.29317545233751,-22.448908529881926],[117.29317544652685,-22.462679971094484],[117.29933650613891,-22.46995234367412],[117.29946099553217,-22.47499435401356],[117.2938903983616,-22.48229916726394],[117.29333757760766,-22.48333333147541],[117.30000000012629,-22.483333333281244],[117.31666666722907,-22.48333333287868],[117.33333333297723,-22.483333333059228],[117.33333333348429,-22.466666667458817]]],[[[117.28467359691695,-22.47824614762499],[117.28467370878917,-22.465348935546707],[117.2846738516365,-22.44868221033015],[117.28467381905274,-22.4333333968518],[117.28333333276704,-22.433333333270888],[117.28333333313972,-22.450000000046536],[117.2833333334348,-22.466666666945518],[117.28333333098959,-22.47886814375988],[117.28467359691695,-22.47824614762499]]]]},"properties":{"fmt_tenid":"E 47/5348","type":"EXPLORATION LICENCE","tenstatus":"LIVE","holder1":"HAMERSLEY IRON PTY. LIMITED","holder2":" ","legal_area":7,"unit_of_me":"BL.","_colour":"#a0c4f0","_label":"Exploration Licence"}},{"type":"Feature","geometry":{"type":"Polygon","coordinates":[[[117.33333333290359,-22.633333332842156],[117.333333332983,-22.616666666616442],[117.3333333338916,-22.604370228822294],[117.2999999993981,-22.607083841895893],[117.30000000018269,-22.616666667313932],[117.30000000009555,-22.633333333443886],[117.29999999981052,-22.649999999514765],[117.31666666721694,-22.649999999626406],[117.3333333328546,-22.649999999849346],[117.33333333290359,-22.633333332842156]]]},"properties":{"fmt_tenid":"E 47/5351","type":"EXPLORATION LICENCE","tenstatus":"LIVE","holder1":"HAMERSLEY IRON PTY. LIMITED","holder2":" ","legal_area":6,"unit_of_me":"BL.","_colour":"#a0c4f0","_label":"Exploration Licence"}},{"type":"Feature","geometry":{"type":"Polygon","coordinates":[[[117.93631049268326,-22.518439206526587],[117.94610776861184,-22.50844262575121],[117.96062679818569,-22.50156900379433],[117.95718041012971,-22.498975763783513],[117.95379248995653,-22.46299144819914],[117.96159442867003,-22.45263540446336],[117.95212132889343,-22.440059654631316],[117.94420529327458,-22.35594438202491],[117.98401125471551,-22.355944038080843],[117.98401170110989,-22.32433705426013],[117.97506859912752,-22.324337163478358],[117.89567791476217,-22.324338097059954],[117.89568120805308,-22.473276531246523],[117.8956813105492,-22.483276285758144],[117.93499076980491,-22.519800903510333],[117.93631049268326,-22.518439206526587]]]},"properties":{"fmt_tenid":"E 47/537-I","type":"EXPLORATION LICENCE","tenstatus":"LIVE","holder1":"HAMERSLEY IRON PTY LIMITED","holder2":"HAMERSLEY RESOURCES LIMITED","legal_area":126.25,"unit_of_me":"KM2","_colour":"#a0c4f0","_label":"Exploration Licence"}},{"type":"Feature","geometry":{"type":"Polygon","coordinates":[[[117.95628108563159,-22.52001427996207],[117.93937007306405,-22.537462835431597],[117.98966768036702,-22.58417666022643],[118.01111456024894,-22.60409764029272],[118.01899316128753,-22.611413570714042],[118.04344022960828,-22.611417273905136],[118.07764458793004,-22.61141661129592],[118.06269001377038,-22.594870190280886],[118.01299005085183,-22.539854312153427],[117.97490098090182,-22.51120023334083],[117.95628108563159,-22.52001427996207]]]},"properties":{"fmt_tenid":"E 47/538-I","type":"EXPLORATION LICENCE","tenstatus":"LIVE","holder1":"HAMERSLEY IRON PTY LIMITED","holder2":"HAMERSLEY RESOURCES LIMITED","legal_area":66.34,"unit_of_me":"KM2","_colour":"#a0c4f0","_label":"Exploration Licence"}},{"type":"Feature","geometry":{"type":"MultiPolygon","coordinates":[[[[116.75133699188193,-22.4666669060388],[116.74031466775482,-22.46666666712121],[116.74363724314674,-22.4696086573408],[116.73333333347618,-22.478310492030246],[116.73333333341049,-22.49869234598855],[116.7333333327771,-22.4999999998054],[116.7499999995901,-22.500000000034948],[116.75000000015034,-22.49869217754133],[116.7513373385097,-22.49869216911097],[116.7513370901165,-22.47676515787234],[116.74363983965593,-22.475443395589416],[116.74439999451803,-22.470408305137685],[116.75133705115681,-22.471886101967595],[116.75133699188193,-22.4666669060388]]],[[[116.73788221416075,-22.466666670169264],[116.73333333372908,-22.466666826414023],[116.73333333763487,-22.47053596628314],[116.73788221416075,-22.466666670169264]]],[[[116.71666666650103,-22.466666667306097],[116.71666666683029,-22.45000000009895],[116.69999999960623,-22.450000000154514],[116.69999999956616,-22.46666666745632],[116.70133693158134,-22.466666730187825],[116.71666666650103,-22.466666667306097]]]]},"properties":{"fmt_tenid":"E 47/778-I","type":"EXPLORATION LICENCE","tenstatus":"LIVE","holder1":"HAMERSLEY IRON PTY. LIMITED","holder2":" ","legal_area":3,"unit_of_me":"BL.","_colour":"#a0c4f0","_label":"Exploration Licence"}},{"type":"Feature","geometry":{"type":"Polygon","coordinates":[[[116.99999999993196,-22.798689027914808],[117.00134078769973,-22.7986889665223],[117.00134073354023,-22.782022767979317],[116.98467412121461,-22.78202355820124],[116.96800750905389,-22.782024348875],[116.95134089582872,-22.782025139939847],[116.93467425939627,-22.782025417461405],[116.91800762240841,-22.7820256939422],[116.91800763521147,-22.78333339798312],[116.91666666736148,-22.78333333341636],[116.91666666659502,-22.79999999960789],[116.91666666733997,-22.81666666651118],[116.93333333255276,-22.816666667496612],[116.94999999975161,-22.816666667129475],[116.9513401375163,-22.816666667101906],[116.9513401946454,-22.815358205691837],[116.96800687833613,-22.815357413129753],[116.98467356068653,-22.81535662035516],[116.9846741184419,-22.799999999773725],[116.98768852551464,-22.800000000455736],[116.98828784757436,-22.798689564699256],[116.9949686272883,-22.79868925889281],[116.99830143418568,-22.800000000366303],[116.9999999995684,-22.800000000314995],[116.99999999993196,-22.798689027914808]]]},"properties":{"fmt_tenid":"E 47/780-I","type":"EXPLORATION LICENCE","tenstatus":"LIVE","holder1":"HAMERSLEY IRON PTY. LIMITED","holder2":" ","legal_area":9,"unit_of_me":"BL.","_colour":"#a0c4f0","_label":"Exploration Licence"}},{"type":"Feature","geometry":{"type":"Polygon","coordinates":[[[116.66800680237216,-22.73202989725214],[116.66800681957115,-22.73333339761045],[116.66666666729627,-22.733333332698894],[116.66666666739977,-22.750000000151665],[116.6666666673754,-22.76666666706455],[116.6833333328956,-22.766666666761168],[116.69999999974941,-22.76666666711609],[116.71666666716708,-22.76666666724417],[116.73333333315574,-22.766666667021063],[116.75000000043745,-22.76666666694402],[116.76666666743236,-22.76666666677316],[116.76666666659811,-22.749999999696715],[116.76666666666925,-22.733333332547808],[116.74999999963977,-22.733333333081514],[116.75000000016415,-22.716666666762148],[116.73333333347458,-22.716666667167864],[116.71666666719095,-22.716666667451836],[116.71666666574957,-22.73202894007527],[116.70134011666691,-22.73202915500572],[116.68467345878055,-22.732029525812518],[116.66800680237216,-22.73202989725214]],[[116.68197980455795,-22.743368517725372],[116.70688528570278,-22.742530135704424],[116.70659978566013,-22.747568516700824],[116.68241237414563,-22.74786830797483],[116.68197980455795,-22.743368517725372]],[[116.70688528570278,-22.742530135704424],[116.70618417756552,-22.738681574024938],[116.71707052335618,-22.740499919327483],[116.71705789294127,-22.742236985935453],[116.70688528570278,-22.742530135704424]]]},"properties":{"fmt_tenid":"E 47/781-I","type":"EXPLORATION LICENCE","tenstatus":"LIVE","holder1":"HAMERSLEY IRON PTY. LIMITED","holder2":" ","legal_area":14,"unit_of_me":"BL.","_colour":"#a0c4f0","_label":"Exploration Licence"}},{"type":"Feature","geometry":{"type":"Polygon","coordinates":[[[117.11800520919884,-22.63202045680926],[117.10133857868618,-22.632020772572783],[117.10133866850418,-22.638549808862948],[117.10000000011604,-22.638549851736936],[117.10000000030634,-22.648687658372296],[117.08467219096937,-22.648687895756048],[117.07720511842045,-22.648688047972943],[117.07771858005651,-22.649111657607765],[117.06666666795061,-22.653983633312954],[117.06666666674948,-22.666666667039426],[117.06800583157705,-22.6666667326852],[117.08333333299466,-22.666666666515848],[117.09999999971237,-22.66666666742597],[117.10000000009597,-22.665354454369705],[117.10133907567165,-22.665354361644233],[117.10133883864935,-22.65000006356644],[117.11666666720757,-22.650000000183393],[117.13333333262196,-22.65000000009935],[117.13333333268797,-22.648687007654924],[117.13467208632895,-22.64868691835506],[117.13467183912735,-22.632020141475696],[117.11800520919884,-22.63202045680926]]]},"properties":{"fmt_tenid":"E 47/783-I","type":"EXPLORATION LICENCE","tenstatus":"LIVE","holder1":"HAMERSLEY IRON PTY. LIMITED","holder2":" ","legal_area":4,"unit_of_me":"BL.","_colour":"#a0c4f0","_label":"Exploration Licence"}},{"type":"Feature","geometry":{"type":"MultiPolygon","coordinates":[[[[116.96666666692448,-22.33333333306826],[116.98203388799129,-22.333333345417543],[116.98348635192038,-22.332020831778856],[117.00133571222877,-22.332019939531286],[117.00133615833415,-22.315352831749482],[117.01800290137903,-22.31535250494015],[117.01800322275487,-22.30000006270451],[117.01912917099679,-22.30000010805136],[117.02059162221083,-22.298685477395917],[117.03112132699786,-22.29868531100894],[117.0324856329399,-22.300000040557375],[117.0333333330837,-22.299999999513442],[117.03333333295816,-22.2986851888958],[117.0346698968347,-22.29868510128351],[117.03466990615665,-22.282017618892738],[117.03466991612461,-22.265350137210856],[117.0180032487906,-22.26535035637587],[117.01800324930684,-22.266666729621953],[117.01666666667367,-22.266666667494082],[117.01666666692111,-22.28201796910981],[117.00133659335697,-22.28201815042001],[117.0013365943782,-22.283333395551114],[117.00000000039466,-22.283333333009974],[116.99999999997493,-22.298685873753577],[116.98466919190835,-22.29868680210492],[116.98466917372438,-22.30000006300062],[116.98333333259319,-22.299999999940315],[116.983333333065,-22.31535392736958],[116.96800176264979,-22.315354742619324],[116.96800176248655,-22.316666667193548],[116.9666666673645,-22.31666666653216],[116.96666666692448,-22.33333333306826]]],[[[116.93466834067105,-22.34868906866368],[116.93466848809987,-22.361067395356507],[116.9344394238499,-22.36126009631225],[116.93397193650814,-22.361697242016746],[116.93372607349771,-22.36197312965067],[116.93333333275471,-22.362487289727543],[116.93333333328157,-22.36666666719839],[116.9500000002875,-22.366666667325926],[116.96666666679616,-22.366666667041727],[116.96666666658207,-22.365355164841294],[116.96800181725969,-22.365355126051725],[116.96800172998638,-22.348688471041175],[116.95133496303116,-22.34868918191638],[116.93466834067105,-22.34868906866368]]]]},"properties":{"fmt_tenid":"E 47/892-I","type":"EXPLORATION LICENCE","tenstatus":"LIVE","holder1":"HAMERSLEY IRON PTY. LIMITED","holder2":" ","legal_area":9,"unit_of_me":"BL.","_colour":"#a0c4f0","_label":"Exploration Licence"}},{"type":"Feature","geometry":{"type":"Polygon","coordinates":[[[116.98467295694758,-22.83202351114203],[116.98467356068653,-22.81535662035516],[116.96800687833613,-22.815357413129753],[116.9513401946454,-22.815358205691837],[116.9513401375163,-22.816666667101906],[116.94999999975161,-22.816666667129475],[116.95000000024216,-22.833333332794613],[116.96666666703659,-22.833333333255304],[116.98333333322677,-22.83333333264867],[116.98333333321567,-22.8320235766872],[116.98467295694758,-22.83202351114203]]]},"properties":{"fmt_tenid":"E 47/942-I","type":"EXPLORATION LICENCE","tenstatus":"LIVE","holder1":"HAMERSLEY IRON PTY. LIMITED","holder2":" ","legal_area":2,"unit_of_me":"BL.","_colour":"#a0c4f0","_label":"Exploration Licence"}},{"type":"Feature","geometry":{"type":"Polygon","coordinates":[[[119.33333333251433,-23.83333333256732],[119.33333333330825,-23.81666666655256],[119.35000000031437,-23.816666667493667],[119.34999999996892,-23.799999999902475],[119.33333333335155,-23.80000000014515],[119.31666666676836,-23.79999999962486],[119.29999999989853,-23.79999999954073],[119.28333333263569,-23.799999999875897],[119.28333333324936,-23.816666666942638],[119.2833333334362,-23.83333333266525],[119.29999999986508,-23.833333332988587],[119.29999999972468,-23.85000000028432],[119.31666666741098,-23.850000000072672],[119.33333333305323,-23.850000000086943],[119.33333333251433,-23.83333333256732]]]},"properties":{"fmt_tenid":"E 52/1617-I","type":"EXPLORATION LICENCE","tenstatus":"LIVE","holder1":"HAMERSLEY IRON PTY. LIMITED","holder2":" ","legal_area":9,"unit_of_me":"BL.","_colour":"#a0c4f0","_label":"Exploration Licence"}},{"type":"Feature","geometry":{"type":"Polygon","coordinates":[[[119.4833333333524,-23.85000000021928],[119.48333333306867,-23.833333332662793],[119.48333333311386,-23.816666667226276],[119.48333333340832,-23.799999999946998],[119.46666666711116,-23.79999999966304],[119.46666666665807,-23.783333333353564],[119.44999999986109,-23.783333333157895],[119.44999999955424,-23.766666666863486],[119.43333333323866,-23.766666666658423],[119.41666666730885,-23.76666666657197],[119.39999999958394,-23.76666666724113],[119.3833333334465,-23.766666666714478],[119.36666666734322,-23.766666667208106],[119.36666666700992,-23.783333332615907],[119.36666666675396,-23.79999999958342],[119.34999999996892,-23.799999999902475],[119.35000000031437,-23.816666667493667],[119.33333333330825,-23.81666666655256],[119.33333333251433,-23.83333333256732],[119.35000000036528,-23.833333333030957],[119.36666666743326,-23.833333333185216],[119.3666666665693,-23.81666666719358],[119.3833333332797,-23.816666666557282],[119.39999999999563,-23.816666666519563],[119.39999999978103,-23.83333333325079],[119.41666666725192,-23.833333333262562],[119.43333333320022,-23.8333333332711],[119.43333333287838,-23.85000000041226],[119.44999999961027,-23.849999999985016],[119.46666666713838,-23.849999999907894],[119.4833333333524,-23.85000000021928]]]},"properties":{"fmt_tenid":"E 52/1690-I","type":"EXPLORATION LICENCE","tenstatus":"LIVE","holder1":"HAMERSLEY IRON PTY. LIMITED","holder2":" ","legal_area":29,"unit_of_me":"BL.","_colour":"#a0c4f0","_label":"Exploration Licence"}},{"type":"Feature","geometry":{"type":"MultiPolygon","coordinates":[[[[119.89999999950786,-23.366666666676966],[119.92499999962044,-23.36666600068234],[119.95000000049484,-23.366666667300798],[119.96666666702231,-23.366666667156295],[119.98333333339919,-23.36666666726213],[120.00000000004393,-23.366666666930648],[120.01666666663091,-23.366666666822223],[120.01802156746156,-23.366666733496174],[120.01802154295417,-23.365324163177434],[120.03327928009949,-23.365324013332444],[120.04854203554117,-23.365324018424467],[120.04854196258373,-23.362116701220923],[120.0499999548825,-23.362117076965514],[120.05000000334338,-23.354736797998928],[120.00323649760715,-23.354731850697306],[120.00323634865121,-23.340197802233792],[119.92455302912849,-23.34019788128596],[119.89999999989313,-23.34020029525752],[119.9000000002572,-23.349999999964986],[119.89999999950786,-23.366666666676966]]],[[[119.78333333270788,-23.416666666648617],[119.80000000048113,-23.416666666896642],[119.79999999970747,-23.40000000049384],[119.81666666673289,-23.399999999534565],[119.8333333326318,-23.39999999984609],[119.8333333328165,-23.383333333094622],[119.83333333267242,-23.366666666753797],[119.8333333332772,-23.35473422640706],[119.81666666697735,-23.354735891895352],[119.81666666709629,-23.366666666508227],[119.81666666741448,-23.383333332637488],[119.8000000002806,-23.38333333273236],[119.78333333305693,-23.383333333221035],[119.78333333336839,-23.400000000026957],[119.78333333270788,-23.416666666648617]]]]},"properties":{"fmt_tenid":"E 52/1894-I","type":"EXPLORATION LICENCE","tenstatus":"LIVE","holder1":"HAMERSLEY IRON PTY. LIMITED","holder2":" ","legal_area":22,"unit_of_me":"BL.","_colour":"#a0c4f0","_label":"Exploration Licence"}},{"type":"Feature","geometry":{"type":"Polygon","coordinates":[[[120.53333333267416,-23.35000000029503],[120.55000000036024,-23.350000000302874],[120.54999999992387,-23.33333333342437],[120.53333333332998,-23.333333332899393],[120.516666667419,-23.33333333301795],[120.50000000047895,-23.333333333487797],[120.48333333343547,-23.333333332654096],[120.46666666729318,-23.333333333480976],[120.44999999959465,-23.333333332726664],[120.4500000003549,-23.3499999995951],[120.43333333280012,-23.350000000457538],[120.41666666660764,-23.34999999984776],[120.3999999996742,-23.34999999962759],[120.40000000011116,-23.333333333101788],[120.38333333280049,-23.333333333449065],[120.38333333258883,-23.316666667404316],[120.36666666706527,-23.31666666745989],[120.35000000010508,-23.316666666568345],[120.33333333331737,-23.316666666681602],[120.31666666737425,-23.316666667488633],[120.3166666667422,-23.333333332551916],[120.31666666722981,-23.349999999724496],[120.31666666687137,-23.362034833941443],[120.34081135988106,-23.36200162744029],[120.36674101426317,-23.361961872576142],[120.38658437985474,-23.361976496230056],[120.39668325305325,-23.361982899418642],[120.39662745812915,-23.35252938466185],[120.4254761743855,-23.35533983990721],[120.43324041991264,-23.356095405314832],[120.45200177914786,-23.357930422072982],[120.4719579074896,-23.359879979833778],[120.49998052809602,-23.362613038257148],[120.5166666669209,-23.364278714203376],[120.51666666706005,-23.349999999637948],[120.53333333267416,-23.35000000029503]]]},"properties":{"fmt_tenid":"E 52/1905-I","type":"EXPLORATION LICENCE","tenstatus":"LIVE","holder1":"HAMERSLEY IRON PTY. LIMITED","holder2":" ","legal_area":27,"unit_of_me":"BL.","_colour":"#a0c4f0","_label":"Exploration Licence"}},{"type":"Feature","geometry":{"type":"Polygon","coordinates":[[[117.11764492778703,-20.65762978865444],[117.11759853842163,-20.65842695834638],[117.11757221610343,-20.658879210043178],[117.117474347241,-20.660560856236984],[117.12904710773991,-20.66078351233118],[117.12899734110383,-20.65965952726434],[117.12006298287896,-20.659251050758424],[117.12006289555426,-20.657624409866486],[117.11764492778703,-20.65762978865444]]]},"properties":{"fmt_tenid":"M 47/251","type":"MINING LEASE","tenstatus":"LIVE","holder1":"ROBE RIVER MINING CO. PTY. LTD.","holder2":" ","legal_area":21.375,"unit_of_me":"HA.","_colour":"#f5a520","_label":"Mining Lease"}},{"type":"Feature","geometry":{"type":"Polygon","coordinates":[[[117.08605706115046,-20.677092333664003],[117.08534307437635,-20.677086517419983],[117.08628795536536,-20.67997707231898],[117.0847849032993,-20.68082235706459],[117.08524401464973,-20.6813682018626],[117.08722395303833,-20.679894320400546],[117.08605706115046,-20.677092333664003]]]},"properties":{"fmt_tenid":"M 47/259","type":"MINING LEASE","tenstatus":"LIVE","holder1":"ROBE RIVER MINING CO. PTY. LTD.","holder2":" ","legal_area":4.1535,"unit_of_me":"HA.","_colour":"#f5a520","_label":"Mining Lease"}},{"type":"Feature","geometry":{"type":"Polygon","coordinates":[[[117.11654983184872,-20.65837605564252],[117.11654347521511,-20.658827606501994],[117.11757221610343,-20.658879210043178],[117.11759853842163,-20.65842695834638],[117.11654983184872,-20.65837605564252]]]},"properties":{"fmt_tenid":"M 47/260","type":"MINING LEASE","tenstatus":"LIVE","holder1":"ROBE RIVER MINING CO. PTY. LTD.","holder2":" ","legal_area":0.5425,"unit_of_me":"HA.","_colour":"#f5a520","_label":"Mining Lease"}},{"type":"Feature","geometry":{"type":"Polygon","coordinates":[[[117.43725567333325,-22.383376338232118],[117.43434568034161,-22.383382495983202],[117.43437469673428,-22.38608625402899],[117.4372448678544,-22.38607975121232],[117.43725567333325,-22.383376338232118]]]},"properties":{"fmt_tenid":"M 47/369","type":"MINING LEASE","tenstatus":"LIVE","holder1":"HAMERSLEY IRON PTY. LIMITED","holder2":" ","legal_area":8.912,"unit_of_me":"HA.","_colour":"#f5a520","_label":"Mining Lease"}},{"type":"Feature","geometry":{"type":"Polygon","coordinates":[[[117.55318754292715,-22.372765796607958],[117.55320218283228,-22.375470220128967],[117.55611619229194,-22.37545368320281],[117.5560995458369,-22.372752528597378],[117.55318754292715,-22.372765796607958]]]},"properties":{"fmt_tenid":"M 47/370","type":"MINING LEASE","tenstatus":"LIVE","holder1":"HAMERSLEY IRON PTY. LIMITED","holder2":" ","legal_area":8.981,"unit_of_me":"HA.","_colour":"#f5a520","_label":"Mining Lease"}},{"type":"Feature","geometry":{"type":"Polygon","coordinates":[[[117.58388728649601,-22.358854318523807],[117.58392310464257,-22.361077127426235],[117.58637578760874,-22.36111090347608],[117.58630772979419,-22.358854642760395],[117.58388728649601,-22.358854318523807]]]},"properties":{"fmt_tenid":"M 47/371","type":"MINING LEASE","tenstatus":"LIVE","holder1":"HAMERSLEY IRON PTY. LIMITED","holder2":" ","legal_area":6.224,"unit_of_me":"HA.","_colour":"#f5a520","_label":"Mining Lease"}},{"type":"Feature","geometry":{"type":"Polygon","coordinates":[[[117.51650789554114,-22.373578865178903],[117.51652032060294,-22.37719338346307],[117.52040582465146,-22.37718162959861],[117.52038918727149,-22.373565798887192],[117.51650789554114,-22.373578865178903]]]},"properties":{"fmt_tenid":"M 47/372","type":"MINING LEASE","tenstatus":"LIVE","holder1":"HAMERSLEY IRON PTY. LIMITED","holder2":" ","legal_area":16.015,"unit_of_me":"HA.","_colour":"#f5a520","_label":"Mining Lease"}}]}