{"type":"FeatureCollection","_source":"WA DMIRS via SLIP public API","_holders":["RAMELIUS RESOURCES LIMITED"],"_ticker":"RMS.AX","features":[{"type":"Feature","geometry":{"type":"Polygon","coordinates":[[[120.11666666698456,-30.566666667229995],[120.1166666665071,-30.550000000370783],[120.10000000000858,-30.5499999998457],[120.10000000002367,-30.566666667449443],[120.09999999962228,-30.58333333279728],[120.10000000005473,-30.599999999709638],[120.0999999999984,-30.616666666925386],[120.1166666666832,-30.616666666944468],[120.11666666733493,-30.633333333119694],[120.13333333347347,-30.633333332905664],[120.13333333335733,-30.650000000128916],[120.14999999967668,-30.650000000212767],[120.14999999971273,-30.6333333328519],[120.1666666666141,-30.633333333021486],[120.16666666688532,-30.616666667158807],[120.15000000038295,-30.616666667459732],[120.13333333265984,-30.616666666729788],[120.1333333330741,-30.599999999869787],[120.1333333333772,-30.583333333312734],[120.11666666680073,-30.58333333265799],[120.11666666698456,-30.566666667229995]]]},"properties":{"fmt_tenid":"E 16/505","type":"EXPLORATION LICENCE","tenstatus":"LIVE","holder1":"RAMELIUS RESOURCES LIMITED","holder2":"ROUGE RESOURCES PTY LTD","legal_area":10,"unit_of_me":"BL.","_colour":"#a0c4f0","_label":"Exploration Licence"}},{"type":"Feature","geometry":{"type":"MultiPolygon","coordinates":[[[[120.14999999641091,-30.583333334947906],[120.1499999958218,-30.566666663123392],[120.1333333401574,-30.56666666267437],[120.11666666898465,-30.56666666322997],[120.1166666688007,-30.58333333465796],[120.13333334137718,-30.583333335312755],[120.13333334107413,-30.600000005869774],[120.1333333406597,-30.61666666072976],[120.14999999638297,-30.61666666145968],[120.16666666688529,-30.616666661158803],[120.1666666666141,-30.633333333021486],[120.14999999571279,-30.633333332851905],[120.14999999567674,-30.650000004212785],[120.14999999628527,-30.666666659138208],[120.1666666674523,-30.666666659438388],[120.18333333827593,-30.66666665855654],[120.1833333377243,-30.650000003532206],[120.18333333828043,-30.633333333128416],[120.18333333812535,-30.61666666125584],[120.1833333383235,-30.600000005612614],[120.16666666711521,-30.600000005996367],[120.14999999478844,-30.600000005836907],[120.14999999641091,-30.583333334947906]]],[[[120.09999999808785,-30.516666665877633],[120.09999999840204,-30.49999999390537],[120.08333332709753,-30.49999999401118],[120.06666667231845,-30.499999994166426],[120.06666667168791,-30.51666666602637],[120.06666667206937,-30.533333337144104],[120.06666667231967,-30.549999992095255],[120.06666667212734,-30.566666662656402],[120.08333332700686,-30.56666666301583],[120.09999999802369,-30.56666666344943],[120.09999999800857,-30.549999991845656],[120.11666666950713,-30.549999993370733],[120.11666666945959,-30.541666666694887],[120.11666666864292,-30.533333335733857],[120.09999999795934,-30.533333337325548],[120.09999999808785,-30.516666665877633]]]]},"properties":{"fmt_tenid":"E 16/538","type":"EXPLORATION LICENCE","tenstatus":"LIVE","holder1":"RAMELIUS RESOURCES LIMITED","holder2":" ","legal_area":20,"unit_of_me":"BL.","_colour":"#a0c4f0","_label":"Exploration Licence"}},{"type":"Feature","geometry":{"type":"Polygon","coordinates":[[[118.90000000048602,-31.383333332543852],[118.88479224393743,-31.383333349376255],[118.88479245605521,-31.398741108003357],[118.88333333349412,-31.39874121163855],[118.88333333334681,-31.399999999801178],[118.8833333325272,-31.41666666688699],[118.8666666674489,-31.416666667141058],[118.86666666707377,-31.433333333089934],[118.86666666671577,-31.450000000484273],[118.86666666653862,-31.466666666987148],[118.86666666661242,-31.48333333328837],[118.87702456703471,-31.483333337784142],[118.87643845988444,-31.4793793800269],[118.90042868023377,-31.48251678012078],[118.90042524472192,-31.48333333256451],[118.9166666670609,-31.483333333454873],[118.91666666663752,-31.466666667338593],[118.8999999997607,-31.466666667396748],[118.89999999969187,-31.45000000034457],[118.91666666739478,-31.450000000183827],[118.91666666686841,-31.43333333259683],[118.9333333325692,-31.43333333270108],[118.93333333293451,-31.449999999594684],[118.94999999988522,-31.449999999564056],[118.96666666697219,-31.450000000132714],[118.96666666687807,-31.46666666744969],[118.9833333333552,-31.466666667152875],[118.98333333283294,-31.483333332704454],[119.00000000006347,-31.483333332868582],[119.01666666691955,-31.483333333247952],[119.01666666657196,-31.466666666546928],[118.9999999998781,-31.46666666654294],[118.99999999999031,-31.44999999970623],[118.9833333329628,-31.45000000034435],[118.98333333300629,-31.43333333347533],[118.9666666670692,-31.433333332748983],[118.95000000041469,-31.433333333032397],[118.9500000003278,-31.416666667041437],[118.93333333283904,-31.416666667140902],[118.91666666684016,-31.416666666665204],[118.91666666716371,-31.400000000047143],[118.90000000036702,-31.40000000013493],[118.90000000048602,-31.383333332543852]]]},"properties":{"fmt_tenid":"E 77/2353","type":"EXPLORATION LICENCE","tenstatus":"LIVE","holder1":"CGM (WA) PTY LTD","holder2":"RAMELIUS RESOURCES LIMITED","legal_area":23,"unit_of_me":"BL.","_colour":"#a0c4f0","_label":"Exploration Licence"}},{"type":"Feature","geometry":{"type":"Polygon","coordinates":[[[119.03333333255664,-31.499999999873946],[119.03333333255362,-31.483333332513926],[119.01666666691955,-31.483333333247952],[119.00000000006347,-31.483333332868582],[118.99999999981753,-31.500000000152372],[119.01666666677612,-31.50000000029362],[119.01666666659614,-31.51666666702972],[119.01666666701219,-31.53333333298329],[119.01666666709613,-31.54999999982986],[119.03333333294664,-31.549999999702823],[119.03333333311093,-31.566666667386798],[119.05000000041348,-31.56666666709334],[119.06666666701933,-31.566666667377664],[119.0833333334448,-31.566666667367485],[119.08333333276973,-31.583333332550996],[119.06666666693384,-31.583333332657038],[119.06666666725808,-31.600000000071404],[119.06666666672614,-31.616666666637215],[119.06666666694807,-31.63333333249394],[119.08333333313796,-31.633333332344716],[119.08333333298947,-31.64999999973264],[119.0666666667317,-31.650000000370575],[119.06666666716602,-31.66666666687798],[119.08333333280189,-31.666666667148803],[119.0999999995679,-31.666666667395674],[119.11666666695827,-31.666666666985172],[119.13333333312902,-31.666666667209235],[119.13333333284109,-31.65000000015508],[119.13333333291885,-31.633333331566657],[119.13333333334083,-31.61666666650332],[119.11666666664554,-31.616666666872984],[119.11666666696895,-31.600000000175065],[119.11666666716685,-31.583333333293478],[119.13333333319027,-31.583333332672392],[119.13333333303373,-31.566666666986386],[119.11666666702986,-31.566666666501124],[119.10000000007058,-31.56666666701215],[119.10000000025339,-31.550000000178915],[119.08333333259469,-31.55000000028416],[119.08333333289097,-31.53333333263299],[119.06666666681059,-31.533333332833358],[119.05000000029482,-31.533333332926524],[119.05000000028866,-31.51666666742199],[119.03333333321308,-31.516666667325342],[119.03333333255664,-31.499999999873946]]]},"properties":{"fmt_tenid":"E 77/2354","type":"EXPLORATION LICENCE","tenstatus":"LIVE","holder1":"CGM (WA) PTY LTD","holder2":"RAMELIUS RESOURCES LIMITED","legal_area":33,"unit_of_me":"BL.","_colour":"#a0c4f0","_label":"Exploration Licence"}}]}