{"type":"FeatureCollection","_source":"Multi-state Australian tenement registry","_holders":["ST BARBARA LIMITED"],"_ticker":"SBM.AX","features":[{"type":"Feature","geometry":{"type":"Polygon","coordinates":[[[121.11666666960603,-28.416666670363515],[121.11666666697104,-28.433333332592618],[121.10000301125467,-28.433333333209784],[121.10000000027503,-28.466666667218867],[121.10892434940945,-28.466666667355273],[121.1084706868181,-28.46535568088756],[121.11808449437278,-28.465355414107655],[121.11808456143403,-28.481462866639205],[121.11808456937499,-28.4833333333422],[121.13333333335365,-28.483333332834622],[121.13333333254904,-28.466666667396186],[121.1333333326727,-28.449999999976857],[121.13475089579839,-28.44999999980441],[121.13475079496455,-28.433333333070852],[121.1333333326628,-28.433333332759776],[121.13333333321366,-28.41666666686018],[121.11666666960603,-28.416666670363515]]]},"properties":{"fmt_tenid":"E 37/916","type":"EXPLORATION LICENCE","tenstatus":"LIVE","holder1":"ST BARBARA LIMITED","holder2":" ","legal_area":7,"unit_of_me":"BL.","_colour":"#a0c4f0","_label":"Exploration Licence"}},{"type":"Feature","geometry":{"type":"Polygon","coordinates":[[[121.31556079314554,-28.925824893078193],[121.31529472037248,-28.928973416863812],[121.31870295638663,-28.92919615314329],[121.31904817638944,-28.928892751037132],[121.31556079314554,-28.925824893078193]]]},"properties":{"fmt_tenid":"M 37/1026","type":"MINING LEASE","tenstatus":"LIVE","holder1":"ST BARBARA LIMITED","holder2":" ","legal_area":6.975,"unit_of_me":"HA.","_colour":"#f5a520","_label":"Mining Lease"}},{"type":"Feature","geometry":{"type":"Polygon","coordinates":[[[121.31585914232038,-28.92229427876447],[121.31583313737667,-28.922602015950396],[121.31749892351712,-28.922357261576714],[121.31750668896765,-28.92203923062347],[121.31585914232038,-28.92229427876447]]]},"properties":{"fmt_tenid":"M 37/1027","type":"MINING LEASE","tenstatus":"LIVE","holder1":"ST BARBARA LIMITED","holder2":" ","legal_area":0.5555,"unit_of_me":"HA.","_colour":"#f5a520","_label":"Mining Lease"}},{"type":"Feature","geometry":{"type":"Polygon","coordinates":[[[121.07501962031613,-28.541642117755487],[121.07496019664474,-28.565670857045987],[121.09313149082644,-28.565054919380998],[121.09270655300662,-28.553002715737147],[121.09290017835522,-28.55299991597776],[121.093849048165,-28.552986192157537],[121.09384961669348,-28.552924864263975],[121.09395129091284,-28.541966746926104],[121.09395318318091,-28.54176280698556],[121.08399535138732,-28.541699227329204],[121.07704097460801,-28.541655185701778],[121.07501962031613,-28.541642117755487]]]},"properties":{"fmt_tenid":"M 37/1030","type":"MINING LEASE","tenstatus":"LIVE","holder1":"ST BARBARA LIMITED","holder2":" ","legal_area":472.2,"unit_of_me":"HA.","_colour":"#f5a520","_label":"Mining Lease"}},{"type":"Feature","geometry":{"type":"Polygon","coordinates":[[[121.11666667306676,-28.41535504083074],[121.1014117951191,-28.415353392206733],[121.08475121352993,-28.415349068971246],[121.08475122571281,-28.41666674369488],[121.09999999775142,-28.416666669374887],[121.11666666960603,-28.416666670363515],[121.11666667306676,-28.41535504083074]]]},"properties":{"fmt_tenid":"M 37/1064","type":"MINING LEASE","tenstatus":"LIVE","holder1":"ST BARBARA LIMITED","holder2":" ","legal_area":45.55,"unit_of_me":"HA.","_colour":"#f5a520","_label":"Mining Lease"}},{"type":"Feature","geometry":{"type":"Polygon","coordinates":[[[121.22587138452622,-28.648591170139078],[121.22966801123107,-28.655618260888705],[121.2343019299667,-28.665520755550325],[121.2348899679443,-28.665546904511984],[121.23475075943131,-28.64864026583948],[121.22587138452622,-28.648591170139078]]]},"properties":{"fmt_tenid":"M 37/1128","type":"MINING LEASE","tenstatus":"LIVE","holder1":"ST BARBARA LIMITED","holder2":" ","legal_area":83.88,"unit_of_me":"HA.","_colour":"#f5a520","_label":"Mining Lease"}},{"type":"Feature","geometry":{"type":"Polygon","coordinates":[[[121.32125559963248,-28.873282685438426],[121.32201645525873,-28.87534193997801],[121.32416117648897,-28.874727964348846],[121.32340022634175,-28.872668747298096],[121.32125559963248,-28.873282685438426]]]},"properties":{"fmt_tenid":"M 37/1150","type":"MINING LEASE","tenstatus":"LIVE","holder1":"ST BARBARA LIMITED","holder2":" ","legal_area":5.2805,"unit_of_me":"HA.","_colour":"#f5a520","_label":"Mining Lease"}},{"type":"Feature","geometry":{"type":"Polygon","coordinates":[[[121.22800678472758,-28.670989036569097],[121.22893262230633,-28.672976801330538],[121.23387121360315,-28.68357859128767],[121.2393920536623,-28.695414195664934],[121.23974321606941,-28.696166919664734],[121.24091390086683,-28.6986744998417],[121.24534157480171,-28.70815728999317],[121.24561531156381,-28.708743494316867],[121.25149099519123,-28.721324471663262],[121.25910123829638,-28.718558036366797],[121.25400345595993,-28.70765800393826],[121.2532188207353,-28.705980082510372],[121.24733844693067,-28.69340320768203],[121.24145743393005,-28.680821668592838],[121.23557632728696,-28.668243766540613],[121.22800678472758,-28.670989036569097]]]},"properties":{"fmt_tenid":"M 37/1185","type":"MINING LEASE","tenstatus":"LIVE","holder1":"ST BARBARA LIMITED","holder2":" ","legal_area":484.25,"unit_of_me":"HA.","_colour":"#f5a520","_label":"Mining Lease"}},{"type":"Feature","geometry":{"type":"Polygon","coordinates":[[[121.33230569516232,-28.912233121186343],[121.33139432625974,-28.91502303553618],[121.33129961137278,-28.914999110365653],[121.32931534131394,-28.914497831686223],[121.32918235329782,-28.914905482609804],[121.3284072071944,-28.91728144462542],[121.32817686178673,-28.917987463102907],[121.32804353419765,-28.918396087072367],[121.3282455578903,-28.918757069019122],[121.32848356655757,-28.91905353917279],[121.328768526375,-28.91931540823756],[121.32925200560055,-28.919622483548366],[121.3293781523546,-28.9192361154846],[121.33027093509398,-28.919461685473834],[121.33018270316009,-28.919732109105606],[121.33012516521492,-28.919908460214724],[121.3300965342458,-28.919996211771863],[121.32998200526683,-28.920347227620102],[121.32995337254184,-28.920434983328928],[121.32984405143397,-28.92077004519916],[121.32930844182718,-28.92063477765824],[121.32825883862346,-28.920369695561497],[121.32757660855569,-28.922459908672746],[121.33129834732372,-28.923400273888195],[121.33153979645482,-28.923461276180554],[121.33222196142515,-28.921370542089246],[121.333599949655,-28.921718500528126],[121.33367034131757,-28.92173627499875],[121.3346019659652,-28.921971509084983],[121.33650511792963,-28.922452028495893],[121.33698321104333,-28.922572734194986],[121.33734889060077,-28.92145161398079],[121.33740612669148,-28.921276133074684],[121.33746337579196,-28.921100611160686],[121.33749060889208,-28.92101711619882],[121.33790954397847,-28.919732644983064],[121.33812123215877,-28.919083586544758],[121.33862741088464,-28.917531135125397],[121.33925809502854,-28.915596760936808],[121.33687700789989,-28.914995819041444],[121.33693787255781,-28.914809187069274],[121.33485489370764,-28.914282753390122],[121.33527856643614,-28.912984893434267],[121.33230569516232,-28.912233121186343]]]},"properties":{"fmt_tenid":"M 37/137","type":"MINING LEASE","tenstatus":"LIVE","holder1":"ST BARBARA LIMITED","holder2":" ","legal_area":86.285,"unit_of_me":"HA.","_colour":"#f5a520","_label":"Mining Lease"}},{"type":"Feature","geometry":{"type":"Polygon","coordinates":[[[121.28441423255481,-28.77087233862043],[121.2856050636197,-28.773755026489834],[121.28010406744762,-28.776901987344484],[121.2938639917579,-28.795567426320144],[121.29570229861652,-28.80112778885485],[121.28793116847248,-28.8035653288488],[121.29467021053296,-28.819832337271958],[121.29510837235365,-28.820110401376596],[121.29419974338221,-28.82082530655211],[121.29536974173955,-28.824495295702295],[121.31158082543526,-28.819600563314097],[121.30152552805707,-28.794104890775248],[121.29391793598337,-28.773555312914986],[121.29380129705307,-28.773240180559572],[121.29212850292195,-28.768720465149162],[121.28648901298702,-28.770293530277684],[121.28636936251765,-28.77032697983809],[121.28441423255481,-28.77087233862043]]]},"properties":{"fmt_tenid":"M 37/158","type":"MINING LEASE","tenstatus":"LIVE","holder1":"ST BARBARA LIMITED","holder2":" ","legal_area":739.9,"unit_of_me":"HA.","_colour":"#f5a520","_label":"Mining Lease"}},{"type":"Feature","geometry":{"type":"Polygon","coordinates":[[[121.29536974173955,-28.824495295702295],[121.30082928226047,-28.83944198700096],[121.30441055617018,-28.848539289415513],[121.30943686605382,-28.860896122248064],[121.30961143769414,-28.861085983551895],[121.31023680296241,-28.862606886405434],[121.31769954039488,-28.86023658008655],[121.32494147532373,-28.85806420017886],[121.33241463613156,-28.855919485963586],[121.32534648189663,-28.834086323835972],[121.3176430419781,-28.836554507958226],[121.31158082543526,-28.819600563314097],[121.29536974173955,-28.824495295702295]]]},"properties":{"fmt_tenid":"M 37/159","type":"MINING LEASE","tenstatus":"LIVE","holder1":"ST BARBARA LIMITED","holder2":" ","legal_area":920.8,"unit_of_me":"HA.","_colour":"#f5a520","_label":"Mining Lease"}},{"type":"Feature","geometry":{"type":"Polygon","coordinates":[[[121.28098583476863,-28.811636014210343],[121.27456059914668,-28.815666506816676],[121.27672028405266,-28.81902684610658],[121.27757061189229,-28.818524498980008],[121.28399851226494,-28.827136439400192],[121.28688846221112,-28.826215022133425],[121.29446573489325,-28.82424880349655],[121.29481420750156,-28.82415836622583],[121.30082928226047,-28.83944198700096],[121.29536974173955,-28.824495295702295],[121.29419974338221,-28.82082530655211],[121.29510837235365,-28.820110401376596],[121.29467021053296,-28.819832337271958],[121.28793116847248,-28.8035653288488],[121.28034633560476,-28.805803989855534],[121.27938693880213,-28.80700351886809],[121.27852280940775,-28.80490644960234],[121.27538287713743,-28.805479555050443],[121.27570666357778,-28.805917278306087],[121.2722361205693,-28.807804718413234],[121.271151582124,-28.806405517425546],[121.2682330103762,-28.808049666388918],[121.27022254302605,-28.810882208246273],[121.27125290935788,-28.81009160124765],[121.27213733369051,-28.809412961146627],[121.27264039279605,-28.80997642656106],[121.2747311437784,-28.80680008410731],[121.27675332743331,-28.807711474981208],[121.27879138211355,-28.808872335682324],[121.28098583476863,-28.811636014210343]],[[121.28205112333377,-28.818330519871083],[121.28450304919576,-28.817500617488605],[121.28591251145814,-28.820889169055985],[121.28358897282347,-28.821597071765435],[121.28205112333377,-28.818330519871083]],[[121.28666889746644,-28.82371677382434],[121.28902691638734,-28.822944859728967],[121.28989414474488,-28.825079599651872],[121.2874890734699,-28.825710344681664],[121.28666889746644,-28.82371677382434]]]},"properties":{"fmt_tenid":"M 37/163","type":"MINING LEASE","tenstatus":"LIVE","holder1":"ST BARBARA LIMITED","holder2":" ","legal_area":321,"unit_of_me":"HA.","_colour":"#f5a520","_label":"Mining Lease"}},{"type":"Feature","geometry":{"type":"Polygon","coordinates":[[[121.27810646770484,-28.763032040033817],[121.2681759299647,-28.768888474897814],[121.2513207322054,-28.77838120575264],[121.25981105313463,-28.78903140338776],[121.27146276195748,-28.797874676693777],[121.2719543864631,-28.798496987868912],[121.27415173920285,-28.797032997335293],[121.27506665408218,-28.798396050641575],[121.27640564438732,-28.800212138382303],[121.27775049066187,-28.80203609254503],[121.28034633560476,-28.805803989855534],[121.28793116847248,-28.8035653288488],[121.29570229861652,-28.80112778885485],[121.2938639917579,-28.795567426320144],[121.28010406744762,-28.776901987344484],[121.2856050636197,-28.773755026489834],[121.28441423255481,-28.77087233862043],[121.28414692728379,-28.77094689662847],[121.27810646770484,-28.763032040033817]]]},"properties":{"fmt_tenid":"M 37/164","type":"MINING LEASE","tenstatus":"LIVE","holder1":"ST BARBARA LIMITED","holder2":" ","legal_area":997.1,"unit_of_me":"HA.","_colour":"#f5a520","_label":"Mining Lease"}},{"type":"Feature","geometry":{"type":"Polygon","coordinates":[[[121.23795637579572,-28.75527621877715],[121.23980295940872,-28.753721316649425],[121.23926462270279,-28.75317686116078],[121.23168416153155,-28.745509389192264],[121.22435304088107,-28.749837762958688],[121.2231261249264,-28.750562073598086],[121.2244774538434,-28.752149711212017],[121.23368324152321,-28.762963693327617],[121.23750902453517,-28.76022361139561],[121.23983489071713,-28.75855766896871],[121.23989648515581,-28.75793028466963],[121.2400218780979,-28.757937120677727],[121.23795637579572,-28.75527621877715]]]},"properties":{"fmt_tenid":"M 37/165","type":"MINING LEASE","tenstatus":"LIVE","holder1":"ST BARBARA LIMITED","holder2":" ","legal_area":166.4,"unit_of_me":"HA.","_colour":"#f5a520","_label":"Mining Lease"}},{"type":"Feature","geometry":{"type":"Polygon","coordinates":[[[121.30873817898778,-28.914417311209043],[121.30873454051056,-28.926914925591102],[121.3087312660739,-28.938153650809117],[121.32263022224393,-28.938157236576664],[121.32308943610701,-28.938157330973674],[121.32309119367363,-28.933261090019442],[121.32309255465145,-28.929482888588208],[121.31870295638663,-28.92919615314329],[121.31529472037248,-28.928973416863812],[121.31556079314554,-28.925824893078193],[121.31583313737667,-28.922602015950396],[121.31585914232038,-28.92229427876447],[121.31643504464311,-28.915478726364935],[121.31762084295369,-28.91518732512267],[121.31888635228422,-28.914876321823236],[121.3190081891184,-28.914503451516065],[121.30873817898778,-28.914417311209043]]]},"properties":{"fmt_tenid":"M 37/17","type":"MINING LEASE","tenstatus":"LIVE","holder1":"ST BARBARA LIMITED","holder2":" ","legal_area":254.75,"unit_of_me":"HA.","_colour":"#f5a520","_label":"Mining Lease"}},{"type":"Feature","geometry":{"type":"Polygon","coordinates":[[[121.3176207237453,-28.917368020031816],[121.31750668896765,-28.92203923062347],[121.31749892351712,-28.922357261576714],[121.31738405950364,-28.927062104373515],[121.32309343199353,-28.927054054311565],[121.32309608948395,-28.919729891597626],[121.32309609344237,-28.919717438681023],[121.32250543553329,-28.919568184609847],[121.3201262491227,-28.918966946059243],[121.32070606658235,-28.917191802254628],[121.3176207237453,-28.917368020031816]]]},"properties":{"fmt_tenid":"M 37/170","type":"MINING LEASE","tenstatus":"LIVE","holder1":"ST BARBARA LIMITED","holder2":" ","legal_area":52.99,"unit_of_me":"HA.","_colour":"#f5a520","_label":"Mining Lease"}},{"type":"Feature","geometry":{"type":"Polygon","coordinates":[[[121.2244774538434,-28.752149711212017],[121.21332953968731,-28.75939228483068],[121.22228258207606,-28.770509186223574],[121.22870698723584,-28.766257476292772],[121.23368324152321,-28.762963693327617],[121.2244774538434,-28.752149711212017]],[[121.2281661740389,-28.75991580581126],[121.23071050051828,-28.76033953214374],[121.22951356982412,-28.76364438810317],[121.22669781497231,-28.763536930023843],[121.2281661740389,-28.75991580581126]]]},"properties":{"fmt_tenid":"M 37/172","type":"MINING LEASE","tenstatus":"LIVE","holder1":"ST BARBARA LIMITED","holder2":" ","legal_area":196.1,"unit_of_me":"HA.","_colour":"#f5a520","_label":"Mining Lease"}},{"type":"Feature","geometry":{"type":"MultiPolygon","coordinates":[[[[121.31583313737667,-28.922602015950396],[121.31556079314554,-28.925824893078193],[121.31904817638944,-28.928892751037132],[121.31870295638663,-28.92919615314329],[121.32309255465145,-28.929482888588208],[121.32309343199353,-28.927054054311565],[121.31738405950364,-28.927062104373515],[121.31749892351712,-28.922357261576714],[121.31583313737667,-28.922602015950396]]],[[[121.31643504464311,-28.915478726364935],[121.31585914232038,-28.92229427876447],[121.31750668896765,-28.92203923062347],[121.3176207237453,-28.917368020031816],[121.31762084295369,-28.91518732512267],[121.31643504464311,-28.915478726364935]]]]},"properties":{"fmt_tenid":"M 37/200","type":"MINING LEASE","tenstatus":"LIVE","holder1":"ST BARBARA LIMITED","holder2":" ","legal_area":30.505,"unit_of_me":"HA.","_colour":"#f5a520","_label":"Mining Lease"}},{"type":"Feature","geometry":{"type":"Polygon","coordinates":[[[121.2281661740389,-28.75991580581126],[121.22669781497231,-28.763536930023843],[121.22951356982412,-28.76364438810317],[121.23071050051828,-28.76033953214374],[121.2281661740389,-28.75991580581126]]]},"properties":{"fmt_tenid":"M 37/204","type":"MINING LEASE","tenstatus":"LIVE","holder1":"ST BARBARA LIMITED","holder2":" ","legal_area":10.43,"unit_of_me":"HA.","_colour":"#f5a520","_label":"Mining Lease"}},{"type":"Feature","geometry":{"type":"Polygon","coordinates":[[[121.23750902453517,-28.76022361139561],[121.24231231726368,-28.766539111231875],[121.2513207322054,-28.77838120575264],[121.2681759299647,-28.768888474897814],[121.25116212652222,-28.746180321465182],[121.23926462270279,-28.75317686116078],[121.23980295940872,-28.753721316649425],[121.23795637579572,-28.75527621877715],[121.2400218780979,-28.757937120677727],[121.24400487288531,-28.758154194008874],[121.24372602434904,-28.760314646281763],[121.23968768719016,-28.76005704926761],[121.23983489071713,-28.75855766896871],[121.23750902453517,-28.76022361139561]]]},"properties":{"fmt_tenid":"M 37/212","type":"MINING LEASE","tenstatus":"LIVE","holder1":"ST BARBARA LIMITED","holder2":" ","legal_area":558.25,"unit_of_me":"HA.","_colour":"#f5a520","_label":"Mining Lease"}},{"type":"Feature","geometry":{"type":"Polygon","coordinates":[[[121.32309683974947,-28.917711224117106],[121.32459705481939,-28.917711640262027],[121.32459764098249,-28.914657950682344],[121.3227194116183,-28.91422727490304],[121.32309863984274,-28.912945956033568],[121.32310044161332,-28.90838737356894],[121.32116635892609,-28.907898132679705],[121.32002653126689,-28.911386812414907],[121.32002361826224,-28.911395726370426],[121.31943162945615,-28.913207533548565],[121.3190081891184,-28.914503451516065],[121.31888635228422,-28.914876321823236],[121.31762084295369,-28.91518732512267],[121.3176207237453,-28.917368020031816],[121.32070606658235,-28.917191802254628],[121.3201262491227,-28.918966946059243],[121.32250543553329,-28.919568184609847],[121.32309609344237,-28.919717438681023],[121.32309683974947,-28.917711224117106]]]},"properties":{"fmt_tenid":"M 37/247","type":"MINING LEASE","tenstatus":"LIVE","holder1":"ST BARBARA LIMITED","holder2":" ","legal_area":47.755,"unit_of_me":"HA.","_colour":"#f5a520","_label":"Mining Lease"}},{"type":"Feature","geometry":{"type":"Polygon","coordinates":[[[121.32459705481939,-28.917711640262027],[121.32309683974947,-28.917711224117106],[121.32309609344237,-28.919717438681023],[121.32309608948395,-28.919729891597626],[121.32309343199353,-28.927054054311565],[121.32309255465145,-28.929482888588208],[121.32309119367363,-28.933261090019442],[121.323790664283,-28.933261230269444],[121.3272645663602,-28.933261872653368],[121.33070408954194,-28.93326242196668],[121.33129522940095,-28.93326250781771],[121.33412416472521,-28.93326288531965],[121.33519953746772,-28.93326301422991],[121.33949884943637,-28.933263442876573],[121.33949889184912,-28.930821656416356],[121.34769998448492,-28.93082088744682],[121.34591952097537,-28.93036007414672],[121.34354859191544,-28.929746396253304],[121.34471293585858,-28.92626589175008],[121.34587664412246,-28.92278704365961],[121.34769875529608,-28.923258846802177],[121.3482475046182,-28.923400930460232],[121.35061690962691,-28.924014388478085],[121.3529882011864,-28.924628283698993],[121.35182473428063,-28.928107767426607],[121.35091761319214,-28.93082044736635],[121.35371373666243,-28.930820000737313],[121.35588087062591,-28.930819615530663],[121.3558776094021,-28.921271329005673],[121.35587175584926,-28.904121291888845],[121.34769627752979,-28.904121026145635],[121.3394995586425,-28.904120265362145],[121.33232148164274,-28.904119187572054],[121.3293547297942,-28.90411863142958],[121.3293557650303,-28.904427167958982],[121.3268838743129,-28.90443359010372],[121.32455459304273,-28.90433817041665],[121.32310201564401,-28.904381027942062],[121.32310112480528,-28.906649900208162],[121.32310044161332,-28.90838737356894],[121.32309863984274,-28.912945956033568],[121.32336937410241,-28.912031182249688],[121.3240199073207,-28.909835409194248],[121.32721425509723,-28.910567732453924],[121.32656379307711,-28.91276355899191],[121.32591365537284,-28.91495969368088],[121.32459764098249,-28.914657950682344],[121.32459705481939,-28.917711640262027]],[[121.33230569516232,-28.912233121186343],[121.33527856643614,-28.912984893434267],[121.33485489370764,-28.914282753390122],[121.33693787255781,-28.914809187069274],[121.33687700789989,-28.914995819041444],[121.33925809502854,-28.915596760936808],[121.33862741088464,-28.917531135125397],[121.33812123215877,-28.919083586544758],[121.33790954397847,-28.919732644983064],[121.33749060889208,-28.92101711619882],[121.33746337579196,-28.921100611160686],[121.33740612669148,-28.921276133074684],[121.33734889060077,-28.92145161398079],[121.33698321104333,-28.922572734194986],[121.33650511792963,-28.922452028495893],[121.3346019659652,-28.921971509084983],[121.33367034131757,-28.92173627499875],[121.333599949655,-28.921718500528126],[121.33222196142515,-28.921370542089246],[121.33153979645482,-28.923461276180554],[121.33129834732372,-28.923400273888195],[121.32757660855569,-28.922459908672746],[121.32825883862346,-28.920369695561497],[121.32930844182718,-28.92063477765824],[121.32984405143397,-28.92077004519916],[121.32995337254184,-28.920434983328928],[121.32998200526683,-28.920347227620102],[121.3300965342458,-28.919996211771863],[121.33012516521492,-28.919908460214724],[121.33018270316009,-28.919732109105606],[121.33027093509398,-28.919461685473834],[121.3293781523546,-28.9192361154846],[121.32925200560055,-28.919622483548366],[121.328768526375,-28.91931540823756],[121.32848356655757,-28.91905353917279],[121.3282455578903,-28.918757069019122],[121.32804353419765,-28.918396087072367],[121.32817686178673,-28.917987463102907],[121.3284072071944,-28.91728144462542],[121.32918235329782,-28.914905482609804],[121.32931534131394,-28.914497831686223],[121.33129961137278,-28.914999110365653],[121.33139432625974,-28.91502303553618],[121.33230569516232,-28.912233121186343]]]},"properties":{"fmt_tenid":"M 37/25","type":"MINING LEASE","tenstatus":"LIVE","holder1":"ST BARBARA LIMITED","holder2":" ","legal_area":823.5,"unit_of_me":"HA.","_colour":"#f5a520","_label":"Mining Lease"}},{"type":"Feature","geometry":{"type":"Polygon","coordinates":[[[121.3014211978233,-28.863696542782183],[121.30557324758414,-28.87379064953482],[121.30631302373196,-28.87558891334233],[121.30672154020827,-28.876581916094068],[121.30989233961112,-28.884288683172947],[121.3199466001462,-28.880678768849968],[121.3198060350704,-28.88311045632117],[121.31914238736843,-28.894589490128553],[121.32127772463149,-28.894553907588787],[121.32093159862069,-28.893022618728747],[121.32089797599116,-28.89287386453401],[121.3231326380244,-28.89248284985292],[121.32361236707577,-28.89460649026402],[121.32404475242552,-28.894530761543606],[121.32579250711753,-28.89422464123021],[121.32609527209952,-28.895683364967738],[121.32624295676416,-28.89639490023796],[121.3263777436237,-28.89704428450678],[121.32700919876311,-28.897107770251424],[121.32703595109942,-28.89480932572133],[121.32932347196781,-28.894809589522367],[121.32932473103035,-28.89518424095918],[121.3323190168266,-28.89518397544718],[121.33203212191845,-28.89318416917524],[121.33208242365896,-28.890001432943183],[121.3323275155286,-28.874624697379208],[121.33100641543282,-28.870291957222374],[121.3297119914144,-28.86699460477556],[121.32858389681819,-28.867308874045804],[121.32494147532373,-28.85806420017886],[121.31769954039488,-28.86023658008655],[121.31023680296241,-28.862606886405434],[121.30961143769414,-28.861085983551895],[121.30973006923524,-28.861976974832082],[121.30889641613072,-28.862028146958302],[121.30683962015698,-28.86215437614541],[121.3068511514755,-28.861965920885684],[121.3014211978233,-28.863696542782183]],[[121.3268793197747,-28.887373751877952],[121.32920425249094,-28.887432935245414],[121.32897610412356,-28.890959281739384],[121.32674182578953,-28.89085496079612],[121.3268793197747,-28.887373751877952]],[[121.32125559963248,-28.873282685438426],[121.32340022634175,-28.872668747298096],[121.32416117648897,-28.874727964348846],[121.32201645525873,-28.87534193997801],[121.32125559963248,-28.873282685438426]],[[121.30759331306551,-28.873249011953167],[121.30823714808623,-28.873160451506376],[121.30832502198056,-28.873655394105636],[121.3083377579689,-28.8737271279051],[121.30769391576938,-28.873815689230696],[121.30759331306551,-28.873249011953167]]]},"properties":{"fmt_tenid":"M 37/251","type":"MINING LEASE","tenstatus":"LIVE","holder1":"ST BARBARA LIMITED","holder2":" ","legal_area":745.7,"unit_of_me":"HA.","_colour":"#f5a520","_label":"Mining Lease"}},{"type":"Feature","geometry":{"type":"Polygon","coordinates":[[[121.33949889184912,-28.930821656416356],[121.33949884943637,-28.933263442876573],[121.339498783007,-28.938781305549234],[121.35401338562563,-28.938616492159998],[121.35371373666243,-28.930820000737313],[121.35091761319214,-28.93082044736635],[121.35182473428063,-28.928107767426607],[121.3529882011864,-28.924628283698993],[121.35061690962691,-28.924014388478085],[121.3482475046182,-28.923400930460232],[121.34769875529608,-28.923258846802177],[121.34587664412246,-28.92278704365961],[121.34471293585858,-28.92626589175008],[121.34354859191544,-28.929746396253304],[121.34591952097537,-28.93036007414672],[121.34769998448492,-28.93082088744682],[121.33949889184912,-28.930821656416356]]]},"properties":{"fmt_tenid":"M 37/333","type":"MINING LEASE","tenstatus":"LIVE","holder1":"ST BARBARA LIMITED","holder2":" ","legal_area":179.1,"unit_of_me":"HA.","_colour":"#f5a520","_label":"Mining Lease"}},{"type":"Feature","geometry":{"type":"Polygon","coordinates":[[[121.17056034147048,-28.59610041600195],[121.17238444932437,-28.60366265084221],[121.17237145835328,-28.61230703306843],[121.17234220509481,-28.631533405744708],[121.1732505166537,-28.633250381845144],[121.19166215460412,-28.625954897450594],[121.17855687687674,-28.600885619636365],[121.18611722408866,-28.59757519387575],[121.18182026310788,-28.59078293272212],[121.17850519096723,-28.592348621551626],[121.17056034147048,-28.59610041600195]]]},"properties":{"fmt_tenid":"M 37/338","type":"MINING LEASE","tenstatus":"LIVE","holder1":"ST BARBARA LIMITED","holder2":" ","legal_area":531.9,"unit_of_me":"HA.","_colour":"#f5a520","_label":"Mining Lease"}},{"type":"Feature","geometry":{"type":"Polygon","coordinates":[[[121.29983921337148,-28.926883983352436],[121.2961824648438,-28.931404773097302],[121.30726926264471,-28.938102502746393],[121.3087312660739,-28.938153650809117],[121.30873454051056,-28.926914925591102],[121.30130870476712,-28.92688913562459],[121.29983921337148,-28.926883983352436]]]},"properties":{"fmt_tenid":"M 37/391","type":"MINING LEASE","tenstatus":"LIVE","holder1":"ST BARBARA LIMITED","holder2":" ","legal_area":103,"unit_of_me":"HA.","_colour":"#f5a520","_label":"Mining Lease"}},{"type":"Feature","geometry":{"type":"Polygon","coordinates":[[[121.20936555079237,-28.65382703034268],[121.22146645373377,-28.676738288593754],[121.22373740131326,-28.681036826695145],[121.22944124775006,-28.67870081246237],[121.2269296225311,-28.674002774171342],[121.21500224505476,-28.651686405463586],[121.20936555079237,-28.65382703034268]]]},"properties":{"fmt_tenid":"M 37/398","type":"MINING LEASE","tenstatus":"LIVE","holder1":"ST BARBARA LIMITED","holder2":" ","legal_area":201.5,"unit_of_me":"HA.","_colour":"#f5a520","_label":"Mining Lease"}},{"type":"Feature","geometry":{"type":"Polygon","coordinates":[[[121.2269296225311,-28.674002774171342],[121.22944124775006,-28.67870081246237],[121.22373740131326,-28.681036826695145],[121.22146645373377,-28.676738288593754],[121.2151865988105,-28.679744697435417],[121.21965849366721,-28.685392558076618],[121.23027262253548,-28.699645940713577],[121.2327275200387,-28.698214226005764],[121.24908974695956,-28.720039406117778],[121.25149099519123,-28.721324471663262],[121.24561531156381,-28.708743494316867],[121.24534157480171,-28.70815728999317],[121.24091390086683,-28.6986744998417],[121.23974321606941,-28.696166919664734],[121.2393920536623,-28.695414195664934],[121.23387121360315,-28.68357859128767],[121.22893262230633,-28.672976801330538],[121.2269296225311,-28.674002774171342]]]},"properties":{"fmt_tenid":"M 37/399","type":"MINING LEASE","tenstatus":"LIVE","holder1":"ST BARBARA LIMITED","holder2":" ","legal_area":429.1,"unit_of_me":"HA.","_colour":"#f5a520","_label":"Mining Lease"}},{"type":"Feature","geometry":{"type":"Polygon","coordinates":[[[121.19549257906303,-28.633280501395046],[121.20073922560492,-28.642706027701962],[121.21868200544652,-28.676207938805042],[121.20637938484666,-28.681248049586095],[121.20721896320784,-28.683073385714255],[121.2151865988105,-28.679744697435417],[121.22146645373377,-28.676738288593754],[121.20936555079237,-28.65382703034268],[121.21500224505476,-28.651686405463586],[121.2269296225311,-28.674002774171342],[121.22893262230633,-28.672976801330538],[121.22800678472758,-28.670989036569097],[121.23557632728696,-28.668243766540613],[121.2343019299667,-28.665520755550325],[121.22966801123107,-28.655618260888705],[121.22587138452622,-28.648591170139078],[121.22260731945602,-28.642548991822846],[121.21819698511496,-28.632364705396853],[121.20990695101389,-28.63201745823024],[121.20605207423077,-28.632020009383773],[121.20450314477186,-28.62946687222221],[121.19549257906303,-28.633280501395046]]]},"properties":{"fmt_tenid":"M 37/400","type":"MINING LEASE","tenstatus":"LIVE","holder1":"ST BARBARA LIMITED","holder2":" ","legal_area":837.45,"unit_of_me":"HA.","_colour":"#f5a520","_label":"Mining Lease"}},{"type":"Feature","geometry":{"type":"Polygon","coordinates":[[[121.36352693764117,-28.917650703746197],[121.36361023822164,-28.920954898768873],[121.36395406834892,-28.934593319858422],[121.35578732308736,-28.934625411753903],[121.35588636701901,-28.944663946726052],[121.35606309793064,-28.962571992760907],[121.37481083599187,-28.962477712142135],[121.37480777937613,-28.938315261468773],[121.37480512931644,-28.917368253929595],[121.36352693764117,-28.917650703746197]]]},"properties":{"fmt_tenid":"M 37/454","type":"MINING LEASE","tenstatus":"LIVE","holder1":"ST BARBARA LIMITED","holder2":" ","legal_area":774.2,"unit_of_me":"HA.","_colour":"#f5a520","_label":"Mining Lease"}},{"type":"Feature","geometry":{"type":"Polygon","coordinates":[[[121.15141473962849,-28.59867526935468],[121.15415205822062,-28.60420135088136],[121.17238444932437,-28.60366265084221],[121.17056034147048,-28.59610041600195],[121.17850519096723,-28.592348621551626],[121.18182026310788,-28.59078293272212],[121.18611722408866,-28.59757519387575],[121.17855687687674,-28.600885619636365],[121.19166215460412,-28.625954897450594],[121.19549257906303,-28.633280501395046],[121.20450314477186,-28.62946687222221],[121.20605207423077,-28.632020009383773],[121.20990695101389,-28.63201745823024],[121.21280839174301,-28.630647370423414],[121.18475462546121,-28.587975113573854],[121.15141473962849,-28.59867526935468]]]},"properties":{"fmt_tenid":"M 37/458","type":"MINING LEASE","tenstatus":"LIVE","holder1":"ST BARBARA LIMITED","holder2":" ","legal_area":843.55,"unit_of_me":"HA.","_colour":"#f5a520","_label":"Mining Lease"}},{"type":"Feature","geometry":{"type":"Polygon","coordinates":[[[121.13469599864088,-28.58535536884266],[121.13473474748865,-28.591135463569096],[121.1347514985831,-28.598690497840643],[121.15141473962849,-28.59867526935468],[121.18475462546121,-28.587975113573854],[121.18495045124305,-28.58791813059878],[121.18369548184032,-28.5860900487326],[121.185047244021,-28.585455698222773],[121.17707566804305,-28.572258380306153],[121.14994116257763,-28.58064596296743],[121.13469599864088,-28.58535536884266]]]},"properties":{"fmt_tenid":"M 37/459","type":"MINING LEASE","tenstatus":"LIVE","holder1":"ST BARBARA LIMITED","holder2":" ","legal_area":885.2,"unit_of_me":"HA.","_colour":"#f5a520","_label":"Mining Lease"}},{"type":"Feature","geometry":{"type":"Polygon","coordinates":[[[121.13469599864088,-28.58535536884266],[121.14994116257763,-28.58064596296743],[121.17707566804305,-28.572258380306153],[121.1727485139228,-28.565093040562534],[121.17000427309178,-28.56630027218732],[121.1641755324524,-28.55525980463796],[121.17145582981668,-28.55123097090669],[121.17031826855067,-28.54972113107998],[121.18443412316962,-28.542931115327182],[121.18080136199023,-28.536744617187882],[121.16800609081376,-28.542997308971824],[121.14512458819033,-28.55417371979959],[121.1448658127209,-28.554300081639635],[121.14717967195841,-28.55795519907656],[121.14880013192858,-28.55714060157102],[121.15185351096768,-28.56285294871709],[121.15060142660806,-28.563558592829775],[121.14773477724682,-28.565433225048512],[121.14677474488482,-28.56606100396947],[121.1473130029112,-28.566666809298344],[121.14987465640924,-28.569549809654],[121.13464886457317,-28.5780048446401],[121.13469599864088,-28.58535536884266]]]},"properties":{"fmt_tenid":"M 37/460","type":"MINING LEASE","tenstatus":"LIVE","holder1":"ST BARBARA LIMITED","holder2":" ","legal_area":956.05,"unit_of_me":"HA.","_colour":"#f5a520","_label":"Mining Lease"}},{"type":"Feature","geometry":{"type":"Polygon","coordinates":[[[121.11030249670071,-28.429243684358937],[121.10975631078696,-28.431066685222273],[121.11474741970098,-28.432354922081363],[121.1152939838348,-28.430531623244395],[121.11030249670071,-28.429243684358937]]]},"properties":{"fmt_tenid":"M 37/478","type":"MINING LEASE","tenstatus":"LIVE","holder1":"ST BARBARA LIMITED","holder2":" ","legal_area":10.645,"unit_of_me":"HA.","_colour":"#f5a520","_label":"Mining Lease"}},{"type":"Feature","geometry":{"type":"Polygon","coordinates":[[[121.24145743393005,-28.680821668592838],[121.24733844693067,-28.69340320768203],[121.2532188207353,-28.705980082510372],[121.25400345595993,-28.70765800393826],[121.25910123829638,-28.718558036366797],[121.25149099519123,-28.721324471663262],[121.26087145474482,-28.734340038552823],[121.26037190795692,-28.743251997299964],[121.26460236587828,-28.74064822501269],[121.28475159957098,-28.76812186452222],[121.28475168139887,-28.76925140996786],[121.28541546733912,-28.769026788179268],[121.28636936251765,-28.77032697983809],[121.28648901298702,-28.770293530277684],[121.28687604265367,-28.750204745987514],[121.27829004601045,-28.736482693612572],[121.24765916905444,-28.687496518228695],[121.24311108323242,-28.680218746074818],[121.24145743393005,-28.680821668592838]]]},"properties":{"fmt_tenid":"M 37/485","type":"MINING LEASE","tenstatus":"LIVE","holder1":"NEWMONT YANDAL OPERATIONS PTY LTD","holder2":"ST BARBARA LIMITED","legal_area":939.9,"unit_of_me":"HA.","_colour":"#f5a520","_label":"Mining Lease"}},{"type":"Feature","geometry":{"type":"Polygon","coordinates":[[[121.24765916905444,-28.687496518228695],[121.27829004601045,-28.736482693612572],[121.28475042050532,-28.71535712374549],[121.2847500054792,-28.699998375140737],[121.26976308494207,-28.707625993183637],[121.2626362564579,-28.697176023961852],[121.2513533471498,-28.680626777505356],[121.24765916905444,-28.687496518228695]]]},"properties":{"fmt_tenid":"M 37/531","type":"MINING LEASE","tenstatus":"LIVE","holder1":"NEWMONT YANDAL OPERATIONS PTY LTD","holder2":"ST BARBARA LIMITED","legal_area":698.25,"unit_of_me":"HA.","_colour":"#f5a520","_label":"Mining Lease"}},{"type":"Feature","geometry":{"type":"Polygon","coordinates":[[[121.38320814403426,-28.73202346050054],[121.39010893088994,-28.74923763241263],[121.40012808454088,-28.749247324876592],[121.41006602667018,-28.76646944225386],[121.41425111446017,-28.773720050343282],[121.42258481247357,-28.77371620229616],[121.43300814523182,-28.76537984315023],[121.42963401254121,-28.761969967287957],[121.4165506396913,-28.748690840195575],[121.4124542847384,-28.748689390703777],[121.41245308957738,-28.732022534777514],[121.38320814403426,-28.73202346050054]]]},"properties":{"fmt_tenid":"M 37/532","type":"MINING LEASE","tenstatus":"LIVE","holder1":"NEWMONT YANDAL OPERATIONS PTY LTD","holder2":"ST BARBARA LIMITED","legal_area":981.5,"unit_of_me":"HA.","_colour":"#f5a520","_label":"Mining Lease"}},{"type":"Feature","geometry":{"type":"Polygon","coordinates":[[[121.32624295676416,-28.89639490023796],[121.32609527209952,-28.895683364967738],[121.32579250711753,-28.89422464123021],[121.32404475242552,-28.894530761543606],[121.32361236707577,-28.89460649026402],[121.3231326380244,-28.89248284985292],[121.32089797599116,-28.89287386453401],[121.32093159862069,-28.893022618728747],[121.32127772463149,-28.894553907588787],[121.31914238736843,-28.894589490128553],[121.3198060350704,-28.88311045632117],[121.3199466001462,-28.880678768849968],[121.30989233961112,-28.884288683172947],[121.30902579284431,-28.884599764336194],[121.30892562682938,-28.904067885974893],[121.31925938426251,-28.90417460830185],[121.31943162945615,-28.913207533548565],[121.32002361826224,-28.911395726370426],[121.32002653126689,-28.911386812414907],[121.32116635892609,-28.907898132679705],[121.32310044161332,-28.90838737356894],[121.32310112480528,-28.906649900208162],[121.32310201564401,-28.904381027942062],[121.32455459304273,-28.90433817041665],[121.3268838743129,-28.90443359010372],[121.3293557650303,-28.904427167958982],[121.3293547297942,-28.90411863142958],[121.3293446852213,-28.901124252985245],[121.3293435950286,-28.900799418478154],[121.32934076112825,-28.89995508075825],[121.32859417133113,-28.900077009996327],[121.32847043154095,-28.899173809638572],[121.32827820620469,-28.897235342632847],[121.32700919876311,-28.897107770251424],[121.3263777436237,-28.89704428450678],[121.32624295676416,-28.89639490023796]]]},"properties":{"fmt_tenid":"M 37/55","type":"MINING LEASE","tenstatus":"LIVE","holder1":"ST BARBARA LIMITED","holder2":" ","legal_area":362.2,"unit_of_me":"HA.","_colour":"#f5a520","_label":"Mining Lease"}},{"type":"Feature","geometry":{"type":"Polygon","coordinates":[[[121.23750902453517,-28.76022361139561],[121.23368324152321,-28.762963693327617],[121.22870698723584,-28.766257476292772],[121.23382587844912,-28.773014813212306],[121.24231231726368,-28.766539111231875],[121.23750902453517,-28.76022361139561]]]},"properties":{"fmt_tenid":"M 37/565","type":"MINING LEASE","tenstatus":"LIVE","holder1":"ST BARBARA LIMITED","holder2":" ","legal_area":94.195,"unit_of_me":"HA.","_colour":"#f5a520","_label":"Mining Lease"}},{"type":"Feature","geometry":{"type":"Polygon","coordinates":[[[121.2400218780979,-28.757937120677727],[121.23989648515581,-28.75793028466963],[121.23983489071713,-28.75855766896871],[121.23968768719016,-28.76005704926761],[121.24372602434904,-28.760314646281763],[121.24400487288531,-28.758154194008874],[121.2400218780979,-28.757937120677727]]]},"properties":{"fmt_tenid":"M 37/58","type":"MINING LEASE","tenstatus":"LIVE","holder1":"ST BARBARA LIMITED","holder2":" ","legal_area":9.5145,"unit_of_me":"HA.","_colour":"#f5a520","_label":"Mining Lease"}},{"type":"Feature","geometry":{"type":"Polygon","coordinates":[[[121.17494037960529,-28.71731697095603],[121.17861742475114,-28.722163793887233],[121.1796176655544,-28.723482146893833],[121.18648464659438,-28.7325320712496],[121.197667802746,-28.74732928024819],[121.20770478298819,-28.760391286056255],[121.21096631032216,-28.712273412877128],[121.2116396101481,-28.705999539483898],[121.20364692839651,-28.705567417371366],[121.20353529084714,-28.70715297687742],[121.20608976494891,-28.711607891736524],[121.19808107254454,-28.715221472498232],[121.18529216698205,-28.720990416501493],[121.18155555768313,-28.714419620580745],[121.17494037960529,-28.71731697095603]]]},"properties":{"fmt_tenid":"M 37/586","type":"MINING LEASE","tenstatus":"LIVE","holder1":"ST BARBARA LIMITED","holder2":" ","legal_area":938.2,"unit_of_me":"HA.","_colour":"#f5a520","_label":"Mining Lease"}},{"type":"Feature","geometry":{"type":"Polygon","coordinates":[[[121.22845787662405,-28.72307814324688],[121.21655538877926,-28.708930655870045],[121.21487917972479,-28.709933221751132],[121.21096631032216,-28.712273412877128],[121.20770478298819,-28.760391286056255],[121.21585761758313,-28.75590785398996],[121.21286352451692,-28.75165874705598],[121.21729989780474,-28.752393614139],[121.22070578791042,-28.7519908571944],[121.2231261249264,-28.750562073598086],[121.22435304088107,-28.749837762958688],[121.23168416153155,-28.745509389192264],[121.23267531715503,-28.744924142171236],[121.23129586705055,-28.743107012015916],[121.23963522931456,-28.738325742992075],[121.22845787662405,-28.72307814324688]]]},"properties":{"fmt_tenid":"M 37/587","type":"MINING LEASE","tenstatus":"LIVE","holder1":"ST BARBARA LIMITED","holder2":" ","legal_area":940.95,"unit_of_me":"HA.","_colour":"#f5a520","_label":"Mining Lease"}},{"type":"Feature","geometry":{"type":"Polygon","coordinates":[[[121.04810064827721,-28.4754870404878],[121.04817210818189,-28.48647894819607],[121.05209964947655,-28.486542494137655],[121.05179395946597,-28.499138788637836],[121.06166598271294,-28.49905724073789],[121.06161003558506,-28.50862745373648],[121.06441179091908,-28.508650771729258],[121.06464011413112,-28.508652669298243],[121.06679944716336,-28.48337672725551],[121.06346979980177,-28.47937480814312],[121.06023757279227,-28.475489618190494],[121.04810064827721,-28.4754870404878]]]},"properties":{"fmt_tenid":"M 37/598","type":"MINING LEASE","tenstatus":"LIVE","holder1":"ST BARBARA LIMITED","holder2":" ","legal_area":421.95,"unit_of_me":"HA.","_colour":"#f5a520","_label":"Mining Lease"}},{"type":"Feature","geometry":{"type":"Polygon","coordinates":[[[121.06464011413112,-28.508652669298243],[121.06429523926303,-28.51961417651461],[121.0742906516625,-28.520179649256043],[121.08904371254178,-28.519849297530776],[121.08299113990773,-28.51258070350636],[121.09958312653015,-28.501951528117264],[121.09793546493442,-28.500000109751795],[121.0833333380898,-28.50000000121784],[121.08333333607959,-28.497803586218218],[121.08045957867081,-28.497780488327614],[121.08060042612694,-28.48424393857985],[121.08333332953877,-28.48426631181847],[121.08333332997259,-28.483333334004847],[121.08386611609698,-28.483333366025814],[121.07784578621913,-28.476199264963455],[121.07338175288012,-28.479100460998882],[121.07297488505122,-28.47936480475017],[121.07009050851364,-28.48123873409045],[121.06679944716336,-28.48337672725551],[121.06464011413112,-28.508652669298243]]]},"properties":{"fmt_tenid":"M 37/599","type":"MINING LEASE","tenstatus":"LIVE","holder1":"ST BARBARA LIMITED","holder2":" ","legal_area":886.55,"unit_of_me":"HA.","_colour":"#f5a520","_label":"Mining Lease"}},{"type":"Feature","geometry":{"type":"Polygon","coordinates":[[[121.08299113990773,-28.51258070350636],[121.08904371254178,-28.519849297530776],[121.09418555690749,-28.519885597069976],[121.09454016516685,-28.525521803330697],[121.09872758043525,-28.53088896052591],[121.10402933805301,-28.530931460027073],[121.11084879581365,-28.53098581854983],[121.11163499946792,-28.54203235038073],[121.11387246217237,-28.54204873860631],[121.12384059421824,-28.542121097283662],[121.13252446901892,-28.542183484586126],[121.13226041368426,-28.54187120249009],[121.12642121911863,-28.534964962354383],[121.1185612448596,-28.524647306417197],[121.11961118481833,-28.523973457257412],[121.10569000318921,-28.509183548219074],[121.09958312653015,-28.501951528117264],[121.08299113990773,-28.51258070350636]]]},"properties":{"fmt_tenid":"M 37/600","type":"MINING LEASE","tenstatus":"LIVE","holder1":"ST BARBARA LIMITED","holder2":" ","legal_area":846.55,"unit_of_me":"HA.","_colour":"#f5a520","_label":"Mining Lease"}},{"type":"Feature","geometry":{"type":"Polygon","coordinates":[[[121.09395318318091,-28.54176280698556],[121.09395129091284,-28.541966746926104],[121.09384961669348,-28.552924864263975],[121.093849048165,-28.55298619115755],[121.09290017835522,-28.55299991597776],[121.09270655300662,-28.553002715737147],[121.09313149082644,-28.565054919380998],[121.09318493325796,-28.56657077582095],[121.10111486100251,-28.566352750383484],[121.10122618423493,-28.566496028742012],[121.10168181023147,-28.57941051995974],[121.10887449804035,-28.579212532575163],[121.10876795635654,-28.576201819939115],[121.11114341375445,-28.57925886185071],[121.11322451245975,-28.577995492566327],[121.12003921035041,-28.57385771353033],[121.12762050967926,-28.56925311713017],[121.12763364949572,-28.56927451110443],[121.12885688766673,-28.568648797268875],[121.1058840162053,-28.54199033679276],[121.10392425872261,-28.541975962589746],[121.10392568966658,-28.54182554564976],[121.09395318318091,-28.54176280698556]]]},"properties":{"fmt_tenid":"M 37/601","type":"MINING LEASE","tenstatus":"LIVE","holder1":"ST BARBARA LIMITED","holder2":" ","legal_area":885.6,"unit_of_me":"HA.","_colour":"#f5a520","_label":"Mining Lease"}},{"type":"Feature","geometry":{"type":"Polygon","coordinates":[[[121.12384059421824,-28.542121097283662],[121.11387246217237,-28.54204873860631],[121.11163499946792,-28.54203235038073],[121.10741771440873,-28.54200156595069],[121.1058840162053,-28.54199033679276],[121.12885688766673,-28.568648797268875],[121.13368903054358,-28.57461564919248],[121.13458270375146,-28.574031505954864],[121.13462303571526,-28.57400514298923],[121.14572759172046,-28.566745669708133],[121.14584812150665,-28.566666863857826],[121.14677474488482,-28.56606100396947],[121.14773477724682,-28.565433225048512],[121.15060142660806,-28.563558592829775],[121.15185350996771,-28.56285294871709],[121.14880013192858,-28.55714060157102],[121.14717967195841,-28.55795519907656],[121.1448658117209,-28.554300081639635],[121.14512458819033,-28.55417371979959],[121.14408117508214,-28.552253923914332],[121.14368605507094,-28.551526846188803],[121.13964008947653,-28.544081050470115],[121.1355823486219,-28.545799733982804],[121.13252446901892,-28.542183484586126],[121.12384059421824,-28.542121097283662]]]},"properties":{"fmt_tenid":"M 37/602","type":"MINING LEASE","tenstatus":"LIVE","holder1":"ST BARBARA LIMITED","holder2":" ","legal_area":829.5,"unit_of_me":"HA.","_colour":"#f5a520","_label":"Mining Lease"}},{"type":"Feature","geometry":{"type":"Polygon","coordinates":[[[121.3323206543888,-28.901124653240117],[121.33231982614387,-28.898124603920536],[121.33231949066874,-28.896906758037836],[121.3323190168266,-28.89518397544718],[121.32932473103035,-28.89518424095918],[121.32932347196781,-28.894809589522367],[121.32703595109942,-28.89480932572133],[121.32700919876311,-28.897107770251424],[121.32827820620469,-28.897235342632847],[121.32847043154095,-28.899173809638572],[121.32859417133113,-28.900077009996327],[121.32934076112825,-28.89995508075825],[121.3293435950286,-28.900799418478154],[121.3293446852213,-28.901124252985245],[121.3293547297942,-28.90411863142958],[121.33232148164274,-28.904119187572054],[121.3323206543888,-28.901124653240117]]]},"properties":{"fmt_tenid":"M 37/622","type":"MINING LEASE","tenstatus":"LIVE","holder1":"ST BARBARA LIMITED","holder2":" ","legal_area":37.505,"unit_of_me":"HA.","_colour":"#f5a520","_label":"Mining Lease"}},{"type":"Feature","geometry":{"type":"Polygon","coordinates":[[[121.26037190795692,-28.743251997299964],[121.26087145474482,-28.734340038552823],[121.25956147259707,-28.741782338981206],[121.25713441842365,-28.743341227232012],[121.25116212652222,-28.746180321465182],[121.2681759299647,-28.768888474897814],[121.27810646770484,-28.763032040033817],[121.28414692728379,-28.77094689662847],[121.28441423255481,-28.77087233862043],[121.28636936251765,-28.77032697983809],[121.28541546733912,-28.769026788179268],[121.28475168139887,-28.76925140996786],[121.28475159957098,-28.76812186452222],[121.26460236587828,-28.74064822501269],[121.26037190795692,-28.743251997299964]]]},"properties":{"fmt_tenid":"M 37/626","type":"MINING LEASE","tenstatus":"LIVE","holder1":"ST BARBARA LIMITED","holder2":" ","legal_area":442.55,"unit_of_me":"HA.","_colour":"#f5a520","_label":"Mining Lease"}},{"type":"Feature","geometry":{"type":"Polygon","coordinates":[[[121.30153859483109,-28.87723552505368],[121.30142108301597,-28.90265935438989],[121.30130870476712,-28.92688913562459],[121.30873454051056,-28.926914925591102],[121.30873817898778,-28.914417311209043],[121.3190081891184,-28.914503451516065],[121.31943162945615,-28.913207533548565],[121.31925938426251,-28.90417460830185],[121.30892562682938,-28.904067885974893],[121.30902579284431,-28.884599764336194],[121.30989233961112,-28.884288683172947],[121.30672154020827,-28.876581916094068],[121.30190132862832,-28.87811798094287],[121.30153859483109,-28.87723552505368]]]},"properties":{"fmt_tenid":"M 37/689","type":"MINING LEASE","tenstatus":"LIVE","holder1":"ST BARBARA LIMITED","holder2":" ","legal_area":513.4,"unit_of_me":"HA.","_colour":"#f5a520","_label":"Mining Lease"}},{"type":"Feature","geometry":{"type":"Polygon","coordinates":[[[121.16709709183138,-28.705179654326606],[121.17414386408333,-28.717665800521235],[121.17494037960529,-28.71731697095603],[121.18155555768313,-28.714419620580745],[121.18529216698205,-28.720990416501493],[121.19808107254454,-28.715221472498232],[121.20608976494891,-28.711607891736524],[121.20353529084714,-28.70715297687742],[121.19931966251833,-28.69934398492502],[121.19671641273501,-28.70048768568674],[121.19199297155984,-28.70256267233884],[121.19151369610084,-28.701637330508447],[121.18869158274138,-28.70284401464108],[121.18983602080043,-28.704352782070163],[121.18129859377395,-28.709388523272036],[121.17936194054774,-28.710530726092507],[121.17407073085703,-28.701148997787055],[121.17254814841172,-28.701446759724334],[121.16962667371438,-28.70201803473061],[121.17009834674899,-28.70282734241353],[121.16709709183138,-28.705179654326606]]]},"properties":{"fmt_tenid":"M 37/763","type":"MINING LEASE","tenstatus":"LIVE","holder1":"ST BARBARA LIMITED","holder2":" ","legal_area":465.65,"unit_of_me":"HA.","_colour":"#f5a520","_label":"Mining Lease"}},{"type":"Feature","geometry":{"type":"Polygon","coordinates":[[[121.3558776094021,-28.921271329005673],[121.35588087062591,-28.930819615530663],[121.35371373666243,-28.930820000737313],[121.35401338562563,-28.938616492159998],[121.339498783007,-28.938781305549234],[121.33949877023682,-28.939945893362925],[121.34135150823359,-28.940020378081385],[121.34111246470331,-28.94461870475161],[121.35588636701901,-28.944663946726052],[121.35578732308736,-28.934625411753903],[121.36395406834892,-28.934593319858422],[121.36361023822164,-28.920954898768873],[121.3558776094021,-28.921271329005673]]]},"properties":{"fmt_tenid":"M 37/849","type":"MINING LEASE","tenstatus":"LIVE","holder1":"ST BARBARA LIMITED","holder2":" ","legal_area":228.45,"unit_of_me":"HA.","_colour":"#f5a520","_label":"Mining Lease"}},{"type":"Feature","geometry":{"type":"Polygon","coordinates":[[[121.3240199073207,-28.909835409194248],[121.32336937410241,-28.912031182249688],[121.32309863984274,-28.912945956033568],[121.3227194116183,-28.91422727490304],[121.32459764098249,-28.914657950682344],[121.32591365537284,-28.91495969368088],[121.32656379307711,-28.91276355899191],[121.32721425509723,-28.910567732453924],[121.3240199073207,-28.909835409194248]]]},"properties":{"fmt_tenid":"M 37/903","type":"MINING LEASE","tenstatus":"LIVE","holder1":"ST BARBARA LIMITED","holder2":" ","legal_area":16.195,"unit_of_me":"HA.","_colour":"#f5a520","_label":"Mining Lease"}},{"type":"Feature","geometry":{"type":"Polygon","coordinates":[[[121.13464886457317,-28.5780048446401],[121.14987465640924,-28.569549809654],[121.1473130029112,-28.566666809298344],[121.14584812150665,-28.566666863857826],[121.14572759172046,-28.566745669708133],[121.13462303671528,-28.574005141989243],[121.13458266875152,-28.574031531954837],[121.13464886457317,-28.5780048446401]]]},"properties":{"fmt_tenid":"M 37/975","type":"MINING LEASE","tenstatus":"LIVE","holder1":"ST BARBARA LIMITED","holder2":" ","legal_area":69.09,"unit_of_me":"HA.","_colour":"#f5a520","_label":"Mining Lease"}}]}