{"type":"FeatureCollection","_source":"Multi-state Australian tenement registry","_holders":["SANDFIRE RESOURCES LIMITED"],"_ticker":"SFR.AX","features":[{"type":"Feature","geometry":{"type":"Polygon","coordinates":[[[119.29529188951062,-25.566650522587405],[119.31255133692994,-25.566662398214387],[119.32702646857308,-25.5622170131256],[119.34580733748669,-25.55644680381535],[119.34578938892147,-25.548553066186443],[119.33727812994199,-25.549704717271325],[119.33551117000695,-25.54090142998823],[119.34576866495158,-25.539366017525406],[119.34575044101535,-25.531279055772334],[119.32739827854307,-25.531302103067286],[119.30959750340747,-25.531322003454278],[119.29522624551777,-25.531336764442802],[119.29525968334838,-25.549388505973223],[119.29529188951062,-25.566650522587405]]]},"properties":{"fmt_tenid":"M 52/1046","type":"MINING LEASE","tenstatus":"LIVE","holder1":"SANDFIRE RESOURCES LIMITED","holder2":" ","legal_area":1704.5,"unit_of_me":"HA.","_colour":"#f5a520","_label":"Mining Lease"}},{"type":"Feature","geometry":{"type":"Polygon","coordinates":[[[119.72855029470301,-25.458631225990704],[119.7296634453287,-25.463997879803433],[119.73744888160094,-25.462776952447722],[119.73649837995517,-25.45730619461308],[119.72855029470301,-25.458631225990704]]]},"properties":{"fmt_tenid":"M 52/1060","type":"MINING LEASE","tenstatus":"LIVE","holder1":"SANDFIRE RESOURCES LIMITED","holder2":" ","legal_area":48.965,"unit_of_me":"HA.","_colour":"#f5a520","_label":"Mining Lease"}},{"type":"Feature","geometry":{"type":"Polygon","coordinates":[[[119.68854651368383,-25.50728233584897],[119.69506671149027,-25.523511542956868],[119.72019642594817,-25.515232393023],[119.7115503505076,-25.493602582189187],[119.70443033254429,-25.495911068575033],[119.70666099909235,-25.501628093568293],[119.68854651368383,-25.50728233584897]]]},"properties":{"fmt_tenid":"M 52/1061","type":"MINING LEASE","tenstatus":"LIVE","holder1":"SANDFIRE RESOURCES LIMITED","holder2":" ","legal_area":560.15,"unit_of_me":"HA.","_colour":"#f5a520","_label":"Mining Lease"}},{"type":"Feature","geometry":{"type":"Polygon","coordinates":[[[119.42260585761906,-25.53225684464732],[119.40989816152305,-25.54220355485758],[119.39578527339494,-25.553246923473896],[119.40662486493659,-25.564620272659543],[119.41855544716478,-25.577134902653622],[119.43272097776524,-25.566064425544095],[119.44565823670256,-25.555950861725258],[119.45391653620777,-25.549493530564877],[119.44382403426185,-25.538867555733795],[119.43117591854634,-25.525547235308284],[119.42260585761906,-25.53225684464732]]]},"properties":{"fmt_tenid":"M 52/1071","type":"MINING LEASE","tenstatus":"LIVE","holder1":"SANDFIRE RESOURCES LIMITED","holder2":" ","legal_area":1643,"unit_of_me":"HA.","_colour":"#f5a520","_label":"Mining Lease"}}]}