{"type":"FeatureCollection","_source":"Multi-state Australian tenement registry","_holders":["SXG Victoria Pty Ltd"],"_ticker":"SXG.AX","features":[{"type":"Feature","id":"ER_CURR_EL.61077","geometry":{"type":"Polygon","coordinates":[[[144.67901336,-36.82524237],[144.67846874,-36.8432569],[144.7132776,-36.8439319],[144.71356554,-36.84277347],[144.71364614,-36.84244943],[144.71400813,-36.84099215],[144.7160053,-36.84122209],[144.71622397,-36.83995237],[144.7162305,-36.83991442],[144.71623815,-36.83987003],[144.71656621,-36.83796504],[144.7168496,-36.83631932],[144.71711546,-36.83477352],[144.71571899,-36.8346105],[144.715719,-36.83461043],[144.7157185,-36.83461038],[144.71610356,-36.83244907],[144.71628126,-36.83145037],[144.71655743,-36.82989811],[144.71657727,-36.82978656],[144.71664548,-36.82940133],[144.71664581,-36.82940132],[144.71664588,-36.82940094],[144.71967488,-36.82938702],[144.72236241,-36.82937427],[144.7237343,-36.82936818],[144.72383089,-36.8261092],[144.67901336,-36.82524237]]]},"geometry_name":"SHAPE","properties":{"TAG":"EL5546","TNO":"EL5546","GTYPE":"EL","GSTATUS":"CURRE","INGRES":"Y","LAYER":"el","COVER":"el55c","ZONE":55,"ACTIVE":"Current","SOURCEFC":"MI_CURRENT","X_COORD":144.69817074,"Y_COORD":-36.83430031,"TYPE":"EL","TNO_OLD":" ","TYPEDESCM":"Exploration","TYPEDESC":"Exploration Licence","ACT":"MRSDA","ACTDESC":"Mineral Resources Sustainable Development Act 1990","NO":" ","RENEW":"0","RENEW_APP":"No","OWN_NAME":"SXG Victoria Pty Ltd","OWN_ADDR1":"99 Addison Street","OWN_ADDR2":" ","OWN_TOWN":"Elwood","OWN_POST":"3184","OWN_PHONE":"+61 405 261 103","OWN_FAX":" ","APPSUB_DT":"2015-01-26T13:00:00Z","APPSUB_DTI":20150127,"APPREC_DT":"2015-01-28T13:00:00Z","APPREC_DTI":20150129,"GRANT1_DT":"2017-05-07T14:00:00Z","GRANT1_DTI":20170508,"GRANTL_DT":"2022-05-07T14:00:00Z","GRANTL_DTI":20220508,"EXPL_DT":"2027-05-06T14:00:00Z","EXPL_DTI":20270507,"ACW_DT":null,"ACW_DTI":0,"BOND":20000,"COV_TOT":0,"AREA_CURR":51,"AREA_ORIG":69,"RSTATUS":"Current","RSTAGE":" ","STATUS":"CURRE","STATUSSDSC":"Current","STATUSLDSC":"Currently Active","STATUSADSC":"Current","SITE_NAME":" ","INSP":"North","LGA_DESC":"Strathbogie","LVS_REG":"North East","LVS_NAME":" ","LVS_PHONE":" ","LVS_EMAIL":" ","MAP":"(7824) Heathcote","LSTAT_DESC":"CL and PL and road and road reserves","MIN_DESC":"Antimony;Gold;Base Metals","CORRE_NAME":"Michael Davie-Smythe","CORRE_ADDR":"48A Charman Road Mentone 3194","CSO_NAME":"Licensing","CSO_PHONE":"1300 366 356","CSO_EMAIL":"licensing.err@deeca.vic.gov.au","DBSOURCE":"rram_sf","AREASQM":6898498.22124529,"HECTARES":689.84982212,"SE_ANNO_CAD_DATA":null,"fmt_tenid":"EL5546","type":"EXPLORATION LICENCE","tenstatus":"LIVE","holder1":"SXG Victoria Pty Ltd","_colour":"#a0c4f0","_label":"Exploration Licence"}},{"type":"Feature","id":"ER_CURR_EL.60944","geometry":{"type":"Polygon","coordinates":[[[144.98581223,-36.66860009],[144.98463651,-36.71364664],[144.97344638,-36.71345659],[144.97320962,-36.72246579],[145.01797599,-36.72321994],[145.01820753,-36.71421049],[145.05177947,-36.71476488],[145.052007,-36.70575523],[145.04081755,-36.70557155],[145.04104628,-36.69656194],[145.02985824,-36.69637727],[145.03008817,-36.68736771],[145.01890154,-36.68718205],[145.00771501,-36.68699533],[145.00794744,-36.67798589],[144.99676232,-36.67779818],[144.99699595,-36.66878878],[144.98581223,-36.66860009]]]},"geometry_name":"SHAPE","properties":{"TAG":"EL007653","TNO":"EL007653","GTYPE":"EL","GSTATUS":"APPLI","INGRES":"Y","LAYER":"el","COVER":"el55d","ZONE":55,"ACTIVE":"Application","SOURCEFC":"MI_CURRENT","X_COORD":145.00784398,"Y_COORD":-36.70174654,"TYPE":"EL","TNO_OLD":" ","TYPEDESCM":"Exploration","TYPEDESC":"Exploration Licence","ACT":"MRSDA","ACTDESC":"Mineral Resources Sustainable Development Act 1990","NO":" ","RENEW":"0","RENEW_APP":"No","OWN_NAME":"SXG Victoria Pty Ltd","OWN_ADDR1":"99 Addison Street","OWN_ADDR2":" ","OWN_TOWN":"Elwood","OWN_POST":"3184","OWN_PHONE":"+61 405 261 103","OWN_FAX":" ","APPSUB_DT":"2021-05-31T14:00:00Z","APPSUB_DTI":20210601,"APPREC_DT":"2021-06-30T14:00:00Z","APPREC_DTI":20210701,"GRANT1_DT":null,"GRANT1_DTI":0,"GRANTL_DT":null,"GRANTL_DTI":0,"EXPL_DT":null,"EXPL_DTI":0,"ACW_DT":null,"ACW_DTI":0,"BOND":0,"COV_TOT":0,"AREA_CURR":0,"AREA_ORIG":22,"RSTATUS":"Application","RSTAGE":"Native Title","STATUS":"APPLI","STATUSSDSC":"Application","STATUSLDSC":"Application Received but not Granted Yet","STATUSADSC":"Application","SITE_NAME":" ","INSP":"North","LGA_DESC":"Strathbogie","LVS_REG":"North East","LVS_NAME":" ","LVS_PHONE":" ","LVS_EMAIL":" ","MAP":"(7924) Nagambie","LSTAT_DESC":"CL and PL and road and road reserves","MIN_DESC":"Gold;Antimony","CORRE_NAME":"Michael Davie-Smythe","CORRE_ADDR":"48A Charman Road Mentone  3194","CSO_NAME":"Licensing","CSO_PHONE":"1300 366 356","CSO_EMAIL":"licensing.err@deeca.vic.gov.au","DBSOURCE":"rram_sf","AREASQM":22052519.6134601,"HECTARES":2205.25196135,"SE_ANNO_CAD_DATA":null,"fmt_tenid":"EL007653","type":"EXPLORATION LICENCE","tenstatus":"LIVE","holder1":"SXG Victoria Pty Ltd","_colour":"#a0c4f0","_label":"Exploration Licence"}},{"type":"Feature","id":"ER_CURR_EL.60907","geometry":{"type":"Polygon","coordinates":[[[144.75077451,-36.83563372],[144.75078673,-36.83396952],[144.75079269,-36.83315642],[144.75129209,-36.83316102],[144.75605949,-36.83320501],[144.75851225,-36.83321962],[144.76190249,-36.83323982],[144.76383529,-36.83325142],[144.76477671,-36.83182011],[144.76628719,-36.82952362],[144.76891439,-36.82552962],[144.76908509,-36.82527002],[144.77235659,-36.82029461],[144.77319769,-36.82028611],[144.77291703,-36.81954855],[144.76887931,-36.80893788],[144.76699769,-36.80399322],[144.76653019,-36.80399282],[144.76634599,-36.80343929],[144.76522066,-36.80005771],[144.76512249,-36.79976272],[144.76459477,-36.7981789],[144.7607138,-36.78653131],[144.76076025,-36.78655223],[144.76690809,-36.78932061],[144.76917589,-36.78898821],[144.77436014,-36.78656806],[144.77527769,-36.78613972],[144.77566559,-36.78552981],[144.77564009,-36.79346522],[144.77562432,-36.79838501],[144.7756211,-36.7993896],[144.77561999,-36.79973422],[144.77610469,-36.79973292],[144.77830959,-36.79972682],[144.77850889,-36.79972622],[144.77870819,-36.79972562],[144.77974189,-36.79972295],[144.78064835,-36.79972064],[144.78065759,-36.79939909],[144.78068399,-36.79847966],[144.78115354,-36.78212925],[144.76001293,-36.78173134],[144.75875889,-36.78170774],[144.75822296,-36.80008379],[144.75797071,-36.80873268],[144.75744512,-36.82674825],[144.75129206,-36.82663127],[144.73503553,-36.82632222],[144.73476986,-36.8353309],[144.75077451,-36.83563372]]]},"geometry_name":"SHAPE","properties":{"TAG":"EL007498","TNO":"EL007498","GTYPE":"EL","GSTATUS":"CURRE","INGRES":"Y","LAYER":"el","COVER":"el55i","ZONE":55,"ACTIVE":"Current","SOURCEFC":"MI_CURRENT","X_COORD":144.76130917,"Y_COORD":-36.81142013,"TYPE":"EL","TNO_OLD":" ","TYPEDESCM":"Exploration","TYPEDESC":"Exploration Licence","ACT":"MRSDA","ACTDESC":"Mineral Resources Sustainable Development Act 1990","NO":" ","RENEW":"0","RENEW_APP":"No","OWN_NAME":"SXG Victoria Pty Ltd","OWN_ADDR1":"99 Addison Street","OWN_ADDR2":" ","OWN_TOWN":"Elwood","OWN_POST":"3184","OWN_PHONE":"+61 405 261 103","OWN_FAX":" ","APPSUB_DT":"2020-09-21T14:00:00Z","APPSUB_DTI":20200922,"APPREC_DT":"2020-11-19T13:00:00Z","APPREC_DTI":20201120,"GRANT1_DT":"2021-05-27T14:00:00Z","GRANT1_DTI":20210528,"GRANTL_DT":"2021-05-27T14:00:00Z","GRANTL_DTI":20210528,"EXPL_DT":"2026-05-26T14:00:00Z","EXPL_DTI":20260527,"ACW_DT":null,"ACW_DTI":0,"BOND":0,"COV_TOT":0,"AREA_CURR":12,"AREA_ORIG":19,"RSTATUS":"Current","RSTAGE":" ","STATUS":"CURRE","STATUSSDSC":"Current","STATUSLDSC":"Currently Active","STATUSADSC":"Current","SITE_NAME":" ","INSP":"North","LGA_DESC":"Greater Bendigo","LVS_REG":"North East","LVS_NAME":" ","LVS_PHONE":" ","LVS_EMAIL":" ","MAP":"(7824) Heathcote","LSTAT_DESC":"PL and road and road reserves","MIN_DESC":"Antimony;Base Metals (copper / lead / zinc);Gold","CORRE_NAME":"Michael Davie-Smythe","CORRE_ADDR":"48A Charman Road Mentone 3194","CSO_NAME":"Licensing","CSO_PHONE":"1300 366 356","CSO_EMAIL":"licensing.err@deeca.vic.gov.au","DBSOURCE":"rram_sf","AREASQM":8011290.39327979,"HECTARES":801.12903933,"SE_ANNO_CAD_DATA":null,"fmt_tenid":"EL007498","type":"EXPLORATION LICENCE","tenstatus":"LIVE","holder1":"SXG Victoria Pty Ltd","_colour":"#a0c4f0","_label":"Exploration Licence"}},{"type":"Feature","id":"ER_CURR_EL.60908","geometry":{"type":"Polygon","coordinates":[[[144.71208948,-36.84390894],[144.7087676,-36.84384467],[144.70088252,-36.84369212],[144.70047767,-36.85720378],[144.70011656,-36.86924715],[144.70007256,-36.87071455],[144.70222583,-36.87075597],[144.70248069,-36.87043382],[144.70340849,-36.86926102],[144.70432459,-36.86810291],[144.70582485,-36.86620626],[144.70659169,-36.86523681],[144.70660055,-36.86518092],[144.70660689,-36.86514092],[144.70662209,-36.86504581],[144.70684849,-36.86391141],[144.70713199,-36.86249072],[144.70735379,-36.86137972],[144.70757789,-36.86025682],[144.70779679,-36.85915971],[144.70799489,-36.85816692],[144.70819449,-36.85716692],[144.70830626,-36.85718148],[144.70974429,-36.85736882],[144.71004008,-36.85586502],[144.71032679,-36.85440781],[144.71062789,-36.85287701],[144.71095529,-36.85121281],[144.71059234,-36.85116597],[144.70866763,-36.85091758],[144.70890862,-36.84985258],[144.7099356,-36.84843855],[144.7119465,-36.84870433],[144.71199951,-36.84692587],[144.71098146,-36.84679064],[144.70810461,-36.84640854],[144.70819461,-36.84604154],[144.71106078,-36.84641205],[144.71201118,-36.84653492],[144.71208948,-36.84390894]]]},"geometry_name":"SHAPE","properties":{"TAG":"EL007499","TNO":"EL007499","GTYPE":"EL","GSTATUS":"CURRE","INGRES":"Y","LAYER":"el","COVER":"el55i","ZONE":55,"ACTIVE":"Current","SOURCEFC":"MI_CURRENT","X_COORD":144.70486351,"Y_COORD":-36.85506954,"TYPE":"EL","TNO_OLD":" ","TYPEDESCM":"Exploration","TYPEDESC":"Exploration Licence","ACT":"MRSDA","ACTDESC":"Mineral Resources Sustainable Development Act 1990","NO":" ","RENEW":"0","RENEW_APP":"No","OWN_NAME":"SXG Victoria Pty Ltd","OWN_ADDR1":"99 Addison Street","OWN_ADDR2":" ","OWN_TOWN":"Elwood","OWN_POST":"3184","OWN_PHONE":"+61 405 261 103","OWN_FAX":" ","APPSUB_DT":"2020-09-21T14:00:00Z","APPSUB_DTI":20200922,"APPREC_DT":"2020-11-18T13:00:00Z","APPREC_DTI":20201119,"GRANT1_DT":"2021-05-27T14:00:00Z","GRANT1_DTI":20210528,"GRANTL_DT":"2021-05-27T14:00:00Z","GRANTL_DTI":20210528,"EXPL_DT":"2026-05-26T14:00:00Z","EXPL_DTI":20260527,"ACW_DT":null,"ACW_DTI":0,"BOND":0,"COV_TOT":0,"AREA_CURR":3,"AREA_ORIG":5,"RSTATUS":"Current","RSTAGE":" ","STATUS":"CURRE","STATUSSDSC":"Current","STATUSLDSC":"Currently Active","STATUSADSC":"Current","SITE_NAME":" ","INSP":"North","LGA_DESC":"Greater Bendigo","LVS_REG":"North East","LVS_NAME":" ","LVS_PHONE":" ","LVS_EMAIL":" ","MAP":"(7824) Heathcote","LSTAT_DESC":"PL and road and road reserves","MIN_DESC":"Antimony;Base Metals (copper / lead / zinc);Gold","CORRE_NAME":"Michael Davie-Smythe","CORRE_ADDR":"48A Charman Road Mentone 3194","CSO_NAME":"Licensing","CSO_PHONE":"1300 366 356","CSO_EMAIL":"licensing.err@deeca.vic.gov.au","DBSOURCE":"rram_sf","AREASQM":2113326.30394633,"HECTARES":211.33263039,"SE_ANNO_CAD_DATA":null,"fmt_tenid":"EL007499","type":"EXPLORATION LICENCE","tenstatus":"LIVE","holder1":"SXG Victoria Pty Ltd","_colour":"#a0c4f0","_label":"Exploration Licence"}}]}