{
  "type": "FeatureCollection",
  "_note": "Permit boundaries are ESTIMATED from published centre coordinates + reported permit areas. Not official surveyed corners. Sanbrado centre from MiningDataOnline (high confidence). Polygon derived from 116 km² area report.",
  "features": [
    {
      "type": "Feature",
      "properties": {
        "fmt_tenid": "Sanbrado Mining Permit",
        "type": "MINING PERMIT",
        "tenstatus": "LIVE",
        "holder1": "West African Resources Ltd",
        "legal_area": "116",
        "unit_of_me": "km²",
        "_colour": "#f5a520",
        "_label": "Mining Permit (estimated ~116 km²)",
        "_accuracy": "estimated"
      },
      "geometry": {
        "type": "Polygon",
        "coordinates": [[
          [-0.830, 12.130],
          [-0.722, 12.130],
          [-0.722, 12.033],
          [-0.830, 12.033],
          [-0.830, 12.130]
        ]]
      }
    },
    {
      "type": "Feature",
      "properties": {
        "fmt_tenid": "Kiaka Mining Permit",
        "type": "MINING PERMIT",
        "tenstatus": "LIVE",
        "holder1": "West African Resources Ltd",
        "legal_area": "54",
        "unit_of_me": "km²",
        "_colour": "#c4a030",
        "_label": "Kiaka Development Permit (estimated ~54 km²)",
        "_accuracy": "estimated"
      },
      "geometry": {
        "type": "Polygon",
        "coordinates": [[
          [-0.834, 11.698],
          [-0.768, 11.698],
          [-0.768, 11.631],
          [-0.834, 11.631],
          [-0.834, 11.698]
        ]]
      }
    }
  ]
}
